id,name,zipcode,prefecture,city,streetAddress,building,visited,visitDate,visitCount,favorite,closed,memo
45122694-e0fb-4bce-a1d2-a7253fc4cc76,札幌菊水元町店,0030827,北海道,札幌市白石区,菊水元町7条1丁目10－23,,,,,,,
530c0ccb-b490-422b-97b9-a785b4efd522,札幌川下店,0030869,北海道,札幌市白石区,川下5条4丁目1-20,,,,,,,
ad43e368-d997-4bee-b14a-a1b4f2436b93,新さっぽろサンピアザ店,0040052,北海道,札幌市厚別区,厚別中央2条5丁目7-2,新さっぽろアークシティ サンピアザSC,,,,,,
87040350-53f9-487d-9399-e943ebdef669,札幌北野店,0040866,北海道,札幌市清田区,北野6条5丁目6-36,,,,,,,
531e3697-d5d4-45b9-b5ea-121acc886b42,イオンモール札幌平岡店,0040873,北海道,札幌市清田区,平岡三条5丁目3-1,イオンモール札幌平岡,,,,,,
57d1dd2f-7780-41bf-92d9-bf5cc81524c9,札幌石山店,0050849,北海道,札幌市南区,石山2条9丁目7-50,アクロスプラザ札幌南,,,,,,
9241e144-2610-4976-9b82-5cc29defcd1c,イオンモール札幌苗穂店,0070802,北海道,札幌市東区,東苗穂2条3丁目1-1,イオンモール札幌苗穂,,,,,,
d68593d9-537f-4eed-b42e-d8ec5019d96f,シエスタハコダテ店,0400011,北海道,函館市,本町24-1,シエスタハコダテ,,,,,,
6b0f6c64-4ecd-4614-948a-370dd04d9db5,函館ベイサイド店,0400053,北海道,函館市,末広町24-6,函館西波止場,,,,,,
3cc323eb-22b8-4ddf-b96f-55becfc0bc16,函館蔦屋書店,0410802,北海道,函館市,石川町85-1,,,,,,,
733effe4-9316-431e-8fe3-0a89791007f3,函館美原店,0410806,北海道,函館市,美原1-36-14,,,,,,,
a4fd6298-8a1f-4014-9bcc-a847a15642d4,函館五稜郭駅前店,0410813,北海道,函館市,亀田本町46-1,,,,,,,
c9f641c4-e580-49b5-b1ad-dd8d0e4ad445,室蘭店,0500075,北海道,室蘭市,中島本町1-3-1,モルエ中島,,,,,,
abadfc10-4abb-4447-aea8-57cbb553f1a8,苫小牧末広店,0530011,北海道,苫小牧市,末広町3-8-14,,,,,,,
1fb3a55b-2702-47d8-8e15-e342e360f229,イオンモール苫小牧店,0530053,北海道,苫小牧市,柳町3-1-20,イオンモール苫小牧,,,,,,
000e0c87-964b-416a-8878-2e604b25acb1,札幌グランドホテル店,0600001,北海道,札幌市中央区,北1条西4丁目,札幌グランドホテル 1F,,,,,,
6ce78f70-ecf9-4d1b-a043-62358faba035,大同生命札幌ビル ミレド地下1階店,0600003,北海道,札幌市中央区,北三条西3丁目1,大同生命札幌ビル地下1階,,,,,,
8d1aa396-3c2f-422a-807c-eca906871502,大同生命札幌ビル ミレド2階店,0600003,北海道,札幌市中央区,北三条西3丁目1,大同生命札幌ビル2階,,,,,,
420c4c47-739f-449a-9507-c80f8363d7fd,札幌ステラプレイス センター1階店,0600005,北海道,札幌市中央区,北5条西2丁目5,JRタワー「ステラプレイス」,,,,,,
e683b747-0be1-4fd0-949f-9ced848a578a,札幌ステラプレイス イースト2階店,0600005,北海道,札幌市中央区,北5条西2丁目5,,,,,,,
4f334856-64fc-4b3f-8d8d-bb0ded64dc70,札幌紀伊國屋書店,0600005,北海道,札幌市中央区,北5条西5丁目7,sapporo55　紀伊國屋書店内2階,,,,,,
7b199739-602a-4ef2-95ba-70b4371d9993,札幌アピア店,0600005,北海道,札幌市中央区,北5条西4丁目,アピア地下1階,,,,,,
6df4e126-ff75-4b53-8c1e-281556a048bb,イオン札幌桑園店,0600008,北海道,札幌市中央区,北8条西14丁目28,イオン札幌桑園ショッピングセンター,,,,,,
2634a411-303f-4edb-9eac-3973584034c2,札幌南一条店,0600061,北海道,札幌市中央区,南1条西2丁目5,南一条Ｋビル 1F,,,,,,
b1c4f58b-238c-4d7c-9820-ba7c8f4c5431,札幌パルコ店,0600061,北海道,札幌市中央区,南1条西3丁目3,札幌パルコ,,,,,,
4ebf3a85-3a20-4355-b08c-55b8d6a3d68b,さつきた８・１店,0600808,北海道,札幌市北区,北8条西1丁目3,さつきた８・１ 1階,,,,,,
fe9e0daf-f340-48ba-b01b-064ec4110c41,札幌医科大学附属病院店,0600061,北海道,札幌市中央区,南1条西16丁目,札幌医科大学附属病院,,,,,,
dc1a2146-b129-4b70-a2f8-dd20d54e88ef,北海道ボールパークFビレッジ店,0611116,北海道,北広島市,Fビレッジ8,SUNNY TERRACE 1階,,,,,,
30543b5e-eadc-42af-b3f2-01703a0a5e43,北広島大曲店,0611278,北海道,北広島市,大曲幸町6-1,インターヴィレッジ大曲,,,,,,
5dba9f30-8039-49b9-8f3d-88ecbdcfd02f,はなふる恵庭店,0611375,北海道,恵庭市,南島松817-4,花の拠点はなふる,,,,,,
c06f743b-c270-4cfb-8cf3-f0030392c7ce,札幌美園店,0620003,北海道,札幌市豊平区,美園3条6丁目2-18,,,,,,,
ff30a875-0d1a-473b-9658-e8e674d32739,ブランチ札幌月寒店,0620053,北海道,札幌市豊平区,月寒東3条11丁目1-29,BRANCH札幌月寒,,,,,,
899e811c-12df-400e-8172-1c0618891985,札幌西町店,0630062,北海道,札幌市西区,西町南4-1-20,,,,,,,
fd32faf9-9650-4826-bc1a-cb5ea9a282d5,イオンモール札幌発寒店,0630828,北海道,札幌市西区,発寒8条12丁目1-1,イオンモール札幌発寒,,,,,,
40e44730-fbe6-4a57-baba-d74022bc117a,札幌円山店,0640801,北海道,札幌市中央区,南1条西27丁目1-1,マルヤマクラス,,,,,,
1eed94e7-86e7-4632-8773-c06c1f99333d,ココノ ススキノ店,0640804,北海道,札幌市中央区,南４条西4-1-1,ココノ ススキノ 地下1階,,,,,,
d2aa243b-695f-4a2a-8113-b9e450decc37,札幌旭ケ丘店,0640808,北海道,札幌市中央区,南8条西23丁目4-6,,,,,,,
dfbbcc5b-e989-4fef-b5e5-1b700c6285e4,札幌宮ケ丘店,0640959,北海道,札幌市中央区,宮ケ丘1-1-1,,,,,,,
d10fa2e7-38d5-41de-bed4-c48fbfd770bf,札幌環状通東店,0650042,北海道,札幌市東区,本町2条1丁目5-1,,,,,,,
1438fec8-b891-4176-b00f-82eac96d1977,アリオ札幌店,0650007,北海道,札幌市東区,北７条東9丁目2-20,アリオ札幌,,,,,,
a321dd63-3422-438e-866f-41aaf21e99fe,新千歳空港店,0660012,北海道,千歳市,美々　,新千歳空港連絡施設 3F,,,,,,
03d4c123-cae1-4207-82c4-4d9d897555ac,千歳信濃店,0660038,北海道,千歳市,信濃3-17-11,,,,,,,
399f9516-46b1-40c0-b2ad-fd8a1ad7cda7,江別 蔦屋書店,0670005,北海道,江別市,牧場町14-1,,,,,,,
9ae07a81-b8b3-48fb-be1a-0ab1fcd3cb55,旭川大雪通店,0700010,北海道,旭川市,大雪通4-491-2,,,,,,,
e38576a2-62c7-4020-bf60-617cbce35d59,イオンモール旭川駅前店,0700030,北海道,旭川市,宮下通7-2-5,,,,,,,
576dd224-07bc-499b-81f0-90f8ecee1d17,イオンモール旭川西店,0700823,北海道,旭川市,緑町23丁目2161-3,イオンモール旭川西,,,,,,
304add71-cd6d-41a6-ada3-edbdc170cc82,TSUTAYA BOOKSTORE 滝川店,0730033,北海道,滝川市,新町2-10-15,,,,,,,
e8512632-1fa6-41d6-95ee-a756710dd035,旭川東光店,0788353,北海道,旭川市,東光13条6丁目2-6,,,,,,,
e504a619-66ea-4c22-a081-b7082eca3b50,旭川北彩都店,0788392,北海道,旭川市,宮前2条1丁目1-1,,,,,,,
f3fd2423-392e-4b6c-bd91-d3d1bdeb8de6,旭川医科大学病院店,0788802,北海道,旭川市,緑が丘東2条1丁目1-1,旭川医科大学病院,,,,,,
8fd32bac-3b7f-4d99-8925-c0dc1b19cd72,帯広稲田店,0800831,北海道,帯広市,稲田町南8線西10-7,,,,,,,
b0d90c88-44d6-4436-8632-84702a3fcd75,帯広白樺通り店,0802471,北海道,帯広市,西21条南3丁目1-6,,,,,,,
c2196b3e-74df-4e0e-b17b-92ab0e09d1e2,釧路鶴見橋店,0840910,北海道,釧路市,昭和中央1-1-1,,,,,,,
b7d98587-eb27-489b-bfbb-d3e1b6436bff,イオン釧路店,0880621,北海道,釧路郡,釧路町桂木1-1-7,イオン釧路店,,,,,,
e3b53d48-8622-41ad-bbe5-4774616ffc0f,北見KITFRONT店,0900013,北海道,北見市,柏陽町592-6,北見KITFRONT,,,,,,
dfb2fc00-ec4e-48c2-a102-263a682bb44a,北見三輪店,0900836,北海道,北見市,東三輪2-36-4,,,,,,,
5ae7f533-43e5-4e85-81f6-671557b8ea9c,青森中央店,0300111,青森県,青森市,荒川藤戸134-2,,,,,,,
c3b03154-3b4a-4aeb-b118-0feef3bf613e,八戸田向店,0310011,青森県,八戸市,田向2-12-11,,,,,,,
0dc28a29-60d4-488d-814d-f790256174ca,八戸城下店,0310072,青森県,八戸市,城下4-2-1,,,,,,,
77cfdd01-ced7-4348-b510-091e1ae0873c,TSUTAYA BOOKSTORE 弘前ヒロロ店,0368003,青森県,弘前市,駅前町9-20,ヒロロ,,,,,,
55940b72-d44e-412d-86c3-3531dac6bb77,弘前さくら野店,0368091,青森県,弘前市,高崎2-17-6,さくら野百貨店,,,,,,
e6fd5772-bab4-463e-b5fa-b8f3985533f5,弘前公園前店,0368207,青森県,弘前市,上白銀町1-1,,,,,,,
c8bec3b6-3564-4f21-8cc5-c0cbf9b66867,青森ELM店,0370004,青森県,五所川原市,唐笠柳517-1,ELM,,,,,,
e722f945-bced-466d-8285-e1c92dc93a1b,青森西バイパス店,0380006,青森県,青森市,三好2-2-36,,,,,,,
008c1f64-dd65-42fa-b050-481b93a120e6,青森 ＆LOVINA店,0380012,青森県,青森市,柳川1-1-5,＆LOVINA1階,,,,,,
54af4e29-19a0-4072-9921-fecd4bd2b326,八戸根城店,0391166,青森県,八戸市,根城7-11-30,,,,,,,
b97cb5ce-6945-45e9-97f6-7f15dfbee795,イオンモール下田店,0392112,青森県,上北郡,おいらせ町中野平40-1,イオンモール下田,,,,,,
74cb7887-17e8-40c0-9288-1851dece3d2b,盛岡菜園店,0200024,岩手県,盛岡市,菜園1-11-11,ホテルロイヤル盛岡,,,,,,
d37c4ae5-edd8-461c-90d6-985a635cc625,盛岡フェザン店,0200034,岩手県,盛岡市,盛岡駅前通1-44,フェザン本館2FH,,,,,,
6cac13ad-4ea8-4091-8996-52ff21974aca,イオンモール盛岡店,0200148,岩手県,盛岡市,前潟4-7-1,,,,,,,
17674d30-e56a-4411-9f21-f5f4709e4b6c,盛岡津志田店,0200835,岩手県,盛岡市,津志田26-7-1,,,,,,,
88172a8a-033a-4c10-8d9a-ad5f4d550111,盛岡西バイパス店,0200857,岩手県,盛岡市,北飯岡4-12-20,,,,,,,
41badab6-c09d-424a-8565-8bf105c90bd1,イオンモール盛岡南店,0200866,岩手県,盛岡市,本宮7-1-1,イオンモール盛岡南,,,,,,
c198ee2a-ba18-44a2-9a61-cb6e738c1866,一関店,0210055,岩手県,一関市,山目泥田55-1,,,,,,,
4b8cd58d-5393-4bea-9bb1-5512a80e63be,奥州水沢店,0230003,岩手県,奥州市,水沢佐倉河羽黒田57-2,,,,,,,
e2801b9c-2fc3-4b52-8a8d-0c29c2ce01b8,北上店,0240072,岩手県,北上市,北鬼柳18地割96-2,,,,,,,
30b64c72-d5c9-4933-9610-5f792c916820,エスパル仙台本館店,9800021,宮城県,仙台市青葉区,中央1-1-1,エスパル仙台本館,,,,,,
a33a803f-d734-4330-b6e0-e07692b481c1,仙台クリスロード店,9800021,宮城県,仙台市青葉区,中央2-5-3,第二やまふくビル,,,,,,
92c18d4b-45c8-4719-9303-4f953ebb8f18,仙台南町通り店,9800021,宮城県,仙台市青葉区,中央3-7-25,ダイワロイネットホテル仙台西口,,,,,,
5cd7db63-76c7-4546-9efb-ea693aab5a71,ホテルグランテラス 仙台国分町店,9800803,宮城県,仙台市青葉区,国分町2-2-2,ホテルグランテラス仙台国分町　1F,,,,,,
9ca916a0-1bcf-4c69-a90a-ffcdcfd3b0f0,仙台アエル店,9800021,宮城県,仙台市青葉区,中央1-3-1,仙台ＡＥＲ,,,,,,
8fc314cc-e5ad-461c-80c5-e0a8335c12a3,仙台パルコ店,9800021,宮城県,仙台市青葉区,中央1-2-3,仙台パルコ4階,,,,,,
221b0aa3-b3ce-418a-a18c-1f75406f8586,エスパル仙台東館店,9800021,宮城県,仙台市青葉区,中央1-1-1,エスパル仙台東館 4階,,,,,,
1fde78ca-8f88-4868-b6fb-703aecc7a3e7,利府街道店,9810104,宮城県,宮城郡,利府町中央3-20-4,,,,,,,
e0525381-7646-4c3a-a90e-2988654c8b7e,イオンモール新利府南館1階店,9810114,宮城県,宮城郡,利府町新中道3-1-1,イオンモール新利府南館,,,,,,
1f891f1d-a85c-44e2-a8fb-4f0444cb6ab6,イオンモール新利府南館2階店,9810114,宮城県,宮城郡,利府町新中道3-1-1,イオンモール新利府南館,,,,,,
6ee5ebe5-85b6-46e3-9f55-624bb7e9daf3,仙台台原店,9810911,宮城県,仙台市青葉区,台原1-8-7,,,,,,,
1699ee69-07b8-4d8f-ace3-100b38eaec6d,名取増田店,9811224,宮城県,名取市,増田北谷235-1,,,,,,,
8be88500-9780-4c94-a175-bdc314f88076,イオンモール名取2階店,9811227,宮城県,名取市,杜せきのした5-3-1,イオンモール名取2階,,,,,,
e0eb1fe5-f571-4cff-89ce-5b551213902e,イオンモール名取1階店,9811227,宮城県,名取市,杜せきのした5-3-1,イオンモール名取1階,,,,,,
522ea36b-c79f-41fa-b903-9cad0e1fe804,仙台市名坂店,9813116,宮城県,仙台市泉区,高玉町3-10,,,,,,,
6160c45e-fac5-4989-8d51-f2718f2a7722,泉中央セルバ店,9813133,宮城県,仙台市泉区,泉中央1-4-1,泉中央セルバ,,,,,,
bc5629d9-dea9-47de-b7de-3fa22704599a,仙台泉パークタウン桂店,9813134,宮城県,仙台市泉区,桂1-1-1,仙台泉パークタウン桂ガーデンプラザ,,,,,,
5ddc3a5e-ee17-4279-a7cd-48a245bb6f2a,仙台泉パークタウン タピオ店,9813204,宮城県,仙台市泉区,寺岡6-5-1,泉パークタウン タピオ,,,,,,
aa9dec2a-f548-4411-80a0-0ee1626e6182,イオンモール富谷店,9813329,宮城県,富谷市,大清水1-33-1,イオンモール富谷,,,,,,
7246adb1-534d-4dfa-8883-96a466cd4d31,ザ・モール仙台長町 Ｐａｒｔ２店,9820011,宮城県,仙台市太白区,長町7-20-3,ザ・モール仙台長町 Part2,,,,,,
0373c518-ab62-4d68-bbd6-cc399afd2de0,ザ・モール仙台長町本館店,9820011,宮城県,仙台市太白区,長町7-20-3,ザ・モール仙台長町本館3階,,,,,,
33720272-8ea8-4fa1-9101-771b38c3a80e,仙台大野田店,9820014,宮城県,仙台市太白区,大野田4-2-1,,,,,,,
3778229e-3049-473c-8665-42fa0322b8c9,TSUTAYA 東仙台店,9830833,宮城県,仙台市宮城野区,東仙台4-14-1,TSUTAYA ヤマト屋書店 東仙台店,,,,,,
ece08356-8635-4f39-baa5-01492e8d0dc3,仙台駅東口店,9830852,宮城県,仙台市宮城野区,榴岡1-2-10,エンドウビル 1F,,,,,,
a4d4bc02-5b18-446b-a7e8-78ec584e2f15,仙台六丁の目店,9840012,宮城県,仙台市若林区,六丁の目中町1-70,,,,,,,
8789f59d-9610-409f-8095-0c2aaa776b7a,TSUTAYA 仙台荒井店,9840017,宮城県,仙台市若林区,なないろの里3-3-28,クロスモール仙台荒井,,,,,,
971fc93f-ce30-4dd7-bed6-a85671693f01,蔦屋書店 多賀城市立図書館店,9850873,宮城県,多賀城市,中央2-4-3,,,,,,,
aee6e176-029b-4504-9047-c462f57d38b8,イオンモール石巻店,9860866,宮城県,石巻市,茜平4-104,イオンモール石巻,,,,,,
4907d7a4-c4a6-45a3-bceb-00b44863bf29,石巻バイパス店,9860878,宮城県,石巻市,新橋10-30,,,,,,,
f70f2fcd-138b-4b6f-8967-c7203b03db07,仙台南吉成店,9893204,宮城県,仙台市青葉区,南吉成3-16-5,,,,,,,
a2ab929a-b38f-431c-b07c-7e3f203814e4,古川店,9896117,宮城県,大崎市,古川旭2-3-15,,,,,,,
1528336a-b503-4908-a51a-cc7f7d376b15,秋田駅店,0100001,秋田県,秋田市,中通7-1-2,,,,,,,
55c871a8-f1a4-413a-a868-6aeddd53399a,秋田東通店,0100003,秋田県,秋田市,東通4-5-20,,,,,,,
8b41f094-08d8-4462-9dc3-27ac792d0efe,秋田保戸野学園通り店,0100913,秋田県,秋田市,保戸野鉄砲町14-18,,,,,,,
d006ef8c-66bd-48aa-84b0-a294244b0b2c,イオンモール秋田店,0101413,秋田県,秋田市,御所野地蔵田1-1-1,,,,,,,
2b9ce89e-2996-4f34-a2fb-fe92c9115cec,秋田アルス店,0100001,秋田県,秋田市,中通7-2-1,秋田ステーションビル アルス,,,,,,
fb38411b-1907-412e-994e-b524d8e4a478,秋田大学医学部附属病院店,0100041,秋田県,秋田市,広面蓮沼44-2,秋田大学医学部附属病院,,,,,,
90cf169a-8dff-4adf-90fa-4cba61571e5d,横手店,0130060,秋田県,横手市,条里1-6-21,,,,,,,
33f214eb-3bf0-4c3b-be54-2aa4694ac18c,イオンモール大曲店,0140033,秋田県,大仙市,和合坪立177,イオンモール大曲,,,,,,
5862c14c-b3c9-4822-817d-4757aeec2efd,イオンタウン能代店,0160121,秋田県,能代市,鰄渕古屋布1-2,イオンタウン能代,,,,,,
5f7bb462-7b0c-40a5-bf28-c69a98121f3d,山形エスパル店,9900039,山形県,山形市,香澄町1-1-1,エスパル山形,,,,,,
26102346-144c-4ffc-89a2-73acbe38638c,山形馬見ヶ崎店,9900810,山形県,山形市,馬見ヶ崎2-7-28,,,,,,,
e8288857-cad7-4023-a265-5021355f47dd,山形県立中央病院店,9902214,山形県,山形市,青柳1800,立中央病院,,,,,,
527bed9e-cbf4-427c-acc9-dc9f2525a06f,山形白山店,9902446,山形県,山形市,白山3-9-24,,,,,,,
ceba6711-56f8-4f32-81e2-97d4ba1344e8,米沢春日店,9920044,山形県,米沢市,春日2-13-27,,,,,,,
6205c8ce-d3f2-48be-9e62-07b3cf38d6d1,天童鎌田店,9940024,山形県,天童市,鎌田2-5-24,,,,,,,
7891c282-e317-44e9-9d3c-e317b5b3f442,イオンモール天童店,9940082,山形県,天童市,芳賀タウン北4-1-1,イオンモール天童,,,,,,
1169a188-6ddf-4c50-8f42-0ed49ac9e16e,鶴岡店,9970032,山形県,鶴岡市,上畑町3-30,,,,,,,
d3cffd8e-0e87-4e28-a4c2-0c8ef29d036f,酒田みずほ店,9980853,山形県,酒田市,みずほ1-20-6,,,,,,,
5c4a57f1-3043-45a8-ad8b-792d70df837d,福島鎌田店,9600102,福島県,福島市,鎌田一里塚7-1,,,,,,,
3890fd29-7f5f-42a4-b3f3-c62e11d95eb2,福島矢野目店,9600112,福島県,福島市,南矢野目谷地70-5,,,,,,,
7cffc702-196e-4bf4-9e74-57ff84ce3812,福島県立医科大学附属病院店,9601247,福島県,福島市,光が丘1,立医科大学附属病院,,,,,,
ff386867-9936-4497-9b76-584d67c81935,福島エスパル店,9608031,福島県,福島市,栄町1-1,エスパル福島,,,,,,
40666c16-c85f-4296-81ae-a812ae9eee06,TSUTAYA BOOKSTORE 福島南店,9608153,福島県,福島市,黒岩浜井場24-1,,,,,,,
ee7c0101-e107-4fc5-9fc2-c8f8a8fb84fb,福島八木田店,9608164,福島県,福島市,八木田並柳117-1,,,,,,,
f821d72e-ed97-4a9f-9be5-30a0ec11552a,フレスポ須賀川店,9620001,福島県,須賀川市,森宿北向85-2-1,フレスポ須賀川グリーンモール,,,,,,
324dd813-9348-42cd-bd5b-5b82811224e3,郡山安積店,9630111,福島県,郡山市,安積町荒井南千保8-2,,,,,,,
9183d149-695b-48d3-b039-82996ab43291,郡山コスモス通り店,9630205,福島県,郡山市,堤2-41,,,,,,,
63180d30-9080-47dc-a393-283e5709a321,郡山モルティ店,9638002,福島県,郡山市,駅前2-11-1,ビッグアイ モルティ 2F,,,,,,
0e195efd-6c63-46cc-9591-86060454619f,郡山駅店,9638003,福島県,郡山市,燧田195,エキナカ,,,,,,
0fdc8b03-cfe3-4197-90c8-7c142fa9690b,郡山並木店,9638026,福島県,郡山市,並木1-12-17,,,,,,,
6b61c253-bec6-4772-97da-f53088ab3995,TSUTAYA BOOKSTORE AIZU店,9650825,福島県,会津若松市,門田町黒岩大坪21,,,,,,,
6997f0cc-96d0-484a-9994-df74f949ce83,カインズ会津若松店,9650858,福島県,会津若松市,神指町南四合幕内南632-1,,,,,,,
470c8ab4-7d15-4a55-b07a-b7341e34981b,いわき平堂ノ前店,9708026,福島県,いわき市,平堂ノ前18,,,,,,,
cafc0774-396c-4b58-9c9d-453c09173169,いわき鹿島街道店,9718131,福島県,いわき市,常磐上矢田町戸石9-1,,,,,,,
0a647c45-ea57-4cb7-b4aa-6e44738838f3,いわき小名浜店,9718151,福島県,いわき市,小名浜岡小名高田9-1,リンクスクエア小名浜,,,,,,
2e5aa949-fac8-4e68-8938-aa44aa5b46b7,イオンモールいわき小名浜店,9718101,福島県,いわき市,小名浜辰巳町79,イオンモールいわき小名浜,,,,,,
67404ba8-f434-41ac-8a3b-2c38d528435a,土浦店,3000053,茨城県,土浦市,真鍋新町19-17,,,,,,,
5bcbc5e9-3ea2-4dce-a166-cef5eddf5613,イオンモール土浦店,3000811,茨城県,土浦市,上高津367,イオンモール土浦,,,,,,
682dc775-9a1b-4001-8754-dd52af710fdd,ひたち野うしく店,3001207,茨城県,牛久市,ひたち野東2-7-1,アクロスプラザひたち野うしく,,,,,,
e5c4e99d-dc66-41c6-af21-a45738974c26,TSUTAYA BOOKSTORE 常総インターチェンジ店,3002508,茨城県,常総市,むすびまち3,TSUTAYA BOOKSTORE 常総インターチェンジ,,,,,,
f6feac2a-4de7-4d70-8981-6ad8b416f3c1,龍ケ崎店,3010002,茨城県,龍ケ崎市,中根台4-1-13,,,,,,,
384f97d0-1c45-433c-8136-8fd86ae6f9b6,アトレ取手店,3020014,茨城県,取手市,中央町2-5,アトレ取手 3F,,,,,,
8ac546fe-e419-44fe-be43-5012195ea74c,イオンタウン守谷店,3020110,茨城県,守谷市,百合ヶ丘3-249-1,イオンタウン守谷,,,,,,
ae891439-61d5-4470-a647-74bfa07c8c12,守谷サービスエリア（上り線）店,3020116,茨城県,守谷市,大柏166,,,,,,,
b1a0f8f5-0e9b-4a2e-b118-3d61c591560f,守谷サービスエリア(下り線)店,3020117,茨城県,守谷市,野木崎97-3,Pasar守谷(下り線),,,,,,
b0eb39b8-d231-4122-b995-5f2d2dd53bc7,西友楽市守谷店,3020128,茨城県,守谷市,けやき台4-1-5,西友楽市 守谷,,,,,,
7c24295c-31b0-40ed-80f5-3f4be58a1029,イオンモール下妻店,3040033,茨城県,下妻市,堀篭972-1,イオンモール下妻,,,,,,
f0016980-2788-4b24-8348-7508fccb543c,トナリエキュート　つくば店,3050031,茨城県,つくば市,吾妻1-6-1,トナリエキュート 2F,,,,,,
a0ae1e60-fe12-4eb9-9097-f20b9fd817d8,つくば駅店,3050031,茨城県,つくば市,吾妻2-128,,,,,,,
889f762c-fe1b-445d-a3d4-44c8ac3fc579,つくば店,3050061,茨城県,つくば市,稲荷前12-2,,,,,,,
cfaf7d01-0428-46ee-91a4-231b4540f724,イオンモールつくば店,3050071,茨城県,つくば市,稲岡66-1,,,,,,,
88008a03-55c6-4263-a0fb-c31ec2140696,イーアスつくば店,3050817,茨城県,つくば市,研究学園5-19,イーアスつくば,,,,,,
8cf65d15-e4e9-43e4-8c58-f3206b496172,つくば学園の森店,3050817,茨城県,つくば市,研究学園3-23-1,,,,,,,
489c4a12-24ba-4c92-a0b6-bf8f8851619b,つくば研究学園店,3050818,茨城県,つくば市,学園南3-20-6,,,,,,,
af6775ae-1118-4a66-bff2-edfa29b3e5a3,筑波大学附属病院店,3050005,茨城県,つくば市,天久保2-1-18,筑波大学付属病院 桐の葉モール,,,,,,
8753deda-ff63-495f-8216-85a109d70a69,筑波大学中央図書館店,3050006,茨城県,つくば市,天王台1-1-1,筑波大学中央図書館,,,,,,
99181dc6-e9e7-46c8-8423-4eaf17222c23,カインズ古河店,3060233,茨城県,古河市,西牛谷中明1524,,,,,,,
f32fc33f-75a8-4608-8d3a-b80b6078f5c3,道の駅グランテラス筑西店,3080801,茨城県,筑西市,川澄1850,グランテラス筑西,,,,,,
ea7de187-1120-45b7-8d9e-416ee9def425,友部サービスエリア（上り線）店,3091712,茨城県,笠間市,長兎路梶山久保1059-6,友部サービスエリア（上り線）,,,,,,
81739c1a-bb28-4772-b14a-4956303c1682,友部サービスエリア（下り線）店,3091712,茨城県,笠間市,長兎路梶山久保1051-3,友部サービスエリア（下り線）,,,,,,
08a636a2-1334-4876-8a4d-f78ca0a0e92e,水戸エクセル店,3100015,茨城県,水戸市,宮町1-1-1,エクセル,,,,,,
be373e8c-7b2e-4cb4-8948-0afb25104f7c,水戸エクセル5階店,3100015,茨城県,水戸市,宮町1-1-1,水戸エクセル5階,,,,,,
ec0ff084-6056-4e96-a19a-d3bbfb3fa8e9,水戸京成百貨店,3100026,茨城県,水戸市,泉町1-6-1,水戸京成百貨店 B1階,,,,,,
4aca802a-3426-4285-8e9d-43420a4d1baf,水戸駅南中央通り店,3100836,茨城県,水戸市,元吉田町303-1,,,,,,,
f8caba19-8de3-4779-9480-007577e0c9ba,水戸　県庁前店,3100852,茨城県,水戸市,笠原町978-40,,,,,,,
5c8fa9d0-7615-41a3-855f-77055f1d4e80,水戸50号店,3100913,茨城県,水戸市,見川町2135－2,,,,,,,
a2116fe6-0395-4e84-9edc-9d0ecc957573,水戸赤塚店,3114151,茨城県,水戸市,姫子2-751-16,,,,,,,
d7d86e56-e345-4968-bfa7-07f56b00e806,ニューポートひたちなか店,3120005,茨城県,ひたちなか市,新光町34-1,,,,,,,
19d07258-4d05-4a32-b48f-14f80edf374a,ひたちなか店,3120012,茨城県,ひたちなか市,馬渡砂久保542-3,,,,,,,
48756c4e-a10d-4784-9dc1-d0eacaa2d671,ひたちなか6号店,3120033,茨城県,ひたちなか市,市毛941－4,,,,,,,
bd2fa05a-722d-41e4-95a3-c921731f42ac,ひたちなか西光地店,3120058,茨城県,ひたちなか市,西光地2-17-2,,,,,,,
afe625a2-2798-475a-9ed3-e7a7eab4ebab,鹿島店,3140034,茨城県,鹿嶋市,鉢形980,,,,,,,
0aa3f3af-5d44-4d15-b6cb-70fa27568617,神栖神之池緑地店,3140116,茨城県,神栖市,奥野谷4463-1,神之池緑地,,,,,,
6071c21d-833d-4a28-9d1f-615ab65ab862,神栖店,3140146,茨城県,神栖市,平泉281-22,,,,,,,
b72a357d-98d9-4e6a-8525-fddee2e38e99,石岡店,3150001,茨城県,石岡市,石岡2925-1,,,,,,,
7a28ba32-4d22-4c64-a9b5-233d6dba94e2,常陸多賀店,3160002,茨城県,日立市,桜川町1-2-15,,,,,,,
270ca06c-5845-4e66-b213-794f24d19f6a,日立シーマークスクエア店,3170052,茨城県,日立市,東滑川町5-1-6,シーマークスクエア,,,,,,
27e6a799-ec1a-4f3c-bec3-4803129b57d5,日立総合病院店,3170077,茨城県,日立市,城南町2-1-1,,,,,,,
f5f9de33-a988-4e5c-8c73-7eef748d34e3,イオンモール水戸内原店,3190317,茨城県,水戸市,内原2-1,,,,,,,
b4344bc5-729d-4ffe-a63e-919bc5a2643b,宇都宮八幡台店,3200015,栃木県,宇都宮市,八幡台2-16,,,,,,,
53bcdb97-5075-484e-882f-9f1d16ab3419,宇都宮上戸祭店,3200051,栃木県,宇都宮市,上戸祭町欠ノ上366-7,,,,,,,
c70cb66f-4f50-452d-bda7-005479032c1a,宇都宮鹿沼インター通り店,3200851,栃木県,宇都宮市,鶴田町1311-1,,,,,,,
0d24feb5-c0af-4a30-8763-6ec5c2ec2e23,宇都宮鶴田店,3200857,栃木県,宇都宮市,鶴田2-12-12,,,,,,,
a4a28037-6dd1-407d-a011-693aa0da439b,ＦＫＤ宇都宮インターパーク店,3210118,栃木県,宇都宮市,インターパーク6-1-1,FKDショッピングモール宇都宮インターパーク,,,,,,
c332caff-cc57-48a1-9b23-9c3bb7e26a30,宇都宮インターパークステージ店,3210118,栃木県,宇都宮市,インターパーク4-2-3,インターパークステージ,,,,,,
fe581365-3722-4bea-8d4f-026a2b93846f,宇都宮西川田店,3210158,栃木県,宇都宮市,西川田本町3-4-3,,,,,,,
22206b31-4233-4cc1-ba67-d5d7aeb2dda1,カインズ壬生店,3210201,栃木県,下都賀郡,壬生町安塚3376-21,,,,,,,
f2d6cd38-8e6c-4784-ac50-f4f960460522,獨協医科大学病院店,3210207,栃木県,下都賀郡,壬生町北小林880,,,,,,,
fc2cbd7f-dd52-4cac-a514-6a1990a60fe4,宇都宮城東店,3210935,栃木県,宇都宮市,城東2-24-11,,,,,,,
41c55e2e-5b38-493b-b736-663b2adc6d7e,宇都宮福田屋店,3210962,栃木県,宇都宮市,今泉町237,福田屋ショッピングプラザ宇都宮店,,,,,,
cbfe9f68-e194-450e-ad1a-44dd989195a0,宇都宮パセオ店,3210965,栃木県,宇都宮市,川向町1-23,パセオ　1F,,,,,,
51e11057-b213-45ca-9e30-070dc2678e3d,済生会宇都宮病院店,3210974,栃木県,宇都宮市,竹林町911-1,恩賜財団　済生会宇都宮病院,,,,,,
7e39f197-4343-4d45-9697-791c846ab8db,宇都宮ゆいの杜店,3213226,栃木県,宇都宮市,ゆいの杜4-12-17,,,,,,,
7e3f8545-35a3-4753-9c75-84445f346f80,真岡店,3214335,栃木県,真岡市,下高間木1-14-4,,,,,,,
664c4aab-5d15-48fe-8016-2af95dc0c193,宇都宮イトーヨーカドー店,3210904,栃木県,宇都宮市,陽東6-2-1,イトーヨーカドー宇都宮店,,,,,,
3f0be9c1-cb8b-4b79-9b78-3d47c35b1266,鹿沼店,3220029,栃木県,鹿沼市,西茂呂3-12-3,,,,,,,
eebcc987-c05e-4a86-a526-1a3d7d182361,おやまゆうえんハーヴェストウォーク店,3230014,栃木県,小山市,喜沢1475,おやまゆうえんハーヴェストウォーク,,,,,,
20f3a10d-31d5-47a4-b6c9-4ff5c580a6a8,小山宮本店,3230024,栃木県,小山市,宮本町2-8-21,,,,,,,
6c1d86f4-9af6-45e3-855c-69d21c50aa00,ヴァル小山店,3230025,栃木県,小山市,城山町3-3-22,VAL小山,,,,,,
a59f25a3-9c65-4321-ae2c-4ce97d8b0084,小山雨ケ谷店,3230826,栃木県,小山市,雨ケ谷463-2,,,,,,,
702df6bc-10bc-48c6-9116-0e58ad047986,小山店,3230829,栃木県,小山市,東城南1-27-１,,,,,,,
b7a172f0-291a-4721-853c-64af27939355,大田原美原店,3240047,栃木県,大田原市,美原2-3232-7,,,,,,,
03e1ca15-a7e3-4b40-b0c3-ac3f9b1cd2f2,アシコタウンあしかが店,3260005,栃木県,足利市,大月町3-2,,,,,,,
f7b4574a-8b6b-4bd4-b732-671ae8c77342,足利福居町店,3260338,栃木県,足利市,福居町254-6,,,,,,,
a26f0856-e2ec-4543-9719-fb35a435e0d4,TSUTAYA 佐野店,3270031,栃木県,佐野市,田島町51,,,,,,,
8e912ce4-d5dd-4737-a4a8-8b15485b1c4d,佐野サービスエリア（下り線）店,3270813,栃木県,佐野市,黒袴町東山1021,佐野サービスエリア（下り線）,,,,,,
99533d23-63f5-4dad-9e0a-588057711fe7,イオンモール佐野新都市店,3270821,栃木県,佐野市,高萩町1324-1,イオンモール佐野新都市,,,,,,
36939922-4afa-451e-9b47-b6a7b3837cf3,佐野プレミアム・アウトレット店,3270822,栃木県,佐野市,越名町2058番地,佐野プレミアム・アウトレット370区,,,,,,
cefcfd4b-52bb-4922-909f-6aa277386d5a,佐野プレミアム・アウトレット プレイグラウンド店,3270822,栃木県,佐野市,越名町2058,佐野プレミアム・アウトレット7020区,,,,,,
4f3fe167-42f5-428e-a461-28db500a6e27,栃木倭町店,3280037,栃木県,栃木市,倭町7-1,TS-TOWN Tochigi,,,,,,
2062d4ed-14d3-4c6a-97dd-e7722fce91e3,栃木箱森店,3280075,栃木県,栃木市,箱森町38-5,,,,,,,
bb2fddf5-6f57-420b-bd0a-c928ddb1d892,道の駅しもつけ店,3290431,栃木県,下野市,薬師寺3720-1,道の駅しもつけ,,,,,,
b0ad7474-f2a2-458f-829e-5a6469facd30,自治医科大学附属病院店,3290431,栃木県,下野市,薬師寺3311-1,自治医科大学附属病院,,,,,,
5ece3ba9-06dd-4fb0-b992-b8e22fdc831a,西那須野店,3292753,栃木県,那須塩原市,五軒町5-19,,,,,,,
ff7b126d-6fb3-4fee-b13b-bfd62fc6c65a,那須ガーデンアウトレット店,3293122,栃木県,那須塩原市,塩野崎184-7,那須ガーデンアウトレット,,,,,,
945926e4-8d43-48f2-b9d5-549dd170fcb1,高崎貝沢店,3700042,群馬県,高崎市,貝沢町1327-3,,,,,,,
bdee706c-105c-4938-99a5-4cc4296867f7,高崎大八木店,3700072,群馬県,高崎市,大八木町2113-3,,,,,,,
1b3d475c-0589-4da7-8af6-625dba3b8eb5,高崎駅ビル モントレー店,3700849,群馬県,高崎市,八島町222,高崎駅ビル モントレー 2F,,,,,,
f51015d0-9fcc-4319-9680-39dcf8601082,イーサイト高崎店,3700849,群馬県,高崎市,八島町222,E site 高崎,,,,,,
bd19b40b-9af9-47e2-94b6-167477de59d9,高崎オーパ店,3700849,群馬県,高崎市,八島町46-1,高崎OPA,,,,,,
161b725c-428f-4fe3-bc28-f41228067416,高崎上中居店,3700851,群馬県,高崎市,上中居町1746,,,,,,,
5c2e38e8-6960-49ee-8b54-e92ec6ff631a,富岡店,3702316,群馬県,富岡市,富岡1894-7,,,,,,,
ab25359d-5e05-4e62-a45a-e26256275004,イオンモール高崎 1階店,3703521,群馬県,高崎市,棟高町1400,,,,,,,
5a69c3fb-3a8c-4685-a3ef-2e4526d7fb61,イオンモール高崎 2階店,3703521,群馬県,高崎市,棟高町1400,イオンモール高崎,,,,,,
c5d3e995-b67f-45cb-b5ac-7e398d9d1be8,カインズホーム前橋吉岡店,3703602,群馬県,北群馬郡,吉岡町大久保821,カインズスーパーセンター前橋吉岡店,,,,,,
27195bc9-8787-4cc0-99a5-4778ef6f8d06,敷島公園店,3710036,群馬県,前橋市,敷島町77,,,,,,,
6805c048-7eb8-4ba9-983e-b5a27db67255,けやきウォーク前橋店,3710801,群馬県,前橋市,文京町2-1-1,けやきウォーク前橋,,,,,,
11091dc3-68b8-4b64-aa8f-0fdfb3bfcfdd,前橋六供町店,3710804,群馬県,前橋市,六供町2-41-12,,,,,,,
53906608-2dd9-4e83-9e3c-8458bcc87929,前橋元総社店,3710846,群馬県,前橋市,元総社町2-3-10,,,,,,,
1ff5233b-0338-4fcb-8d1b-012a15464d99,伊勢崎今泉店,3720031,群馬県,伊勢崎市,今泉町2-338-2,,,,,,,
f83f1484-59b1-4d1f-81b8-7c6f6b222f44,ベイシア西部モール店,3720801,群馬県,伊勢崎市,宮子町3430-6,,,,,,,
d3d1c7c3-c09d-41a1-8b12-4920b8140ae9,カインズ伊勢崎店,3720801,群馬県,伊勢崎市,宮子町3161-1,,,,,,,
7cda1847-f3f8-49e1-bba6-f2936766d52b,イオンモール太田 レストラン街店,3730808,群馬県,太田市,石原町81,イオンモール太田1階,,,,,,
1afe5630-0c47-4d69-a4da-7df65df9f37f,イオンモール太田 WESTMALL店,3730808,群馬県,太田市,石原町81,イオンモール太田 WESTMALL1階,,,,,,
ac433730-e565-4442-b795-ca903c8f7247,太田小舞木店,3730818,群馬県,太田市,小舞木町328-1,,,,,,,
ebd24416-3b39-4fba-a827-925dd4eaa92a,太田西矢島店,3730823,群馬県,太田市,西矢島町718-1,,,,,,,
0db36b8b-8f8a-4046-aabd-1dbe02e83fc1,館林朝日町店,3740063,群馬県,館林市,朝日町12-36,,,,,,,
a9704089-0c5e-4820-ba31-4fca0741ba16,横川サービスエリア(上り線)店,3790301,群馬県,安中市,松井田町横川917,上信越自動車道　横川サービスエリア（上り線）内,,,,,,
e5956704-051a-4705-8faa-78498411ec95,パワーモール前橋みなみ店,3792143,群馬県,前橋市,新堀町938,パワーモール前橋みなみ,,,,,,
6e22bf12-afa0-4494-b537-e936b98cd8cb,スマーク伊勢崎 1階 はるなプラザ店,3792224,群馬県,伊勢崎市,西小保方町368,スマーク伊勢崎 1F,,,,,,
5c55468f-48c5-4b56-890f-a54eec023cfc,スマーク伊勢崎 2階 あかぎプラザ店,3792224,群馬県,伊勢崎市,西小保方町368,スマーク伊勢崎 2F,,,,,,
a342e454-848e-40bb-ae0b-d10e456f927e,桐生市場店,3792311,群馬県,みどり市,笠懸町阿左美2761-1,,,,,,,
0c32bfdc-840a-4551-ac58-035ad8d6bd46,浦和パルコ店,3300055,埼玉県,さいたま市浦和区,東高砂町11-1,浦和パルコ　1階,,,,,,
3f33616d-21a2-4bf1-a5ca-f6f8545420d5,浦和西口店,3300063,埼玉県,さいたま市浦和区,高砂2-5-1,KOMON,,,,,,
96f49634-135d-4702-b54d-7d121e200463,浦和 蔦屋書店,3300063,埼玉県,さいたま市浦和区,高砂1-16-12,アトレ浦和,,,,,,
60a30aa8-a204-44bc-bff2-c526a478ddb4,さいたま新都心店,3300081,埼玉県,さいたま市中央区,新都心10,けやきひろば(013区画）,,,,,,
48913269-984e-4ffd-8ebc-1a25280eedd2,さいたま新都心 コクーンシティ コクーン2店,3300843,埼玉県,さいたま市大宮区,吉敷町4-263-1,コクーンシティ,,,,,,
643a1f26-320d-42cb-a7f3-a7eddcabd25b,さいたま新都心 コクーンシティ コクーン1店,3300843,埼玉県,さいたま市大宮区,吉敷町4-267-2,コクーンシティ,,,,,,
cc4717f1-906d-4bfa-9918-593ed2e499e7,ルミネ大宮 LUMINE2店,3300853,埼玉県,さいたま市大宮区,錦町630,ルミネ大宮 LUMINE2 3F,,,,,,
d9fce46f-c580-4f7f-a405-4e7cb3189d82,ルミネ大宮 LUMINE1店,3300853,埼玉県,さいたま市大宮区,錦町630,ルミネ大宮 LUMINE1 B1F,,,,,,
fdfc5fd1-9ff9-4243-b985-af0c35da0c11,エキュート大宮ノース店,3300853,埼玉県,さいたま市大宮区,錦町630,エキュート大宮ノース,,,,,,
54f0e132-2006-498e-a638-670630acf69a,大宮西口店,3300854,埼玉県,さいたま市大宮区,桜木町1-1-12,NYビル,,,,,,
8f68b751-edfb-4b3d-bd0d-843517322831,大宮マルイ店,3300854,埼玉県,さいたま市大宮区,桜木町2-3,大宮マルイ,,,,,,
440c0a03-6db8-456f-9252-5a87730c9251,さいたま土呂店,3310804,埼玉県,さいたま市北区,土呂町2-45-15,,,,,,,
73b9c1fa-721f-4b24-8ed4-0390ace07820,大宮宮原ステラタウン店,3310812,埼玉県,さいたま市北区,宮原町1-854-1,ステラタウン,,,,,,
4146f069-bd1f-4d61-8dcf-c21a577e1757,ららテラス川口店,3320017,埼玉県,川口市,栄町3-5-1,ららテラス川口4階,,,,,,
f7ff69c5-fd49-4728-beb6-44ed1726b72b,ララガーデン川口店,3320028,埼玉県,川口市,宮町18-9,ララガーデン川口,,,,,,
c49eda09-58ad-4a58-9a1d-2f2640e4a112,アリオ川口店,3320033,埼玉県,川口市,並木元町1-79,アリオ川口1F,,,,,,
16de291a-8a26-4d36-afd3-c9265ae466d2,イオンモール川口店,3330834,埼玉県,川口市,安行領根岸3180,イオンモール川口,,,,,,
60e3c1bb-40a4-4b27-9b30-cab8d1598bd7,イオンモール川口前川店,3330842,埼玉県,川口市,前川1-1-11,,,,,,,
87a250e7-dea2-404a-a176-468bc52bece2,ビーンズ戸田公園店,3350023,埼玉県,戸田市,本町4-15-1,ビーンズ戸田公園,,,,,,
680e6660-3e36-4794-95f8-4461d87795ba,イオンモール北戸田店,3350032,埼玉県,戸田市,美女木東1-3-1,イオンモール北戸田,,,,,,
b7b27636-b212-444d-8a41-dca64dca984e,武蔵浦和ＢＥＡＮＳ店,3360021,埼玉県,さいたま市南区,別所7-12-1,武蔵浦和ビーンズ 1F,,,,,,
4d41a47f-defa-4102-8fb7-072fc2bfec08,浦和別所店,3360021,埼玉県,さいたま市南区,別所3-2-2,,,,,,,
804badca-4d98-489f-afb9-4820817abecd,イオンモール浦和美園店,3360967,埼玉県,さいたま市緑区,美園5-50-1,イオンモール浦和美園,,,,,,
4a5dc951-19ff-40bc-a55f-234778be5877,TSUTAYA ハレノテラス東大宮店,3370006,埼玉県,さいたま市見沼区,島町393,,,,,,,
dc2bd547-1aa8-4b13-a263-b8ea85c0429e,さいたま大和田店,3370053,埼玉県,さいたま市見沼区,大和田町1-1931,,,,,,,
0f2d0723-28f8-4d64-a54d-300115626d9d,イオンモール与野店,3380004,埼玉県,さいたま市中央区,本町西5-2-9,イオンモール与野,,,,,,
6a23c690-24a4-4dda-af4d-669925b4d6f7,さいたま南与野店,3380013,埼玉県,さいたま市中央区,鈴谷5-3-18,,,,,,,
a46a3ad0-28a6-4a13-a7b5-b509b0d038d1,ららぽーと新三郷店,3410009,埼玉県,三郷市,新三郷ららシティ3-1-1,ららぽーと新三郷 2階,,,,,,
623834ed-84d1-4ded-b0b1-7e326733f2d2,三郷中央店,3410038,埼玉県,三郷市,中央4-11-3,,,,,,,
a62b44f2-3fd4-4f41-83b2-498a1adde3bb,三郷イトーヨーカドー店,3410050,埼玉県,三郷市,ピアラシティ1-1-1,イトーヨーカドー三郷店,,,,,,
18374b9e-b419-48de-9862-f8c0bd04e3d6,越谷イオンレイクタウン mori 1階店,3430828,埼玉県,越谷市,レイクタウン3-1-1,イオンレイクタウン mori,,,,,,
368b4bbc-8e87-4bc9-9bd3-0053fb68e0ec,越谷イオンレイクタウン mori ガーデンウォーク店,3430828,埼玉県,越谷市,レイクタウン3-1-1,イオンレイクタウン mori,,,,,,
0b245606-c07f-4da7-9d21-b6ef2ec8d6a2,越谷イオンレイクタウン mori 3階店,3430828,埼玉県,越谷市,レイクタウン3-1-1,イオンレイクタウン mori,,,,,,
97043a99-e97a-4a26-9256-9c3867fb07de,越谷イオンレイクタウン kaze 1階店,3430828,埼玉県,越谷市,レイクタウン4-2-2,イオンレイクタウン kaze 1F,,,,,,
b9d8f397-27d9-47e2-9e7c-df1e675056c4,越谷レイクタウン アウトレット店,3430828,埼玉県,越谷市,レイクタウン4-1-1,レイクタウンアウトレット,,,,,,
bca22f7f-6595-4002-bc0f-5780f8fcbc24,越谷イオンレイクタウン kaze 2階レイクタウンゲート店,3430828,埼玉県,越谷市,レイクタウン4-2-2,イオンレイクタウン kaze　2F,,,,,,
684096cf-264e-4520-b93c-3b05059e3cff,越谷イオンレイクタウン kaze 2階カフェプラザ店,3430828,埼玉県,越谷市,レイクタウン4-2-2,イオンレイクタウン kaze 2F,,,,,,
52eb1f07-de1e-40ff-a84d-59555dc21c77,新越谷ヴァリエ店,3430845,埼玉県,越谷市,南越谷1-11-4,新越谷ヴァリエ2階,,,,,,
8cdfb9f4-32f5-49e3-8c7b-fc4b1ad660b6,獨協医科大学埼玉医療センター店,3430845,埼玉県,越谷市,南越谷2-1-50,獨協医科大学埼玉医療センター,,,,,,
fb60d2ea-4990-452d-85a3-109b95ae01d6,ララガーデン春日部店,3440064,埼玉県,春日部市,南1-1-1(店舗番号1230),ララガーデン春日部,,,,,,
cf886c25-728f-42d8-9e2c-97782eb89761,イオンモール春日部店,3440122,埼玉県,春日部市,下柳420-1,,,,,,,
eaaf8f78-5232-4bff-a9e2-1bdb6352eb65,東武久喜駅店,3460003,埼玉県,久喜市,中央2-1-1,東武久喜駅,,,,,,
d7dd1133-9a3f-4d67-9eac-d7e11d1016fc,モラージュ菖蒲1階店,3460106,埼玉県,久喜市,菖蒲町菖蒲6005-1,モラージュ菖蒲1階,,,,,,
39d16dfe-ad2f-41f3-a47e-5abef962a83e,モラージュ菖蒲122号バイパス店,3460106,埼玉県,久喜市,菖蒲町菖蒲6005-1,モラージュ菖蒲,,,,,,
a2753dff-388b-42e4-ac6c-2ee4763e3644,羽生パーキングエリア（下り線）店,3480004,埼玉県,羽生市,弥勒三新田824,Pasar羽生,,,,,,
06b5f887-33f4-4c0f-89eb-f46bbcf0fa14,カインズ羽生店,3480037,埼玉県,羽生市,小松514-1,,,,,,,
35c9bfa0-1086-49ee-be91-fe8eaa63ba90,イオンモール羽生1階店,3480039,埼玉県,羽生市,川崎2-281-3,イオンモール羽生1階,,,,,,
7d892aa7-db94-419f-bf1b-634123826740,イオンモール羽生3階店,3480039,埼玉県,羽生市,川崎2-281-3,イオンモール羽生3階,,,,,,
0636b435-7c18-4b5e-8cf1-5946a2020aaf,蓮田サービスエリア（上り線）店,3490112,埼玉県,蓮田市,川島370,Pasar蓮田（上り線）,,,,,,
71ab4d23-de79-451e-b6fe-3e50a530e197,TSUTAYA 南古谷店,3500026,埼玉県,川越市,泉町3-1,ウニクス南古谷,,,,,,
7214e3d7-1707-4b70-b54f-0b25a613d259,西武本川越駅店,3500043,埼玉県,川越市,新富町1-22,本川越駅構内,,,,,,
91999c26-c707-4770-b030-3bb73a53a680,川越鐘つき通り店,3500063,埼玉県,川越市,幸町15-18,,,,,,,
a46afeb9-9af6-4a70-99a4-5a553af9fba9,カインズスーパーモールかわじま店,3500152,埼玉県,比企郡,川島町上伊草210,カインズスーパーモールかわじま,,,,,,
0fedcbd8-5996-4277-8e11-8692db6303c6,TSUTAYA 坂戸八幡店,3500223,埼玉県,坂戸市,八幡1-3-21,,,,,,,
987a6bfb-7ab6-4d52-80cb-350a61a2b6df,川越伊勢原店,3501108,埼玉県,川越市,伊勢原町3-2-3,,,,,,,
3695fc62-e9da-4cc4-a06a-a8783a0069ca,エキア川越店,3501122,埼玉県,川越市,脇田町24-9,EQUiA川越,,,,,,
897ed706-4281-41bf-9df9-f5986c512ce0,ルミネ川越店,3501123,埼玉県,川越市,脇田本町39-19,ルミネ川越,,,,,,
69bb630a-f7ae-4bf2-9c9f-d32196f04173,埼玉医科大学国際医療センター店,3501241,埼玉県,日高市,山根稲荷山1397-1,埼玉医科大学国際医療センター,,,,,,
100261d5-a3c0-4501-9158-c588a593c953,狭山市入間川にこにこテラス店,3501335,埼玉県,狭山市,柏原2910-1,,,,,,,
1b0db23b-8e3c-4427-a0b7-62f572fb3cd4,鶴ヶ島若葉店,3502201,埼玉県,鶴ヶ島市,富士見2-2-8,,,,,,,
1b59dd6e-68d4-4592-8ec8-121a79ae1de6,カインズホーム鶴ヶ島店,3502217,埼玉県,鶴ヶ島市,三ツ木奥仲580-1,,,,,,,
2c518228-98a6-4dc5-8797-b51df1365906,朝霞駅前店,3510011,埼玉県,朝霞市,本町2-4-18,バモスビル,,,,,,
4b6a52ce-70fa-4c8e-baa7-05b24a2489a0,エキア プレミエ 和光店,3510114,埼玉県,和光市,本町4-6,,,,,,,
dc9acf15-0a83-41bc-8323-f1ef36d32e80,志木駅前店,3520001,埼玉県,新座市,東北2-39-1,井下田第２ビル 1F,,,,,,
b7798e3f-584f-4bae-b179-053f78349e4f,エキア志木店,3520001,埼玉県,新座市,東北2-38-1,EQUiA志木,,,,,,
13834902-c53b-44ee-8cc8-e08b205d728e,くみまちMALL新座店,3520004,埼玉県,新座市,大和田2-6-28,くみまちMALL新座,,,,,,
4324c373-6f9d-4d8f-af8f-3e0f7a8a01e6,新座野火止店,3520011,埼玉県,新座市,野火止7-11-42,,,,,,,
5624aaa6-0363-48b8-9a77-40fdb39b54fc,ららぽーと富士見2階店,3540022,埼玉県,富士見市,山室1-1313,ららぽーと富士見2階,,,,,,
c7bda4d4-b665-419b-9da8-496e09b4bf19,三芳パーキングエリア(下り線)店,3540045,埼玉県,入間郡,三芳町上富2218-1,三芳パーキングエリア(下り線),,,,,,
a2d5f4c5-5702-4a1c-a486-dfb623065c3e,ららぽーと富士見3階店,3540022,埼玉県,富士見市,山室1-1313,ららぽーと富士見3階,,,,,,
4ece59ac-09b5-400a-ae9d-ca60d75e07a9,ピオニウォーク東松山店,3550048,埼玉県,東松山市,あずま町4-3,,,,,,,
27e0ddbe-bab9-4bce-a444-f0e491526309,なめがわ森林モール店,3550811,埼玉県,比企郡,滑川町羽尾2806－1,,,,,,,
07fa8e42-f7b6-406f-a99b-3ffef0ec1028,ふじみ野清見店,3560002,埼玉県,ふじみ野市,清見2-1-7,,,,,,,
01a20508-e7c9-4321-95b0-28da0a056638,ふじみ野店,3560050,埼玉県,ふじみ野市,ふじみ野4-9-1,,,,,,,
82125be9-e253-4c9e-a071-12bb42c27cfc,ふじみ野亀久保店,3560051,埼玉県,ふじみ野市,亀久保4-9-27,,,,,,,
48a551dc-0899-45c6-82e2-c56e316ec441,飯能メッツァビレッジ店,3570001,埼玉県,飯能市,宮沢327-6,メッツァ,,,,,,
2821fd33-635b-4c5b-aa8f-be020c18fe31,飯能ＰｅＰｅ店,3570038,埼玉県,飯能市,仲町11-21,飯能ＰｅＰｅ 2F,,,,,,
00550167-23f0-484b-aa76-03f0d74b97a2,入間下藤沢店,3580011,埼玉県,入間市,下藤沢2-34-3,,,,,,,
98596c2c-125c-4c58-8fce-65c3b92ebd1f,イオン入間店,3580013,埼玉県,入間市,上藤沢下原462,イオン入間ショッピングセンター,,,,,,
b2532297-87c3-44b3-8528-92c45b7feba3,三井アウトレットパーク入間店,3580014,埼玉県,入間市,宮寺3169-1,三井アウトレットパーク入間,,,,,,
c37553b5-5010-4dea-bb8b-73149b589a6c,グランエミオ所沢東口2階店,3590037,埼玉県,所沢市,くすのき台1-14-5,グランエミオ所沢,,,,,,
30f5183d-e7de-4d5c-b7a5-9325ab93a4ef,グランエミオ所沢西口1階店,3590037,埼玉県,所沢市,くすのき台1-14-5,グランエミオ所沢,,,,,,
4fafe07d-846c-4dc8-abfc-41ac7f13fb71,所沢けやき台店,3591118,埼玉県,所沢市,けやき台2-17-10,,,,,,,
c51364fd-381a-4441-b3eb-7c32e2ce56ae,所沢小手指バイパス店,3591152,埼玉県,所沢市,北野1-2-67,,,,,,,
59c5bb50-cded-459d-b136-2466422a36ec,アズ熊谷店,3600037,埼玉県,熊谷市,筑波2-115,熊谷駅ビルＡＺ２,,,,,,
583ce224-b736-4ff0-9bc9-384e1db73a67,カインズ熊谷籠原店,3600841,埼玉県,熊谷市,新堀952-11,カインズ熊谷籠原,,,,,,
26915398-c15e-4eda-b5e4-877de3af1278,上尾二ツ宮店,3620017,埼玉県,上尾市,二ツ宮957-1,,,,,,,
ce41f23f-9083-4d89-a42f-adc70f206a29,イオンモール上尾店,3620034,埼玉県,上尾市,愛宕3-8-1,イオンモール上尾1階,,,,,,
66b674fa-05ca-459e-8b25-87a22c9bab9e,上尾壱丁目店,3620081,埼玉県,上尾市,壱丁目北6-12,,,,,,,
ce7017dc-8edf-4c57-80af-8e6d53123f5b,桶川下日出谷店,3630029,埼玉県,桶川市,下日出谷東3-2,,,,,,,
c08e3181-e092-42a6-84f1-ae227abb2fbc,深谷国済寺店,3660031,埼玉県,深谷市,国済寺町26-5,,,,,,,
6a78462c-be79-44d2-9b39-be6e1c398fa8,上里サービスエリア(上り線)店,3690317,埼玉県,児玉郡,上里町五明849-1,上里サービスエリア(上り線),,,,,,
84c36465-f13a-401c-8d23-62b24adddbbc,上里サービスエリア（下り線）店,3690317,埼玉県,児玉郡,上里町五明820,上里サービスエリア（下り線）,,,,,,
3293d43c-27d4-4a7e-925d-e933b796fc28,ふかや花園プレミアム・アウトレット店,3691248,埼玉県,深谷市,花園１番地,ふかや花園プレミアム・アウトレット,,,,,,
fbffea70-79d7-487d-8bb2-b370e78a3dbb,千葉中央駅店,2600014,千葉県,千葉市中央区,本千葉町15-1,ミラマーレショッピングセンターミーオ2,,,,,,
8d3162a4-1ca6-4703-b7e5-d590bf3bd804,ヨドバシ千葉店,2600028,千葉県,千葉市中央区,新町1001,ヨドバシHD千葉ビル,,,,,,
c9940929-fb4a-47a0-95d8-330a537d1920,千葉センシティタワー店,2600028,千葉県,千葉市中央区,新町1000,千葉センシティタワー,,,,,,
6521088d-82bd-4afd-94d5-1a58a85f6bdf,ペリエ千葉店,2600031,千葉県,千葉市中央区,新千葉1-1-1,ペリエ千葉,,,,,,
38a04696-17ab-450e-9614-ff07ef1a26bd,ペリエ千葉5階店,2600031,千葉県,千葉市中央区,新千葉1-1-1,ペリエ千葉,,,,,,
14448dfb-305d-47a9-90bc-589a61e81274,ペリエ西千葉店,2600033,千葉県,千葉市中央区,春日2-24-4,ぺリエ西千葉,,,,,,
0f43ee71-356b-4aa9-a391-cc8479485a5f,千葉公園店,2600045,千葉県,千葉市中央区,弁天3-1,,,,,,,
9b00d859-670d-471e-a408-fa833e1631c6,アリオ蘇我店,2600835,千葉県,千葉市中央区,川崎町52-7,,,,,,,
275d8a72-6263-4219-a49b-11be09c011f5,千葉美浜店,2610001,千葉県,千葉市美浜区,幸町2-20-1,,,,,,,
98b8023a-d98a-4e54-bd83-80045b627c30,幕張ベイパーク店,2610014,千葉県,千葉市美浜区,若葉3-2-16,幕張ベイパーク,,,,,,
835c9045-402a-4d2a-bb74-00ad2e5a0b68,イオン海浜幕張店,2610021,千葉県,千葉市美浜区,ひび野1-3,イオン幕張 1F,,,,,,
4a98c275-c5ff-4d8f-a087-34eaa9987baa,ペリエ海浜幕張店,2610021,千葉県,千葉市美浜区,ひび野2-110,ペリエ海浜幕張,,,,,,
859470e7-d188-492b-8e59-a8b1be671f46,ペリエ海浜幕張 PARK SIDE1店,2610021,千葉県,千葉市美浜区,ひび野2-108,ペリエ海浜幕張 PARK SIDE1,,,,,,
415db6ca-f22b-4a74-892c-09adfcc00f62,湾岸幕張パーキングエリア（下り線）店,2610025,千葉県,千葉市美浜区,浜田2-102,湾岸幕張パーキングエリア（下り線）,,,,,,
e97bfd5a-4726-4136-bc25-776191bbc7c0,湾岸幕張パーキングエリア（上り線）店,2610025,千葉県,千葉市美浜区,浜田2-102,湾岸幕張パーキングエリア（上り線）,,,,,,
9877f67c-0263-49fc-a5df-4fdc9cd1b424,幕張ＷＢＧ店,2610023,千葉県,千葉市美浜区,中瀬2-6-1,WBG,,,,,,
1bdc9266-0f2c-47ae-9e9e-45b336059157,イオンモール幕張新都心グランドモール店,2610024,千葉県,千葉市美浜区,豊砂1-1,イオンモール幕張新都心グランドモール,,,,,,
85d0fe06-6b57-419b-b2f2-bd6caa6f414a,イオンモール幕張新都心エキマエ店,2610024,千葉県,千葉市美浜区,豊砂1-5,イオンモール幕張新都心エキマエ2階,,,,,,
61e58bac-4176-41f9-908b-49dd8e532408,千葉長沼店,2630005,千葉県,千葉市稲毛区,長沼町333-10,,,,,,,
360681d9-b0bf-4acb-87d7-e10c635dd2dc,千葉若松店,2640021,千葉県,千葉市若葉区,若松町1-1,,,,,,,
6c6b25db-0ab4-4c5f-ab7c-83a3406e61e5,千葉おゆみ野店,2660033,千葉県,千葉市緑区,おゆみ野南1-1-1,,,,,,,
c164729a-cd1b-40ea-bea2-095e1bd3594b,TSUTAYA BOOKSTORE テラスモール松戸店,2700023,千葉県,松戸市,八ヶ崎2-8-1,テラスモール松戸,,,,,,
c3b39e4d-928d-4a8b-bd33-535f49217f6c,流山おおたかの森運動公園店,2700137,千葉県,流山市,市野谷561-1(運A30街区1),,,,,,,
dca86f03-a004-4a8a-a1a5-1b8d9ca5ebab,流山おおたかの森Ｓ・Ｃ店,2700139,千葉県,流山市,おおたかの森南1-5-1,,,,,,,
99570f92-68e7-4881-9896-583c64c9ca3f,南流山店,2700163,千葉県,流山市,南流山9-15-14,,,,,,,
553ce541-ca75-4236-9c56-f41335bdb0f7,我孫子店,2701166,千葉県,我孫子市,我孫子3-19-12,,,,,,,
0890fc3c-600a-43eb-84e4-6e689f914a7f,千葉ニュータウン店,2701360,千葉県,印西市,泉野3-1186-5,,,,,,,
0f10735e-c799-48d9-8963-106cfd886ff0,theGreen千葉ニュータウン店,2701369,千葉県,印西市,鹿黒南5-2,theGreen,,,,,,
2e536b57-7aad-4f13-8d87-defe2b301997,イオンモール千葉ニュータウン店,2701350,千葉県,印西市,中央北3-2,,,,,,,
4d6b649c-3d2b-493c-9caa-97f6f9b2e5fb,プラーレ松戸店,2710092,千葉県,松戸市,松戸1149-1,プラーレ松戸,,,,,,
dba3664b-1107-499b-9eee-19c70421bbf4,ダイエーいちかわコルトンプラザ店,2720015,千葉県,市川市,鬼高1-1-1　,ニッケコルトンプラザ,,,,,,
3381cf3a-bde5-4fca-add5-8a644ef70c33,ニッケコルトンプラザ　ツムグテラス店,2720015,千葉県,市川市,鬼高1-1-1,ツムグテラス,,,,,,
7a9c3c8b-1aa4-4ddf-aa21-4ff570669798,シャポー市川店,2720034,千葉県,市川市,市川1-1-1,シャポー市川,,,,,,
5238466d-fddf-4642-aab2-3a3ccc074bd0,イオン市川妙典店,2720111,千葉県,市川市,妙典5-3-1,イオン市川妙典,,,,,,
25469b25-0ec8-443a-873e-ab9a8a198331,シャポー船橋本館店,2730005,千葉県,船橋市,本町7-1-1,シャポー船橋本館1階,,,,,,
07238d6b-f9d6-43cc-8ea3-2325f8b31926,シャポー船橋南館店,2730005,千葉県,船橋市,本町7-1-1,シャポー船橋南館2階,,,,,,
78071163-1d1f-497a-abb3-c68e93d442a6,ららぽーとTOKYO-BAY　北館店,2730012,千葉県,船橋市,浜町2-1-1,ららぽーとTOKYO-BAY北館１Ｆ,,,,,,
66112d82-8686-452e-889f-5e64db7fdb9d,ららぽーとTOKYO-BAY　南館店,2730012,千葉県,船橋市,浜町2-1-1,ららぽーとTOKYO-BAY南館2Ｆ,,,,,,
352b1a6d-cd3b-44f3-a2b5-e7c15778e605,西船橋メトロピア店,2730031,千葉県,船橋市,西船4-27-7,東京地下鉄東西線西船橋駅構内,,,,,,
e2a5ac84-547a-4a4c-869a-00e2636a4da8,イオンモール船橋店,2730045,千葉県,船橋市,山手1-1-8,,,,,,,
a112b43c-7e34-4219-a9c0-0cf9c8419dd8,新鎌ケ谷店,2730107,千葉県,鎌ケ谷市,新鎌ケ谷3-1-5,,,,,,,
36802146-3466-4212-bb65-f72fcd9e7b1a,船橋東武店,2730005,千葉県,船橋市,本町7-1-1,東武百貨店　船橋店,,,,,,
5a8874d7-b2b3-4164-879a-75ddb45a3472,津田沼ビート店,2740825,千葉県,船橋市,前原西2-19-1,Viit,,,,,,
94f8290c-ad8f-403f-8100-0705e8dee0e2,ミーナ津田沼店,2750016,千葉県,習志野市,津田沼1-3-1,mina津田沼,,,,,,
a238f68f-fd66-4660-ad91-e949b49d95bd,イオンモール津田沼店,2750016,千葉県,習志野市,津田沼1-23-1,イオンモール津田沼2階,,,,,,
53e43ba2-22de-409c-8861-6e9a3f759052,フルルガーデン八千代店,2760029,千葉県,八千代市,村上南1-3-1,フルルガーデン八千代,,,,,,
99a9445c-711e-45cb-9898-6373b3d92397,イオンモール八千代緑が丘店,2760049,千葉県,八千代市,緑が丘2-1-3,イオンモール八千代緑が丘,,,,,,
a68d55b0-7d47-4e81-b458-26d6d19b7b22,柏マルイ店,2770005,千葉県,柏市,柏1-1-11,柏マルイ 2F,,,,,,
d61bd86e-38f4-470c-94b1-52ffd7e3999d,JR柏駅 中央改札内店,2770005,千葉県,柏市,柏1-1-1,JR柏駅中央改札内,,,,,,
2502bc2b-85e6-4342-8675-d7faeb324461,モラージュ柏店,2770837,千葉県,柏市,大山台2-3,モラージュ柏,,,,,,
8357d931-f740-4c56-8ba8-07f70280f923,柏 高島屋ステーションモール店,2770842,千葉県,柏市,末広町1-1,柏高島屋ステーションモールＳ館 1F,,,,,,
756fa6dd-b14c-4181-a7ba-975106ee3b1c,柏 高島屋ステーションモール 6階店,2770842,千葉県,柏市,末広町1-1,柏高島屋ステーションモールＳ館,,,,,,
9a3a2005-30e5-465d-acf6-bdc770c2825b,イオンモール柏店,2770854,千葉県,柏市,豊町2-5-25,イオンモール柏,,,,,,
42187c55-6ff5-4213-8c3d-5a68f5a83590,柏の葉 蔦屋書店,2770871,千葉県,柏市,若柴227-1,,,,,,,
4c7d0861-0e9d-487e-a7c4-8577a56dc64a,セブンパーク　アリオ柏店,2770922,千葉県,柏市,大島田1-6-1,セブンパーク　アリオ柏,,,,,,
f2c09959-f9da-4ead-bd56-6b25d469bbde,野田桜の里店,2780048,千葉県,野田市,桜の里2-6-5,,,,,,,
4ad80aec-0005-44da-ac80-fc8e54c12311,浦安店,2790002,千葉県,浦安市,北栄1-15-9,寿ビル,,,,,,
2f5aaae9-32e4-4fb6-ac99-6dbed9ae18e3,アトレ新浦安店,2790012,千葉県,浦安市,入船1-1-1,アトレ新浦安,,,,,,
8acc2dca-f3b2-4797-85b0-3469b2fc3269,MONA新浦安店,2790012,千葉県,浦安市,入船1-5-1,MONA新浦安,,,,,,
41486fb3-f8a3-430c-89a4-1f1dc9d58e29,舞浜駅店,2790031,千葉県,浦安市,舞浜26-5,JR舞浜駅南口改札外,,,,,,
0c9e908a-4466-499e-bbcf-82d2ae8c3079,舞浜　イクスピアリ店,2790031,千葉県,浦安市,舞浜1-4,イクスピアリ (店舗番号169),,,,,,
e96a2b1a-d25c-4a93-b17e-ca13c7dd28ca,舞浜 イクスピアリ2F トレイダーズ・パッセージ店,2790031,千葉県,浦安市,舞浜1-4,イクスピアリ 2階,,,,,,
36e68e52-8410-48cf-bbf2-4f24a6185ddb,成田空港第2ターミナル店,2820004,千葉県,成田市,古込1-1,成田空港第2旅客ターミナルビル,,,,,,
e9493687-b322-465d-8d42-c908f9e9754f,成田空港第2ターミナル到着ロビー南店,2820004,千葉県,成田市,古込1-1,,,,,,,
17ae7306-f041-4d6e-856b-aae492629a8c,成田空港第2ターミナルサテライト店,2820004,千葉県,成田市,古込1-1,成田空港第2旅客ターミナルビル 3階,,,,,,
b4b5dc94-c588-4a85-ad45-c803b6c87332,成田空港第2ターミナル到着ロビー北店,2820004,千葉県,成田市,古込1-1,成田空港第2旅客ターミナルビル 1階,,,,,,
04e24fc3-de6a-41e6-805d-91f1d5faeeea,成田空港店,2860116,千葉県,成田市,三里塚御料牧場1-1,成田空港第１旅客ターミナルビル,,,,,,
51441ab6-6130-48a3-a893-18b0517c6c47,成田空港第1ターミナル店,2860116,千葉県,成田市,三里塚御料牧場1-1,成田空港第1旅客ターミナル中央ビル,,,,,,
ea92a3c7-57f8-4d39-ab54-335e4e7d1a0b,成田空港第1ターミナル第2サテライト店,2860116,千葉県,成田市,三里塚御料牧場1-1,成田国際空港第1旅客ターミナルビル,,,,,,
65517961-da3c-4751-b95f-a07366faef36,道の駅みのりの郷東金店,2830005,千葉県,東金市,田間1330-1,みのりの郷東金,,,,,,
397a786f-aca4-47b3-bcc9-a964e1e1340c,四街道イトーヨーカドー店,2840009,千葉県,四街道市,中央5番地,イトーヨーカドー四街道店,,,,,,
4274cfd2-c661-4802-8bb9-277d57980d2d,ベイシア佐倉店,2850819,千葉県,佐倉市,寺崎北6-1-2,,,,,,,
b4deeb11-0649-4645-8aaf-276b8af4e232,ユーカリが丘店,2850858,千葉県,佐倉市,ユーカリが丘2-32-16,,,,,,,
171bfa79-3839-4c49-a691-687cc1b9a5a5,酒々井プレミアム・アウトレット店,2850912,千葉県,印旛郡,酒々井町飯積2-4-1,,,,,,,
de07c099-70f8-4228-b3af-4d16cc2d2078,酒々井パーキングエリア(下り線)店,2850913,千葉県,印旛郡,酒々井町墨1420-11,酒々井パーキングエリア(下り線),,,,,,
dc0737fb-67ba-4f51-bee9-7a34564c92ab,成田美郷台店,2860013,千葉県,成田市,美郷台3-1-8,,,,,,,
306aa2c2-15ae-4588-9942-d697d1ce7e03,TSUTAYA BOOKSTORE そよら成田ニュータウン店,2860017,千葉県,成田市,赤坂2-１-10,そよら成田ニュータウン本館4階,,,,,,
87de9606-6587-462c-9a6c-87dffeaf913a,イオンモール成田店,2860029,千葉県,成田市,ウイング土屋24,,,,,,,
5b5b9311-0591-46e8-ad35-df35a4e97eb7,ベイシア富里店,2860221,千葉県,富里市,七栄532,ベイシア富里,,,,,,
823b493d-1ff5-4bba-8ebb-03031a3c0c28,香取佐原店,2870005,千葉県,香取市,佐原ホ1238-3,,,,,,,
b6a170d9-2071-462a-8bf8-3d35f6784aad,千葉旭店,2892511,千葉県,旭市,イ六反田2074-1-2,,,,,,,
5d1e7ea7-4aca-4d96-a82f-a7da46dff783,市原店,2900050,千葉県,市原市,更級4-1-32,,,,,,,
7c4d37c9-e0d7-4eef-a3d3-0784827dca6e,アリオ市原店,2900050,千葉県,市原市,更級4-3-2,アリオ市原1階,,,,,,
57edbbcd-9350-49b2-b37c-ccfddf16f0a5,ちはら台モール店,2900142,千葉県,市原市,ちはら台南2-32-2,もりまちちはら台モール,,,,,,
22525862-47b2-4753-a5c9-ca734fe03bbb,ユニモちはら台店,2900143,千葉県,市原市,ちはら台西3-4,ユニモちはら台,,,,,,
b114d8af-1a37-45b7-b539-d8bbd64cb531,ベイシア木更津金田店,2920009,千葉県,木更津市,金田東5-2-1,ベイシア木更津金田,,,,,,
ed59bdd3-cb14-4ea6-ac9f-568dc91a806d,三井アウトレットパーク木更津サウスゾーン店,2920009,千葉県,木更津市,金田東3-1-1,三井アウトレットパーク木更津1階,,,,,,
357d018b-0f81-4a86-9225-9a27ab3c3292,三井アウトレットパーク木更津ウエストゾーン店,2920009,千葉県,木更津市,金田東3-1-1,三井アウトレットパーク木更津1階,,,,,,
18684b73-33f3-4ba2-8943-0a9b33f41558,木更津店,2920038,千葉県,木更津市,ほたる野1-15-2,,,,,,,
b673b099-2546-49f1-82ea-b3a1f83187b6,海ほたるパーキングエリア店,2920008,千葉県,木更津市,中島地先,海ほたる 海ほたるパーキングエリア,,,,,,
adf5b41e-9701-4658-b425-0a9591ae758b,イオンモール木更津店,2920835,千葉県,木更津市,築地1-4,,,,,,,
9d5d0b15-a5f5-41e9-ab48-4beceb02a6bc,カインズ館山店,2940041,千葉県,館山市,高井上畑作1771,,,,,,,
6fd908a6-60f4-4da3-8c6d-d27da2322d77,茂原店,2970028,千葉県,茂原市,道表17－5,,,,,,,
a2618543-8f4e-4a21-acc1-3687817b05e5,皇居外苑 和田倉噴水公園店,1000002,東京都,千代田区,皇居外苑3-1,,,,,,,
de3b9ffc-ab0e-49e6-b203-12779b29f4b1,竹橋パレスサイド店,1000003,東京都,千代田区,一ツ橋1-1-1,竹橋パレスサイドビルディング 1F,,,,,,
cea5c2fd-0d38-4719-99ea-68dd692c85ad,ＫＤＤＩ大手町ビル店,1000004,東京都,千代田区,大手町1-8-1,ＫＤＤＩ大手町ビル 1F,,,,,,
9af444aa-06b1-455c-a067-1e69f4f6a951,大手町東京サンケイビル店,1000004,東京都,千代田区,大手町1-7-2,東京サンケイビル　B1階,,,,,,
eb090a0b-bf5b-4d91-8d0c-998b7be6834d,大手町ビル店,1000004,東京都,千代田区,大手町1-6-1,大手町ビル,,,,,,
88bc25f2-36e2-4c9e-8df9-b76567ad53f7,大手町プレイス店,1000004,東京都,千代田区,大手町2-3-1,大手町プレイス,,,,,,
122f2b9e-f2bc-43a2-b0ff-07290ddc0001,丸の内三菱ビル店,1000005,東京都,千代田区,丸の内2-5-2,三菱ビル,,,,,,
2cef219a-f616-44fd-a44a-2fd7dcecb1a7,丸の内新東京ビル店,1000005,東京都,千代田区,丸の内3-3-1,丸の内新東京ビル,,,,,,
e3e350b9-07dd-4767-89bf-45ba32cd1e04,ＪＲ東京駅日本橋口店,1000005,東京都,千代田区,丸の内1-9-1,丸の内中央ビル,,,,,,
cdf25668-eba2-45b2-94da-1705d400cfa7,東京ステーションシティ サピアタワー店,1000005,東京都,千代田区,丸の内1-7-12,,,,,,,
5af87864-3836-43eb-bbd8-25b101e744a5,グランスタ丸の内店,1000005,東京都,千代田区,丸の内1-9-1,JR東日本東京駅構内地下1階改札外,,,,,,
466519e2-aeb5-49e4-b525-97293ea6885f,グランスタ八重洲店,1000005,東京都,千代田区,丸の内1-9-1,東京駅八重洲中央口B1F　グランスタ八重洲,,,,,,
a9e4ae19-7d3a-4e05-b692-b6e86a0c1a80,丸の内オアゾ店,1000005,東京都,千代田区,丸の内1-6-4,丸の内OAZO,,,,,,
ccee0b86-ff98-42a2-9e7f-58806d0b5a78,グランスタ東京店,1000005,東京都,千代田区,丸の内1-9-1,JR東日本東京駅構内１F グランスタ東京 京葉ストリートエリア,,,,,,
7cbbadf3-8f00-48e5-86ff-258c4696ad0f,東京駅八重洲北口 東京ギフトパレット店,1000005,東京都,千代田区,丸の内1-9-1,東京駅,,,,,,
70e1e6c3-2e3e-4f76-b179-097071abfc7b,東京ミッドタウン日比谷店,1000006,東京都,千代田区,有楽町1-1-4,東京ミッドタウン日比谷,,,,,,
72ad668d-ff13-4425-9d90-b9f68034f46b,有楽町メトロピア店,1000006,東京都,千代田区,有楽町1-11-1,東京メトロ有楽町駅構内,,,,,,
5350e16e-d1aa-4909-90f6-e9decdad1a88,JR有楽町駅京橋口店,1000006,東京都,千代田区,有楽町2-9,,,,,,,
6ae723f2-99b8-49d4-9e4b-ccc2d04178b5,日比谷シティ店,1000011,東京都,千代田区,内幸町2-2-3,日比谷国際ビルヂング B1F(B132),,,,,,
69ce60cd-341b-4956-8cfa-6d6aa97b8d51,山王パークタワー店,1000014,東京都,千代田区,永田町2-11-1,山王パークタワー,,,,,,
0b84c8b3-8a35-4d63-a813-666fb67fe8a8,赤坂プルデンシャルタワー店,1000014,東京都,千代田区,永田町2-13-10,プルデンシャルタワー,,,,,,
59b00978-d416-4ad3-a6c7-28f2cc0e21a6,霞ダイニング店,1000013,東京都,千代田区,霞が関3-2-5,霞が関ビルディング,,,,,,
de70bb9d-5b52-41f1-ab0f-5b4b1d25214b,丸の内ビル店,1000005,東京都,千代田区,丸の内2-4-1,丸の内ビルディング,,,,,,
a5466c52-1329-4f15-b752-4aca1a687a66,TSUTAYA BOOKSTORE MARUNOUCHI店,1000005,東京都,千代田区,丸の内2-4-1,丸の内ビルディング,,,,,,
792d5692-91aa-4454-b327-c8dcc5c6b0dd,新丸ビル店,1000005,東京都,千代田区,丸の内1-5-1,新丸の内ビル,,,,,,
474ad15d-31be-4d92-9778-fe425c76299a,大手町カンファレンスセンター店,1000004,東京都,千代田区,大手町1-3-1,JAビル,,,,,,
6eb3d594-a420-491c-a168-84045a2dcbfb,丸の内パークビル店,1000005,東京都,千代田区,丸の内2-6-1,丸の内パークビルディング,,,,,,
40c9041c-b04a-4a3b-9100-8393b60e3d03,ＫＩＴＴＥ丸の内店,1000005,東京都,千代田区,丸の内2-7-2,,,,,,,
0ab20f04-e142-428f-9f94-b7231acab325,アトレ秋葉原1店,1010021,東京都,千代田区,外神田1-17-6,アトレ秋葉原１,,,,,,
25e4877f-6b89-408e-a906-532946e037ab,JR東日本ホテルメッツ プレミア 秋葉原店,1010021,東京都,千代田区,外神田1-17-4,JR東日本ホテルメッツ プレミア 秋葉原,,,,,,
0a34b767-a31e-46a8-8484-cc2527cba48a,秋葉原駅前店,1010025,東京都,千代田区,神田佐久間町1-6-5,AKIBA・TOLIM,,,,,,
d32b468e-bbfb-4cab-a266-a9f5e06db2f9,神田駅南口店,1010044,東京都,千代田区,鍛冶町2-13-1,JR神田駅南改札口外,,,,,,
a1885820-4db5-44ae-9ea4-22bccc03fda9,神田駅前店,1010045,東京都,千代田区,神田鍛冶町3-2,神田サンミビル,,,,,,
aef4a80b-37c3-4aaf-9d96-f00e5f3b1e26,都営神保町駅店,1010051,東京都,千代田区,神田神保町2-7,都営三田線・新宿線「神保町駅」構内,,,,,,
bb0747c9-5578-4451-84ec-68d891d50ffd,神田小川町２丁目店,1010052,東京都,千代田区,神田小川町2-5-5,紀陽東京ビル 1F,,,,,,
62ec3377-7292-4d88-b477-12c7e4ddbe0b,お茶の水村田ビル店,1010062,東京都,千代田区,神田駿河台2-5,村田ビルディング 1F,,,,,,
93f1c5be-34ce-4e9f-b700-c5e011ffde32,お茶の水サンクレール店,1010062,東京都,千代田区,神田駿河台4-3,,,,,,,
817f8a97-7418-45f2-8e3f-94595003c100,御茶ノ水ソラシティ店,1010062,東京都,千代田区,神田駿河台4-6,御茶ノ水ソラシティ,,,,,,
7b7a9e0c-9ba8-4c45-91a9-efebb5d4a42f,淡路町駅前店,1010063,東京都,千代田区,神田淡路町1-2,,,,,,,
62bf41e3-fd75-4fd9-a111-d3affcf5e371,飯田橋サクラテラス店,1020071,東京都,千代田区,富士見2-10-2,,,,,,,
95614566-164f-4875-b4d6-3fb163e8aa80,飯田橋サクラテラス 2階店,1020071,東京都,千代田区,富士見2-10-2,飯田橋グラン・ブルーム　サクラテラス,,,,,,
6ad0580d-f8f6-498a-8872-6a756b3cca4b,飯田橋アイガーデンテラス店,1020072,東京都,千代田区,飯田橋3-10-9,アイガーデンテラス,,,,,,
a5c0bb1a-601e-464d-a93c-61033dfc49ce,九段下店,1020073,東京都,千代田区,九段北1-2-1,九段北1丁目ビル 1F,,,,,,
8df046bf-f951-4f24-ba50-ba8674cb92ca,北の丸スクエア店,1020073,東京都,千代田区,九段北1-13-12,北の丸スクエア,,,,,,
f79726e6-12c0-4d67-bfb8-7d5b8e9aaf07,市ヶ谷駅前店,1020076,東京都,千代田区,五番町2,市ヶ谷ストア 2F,,,,,,
86452f63-3381-48fa-a284-f7229f071dd1,麹町店,1020083,東京都,千代田区,麹町3-2-5,垣見麹町ビル別館 1F,,,,,,
22edc73f-9fef-4467-81c6-594bc4e5c8bd,上智大学 四谷キャンパス店,1020083,東京都,千代田区,麹町6-1-18,上智大学15号館1階,,,,,,
d17bc377-8aef-49cb-8b74-379053d89735,東京ガーデンテラス紀尾井町店,1020094,東京都,千代田区,紀尾井町1-2,東京ガーデンテラス紀尾井町,,,,,,
afe24adb-0c95-43e8-90f4-08c8daaced1e,人形町店,1030013,東京都,中央区,日本橋人形町3-6-7,人形町共同ビル 1F,,,,,,
684143ab-887b-45a5-b17b-26fb0f6bc2f2,日本橋スルガビル店,1030022,東京都,中央区,日本橋室町1-7-1,スルガビル 1F,,,,,,
67276beb-da59-4901-b888-0d733db2d3bf,コレド室町テラス店,1030022,東京都,中央区,日本橋室町3-2-1,コレド室町テラス 地下1階,,,,,,
8d8d5d87-bac3-4478-9c82-219a061632aa,コレド室町2店,1030022,東京都,中央区,日本橋室町2-3-1,コレド室町2 地下1階,,,,,,
1288ff17-4655-4fef-a46c-eaba5c71460d,日本橋本町店,1030023,東京都,中央区,日本橋本町2-4-5,扶桑日本橋ビル 1F,,,,,,
9623dd13-26c2-48d1-b57f-f8bdf9df0006,茅場町店,1030025,東京都,中央区,日本橋茅場町1-12-2,樋口本店ビル 1F,,,,,,
a85301d3-53ed-4b27-b705-67f789452f27,ＪＲ東海 東京駅新幹線南ラチ内店,1030028,東京都,中央区,八重洲1-7-20,八重洲口会館　JR-PLUS関東支社,,,,,,
54ed34e1-cca9-4843-a62f-7388e17de830,日本橋高島屋Ｓ.Ｃ.5階店,1030027,東京都,中央区,日本橋2-5-1,日本橋高島屋Ｓ.Ｃ. 新館5階,,,,,,
26823349-f53c-417b-b441-e0bef1abc66b,日本橋高島屋Ｓ.Ｃ.1階店,1030027,東京都,中央区,日本橋2-5-1,日本橋高島屋Ｓ.Ｃ. 新館1階,,,,,,
b5ab67b2-2edf-4e27-8662-c85f4c4bbfc5,ヤエチカ店,1040028,東京都,中央区,八重洲2-1,八重洲地下街 中3号,,,,,,
126b47e1-467f-43ae-b1f1-c1b3e8777b3d,東京ミッドタウン八重洲店,1040028,東京都,中央区,八重洲2-2-1,東京ミッドタウン八重洲,,,,,,
8f8290a0-24ca-4b84-9776-096141af36c8,京橋エドグラン店,1040031,東京都,中央区,京橋2-2-1,京橋エドグラン,,,,,,
4f48cbc8-8f8c-4f41-af79-6fb526cc01e0,築地駅前店,1040045,東京都,中央区,築地2-12-8,大広ビル 1F,,,,,,
bbeafb6d-a92f-4b31-8c55-47b0be54f71b,晴海 トリトンスクエア店,1040053,東京都,中央区,晴海1-8-10,晴海アイランド トリトンスクエア オフィスタワーX,,,,,,
5e23f3a2-ccbf-4938-93b2-6be2682ad7ca,勝どき店,1040054,東京都,中央区,勝どき4-6-2,パークタワー勝どきミッド1階,,,,,,
16cbdf45-5232-406d-9f39-0dc71b773581,銀座松屋通り店,1040061,東京都,中央区,銀座3-7-14,ＥＳＫビル 1F,,,,,,
be737544-cd6a-4693-adc3-dc105dc57e34,スターバックス リザーブ(R)ストア 銀座マロニエ通り,1040061,東京都,中央区,銀座3-7-3,銀座オーミビル 1F,,,,,,
68d92771-fb62-4dbd-a9fa-351beb8b3ef8,東銀座店,1040061,東京都,中央区,銀座5-15-8,時事通信ビル,,,,,,
ba9352eb-bccd-42c6-a9b5-9888135460c8,銀座ファイブ店,1040061,東京都,中央区,銀座5丁目1番先,GINZA FIVE,,,,,,
577f91c3-1795-4c62-a1db-375394fe661b,GINZA SIX店,1040061,東京都,中央区,銀座6-10-1,,,,,,,
49e301bf-521d-4d6c-a6c3-a0f063c2ca06,マロニエゲート銀座1店,1040061,東京都,中央区,銀座2-2-14,マロニエゲート銀座1,,,,,,
fb131dce-0fb9-48f8-ac9b-fee96950269c,銀座EXITMELSA店,1040061,東京都,中央区,銀座5-7-10,,,,,,,
9b17b5d4-cb77-41c9-9fc9-1951b7861d15,銀座 蔦屋書店,1040061,東京都,中央区,銀座6-10-1,GINZA SIX 6階,,,,,,
442b8ea4-aa8e-4b4e-aa40-ab77445957ac,エチカフィット銀座店,1040061,東京都,中央区,銀座4-1-2,東京メトロ銀座駅構内,,,,,,
b88a64bc-bfdb-4abf-952f-56d29353ad80,CIRCLES 銀座店,1040061,東京都,中央区,銀座3-7-6,CIRCLES 銀座,,,,,,
589e9a29-202a-45c2-9a51-68f4fa1c96fd,スターバックス ティバーナストア 銀座マロニエ通り,1040061,東京都,中央区,銀座3-7-3,銀座オーミビル B1F,,,,,,
7fe81e9e-423e-46c6-a55f-c0f0113ba7e6,聖路加国際病院店,1040044,東京都,中央区,明石町9-1,聖路加国際病院,,,,,,
3826bbc0-4bda-4f1f-94fb-f84450758bb6,虎ノ門駅前店,1050001,東京都,港区,虎ノ門1-1-23,ウンピン虎ノ門ビル 1F,,,,,,
70336558-b576-46b7-8c3c-1318bfdd64c4,虎ノ門２丁目タワー店,1050001,東京都,港区,虎ノ門2-3-17,虎ノ門２丁目タワー,,,,,,
6f75db04-1361-4bba-bdff-cd12a8c7c1c0,新橋駅前店,1050004,東京都,港区,新橋2-19-3,カシケイビル 1F,,,,,,
7f952f08-48a5-481b-b426-f0e9dc9c248f,JR新橋駅 銀座口店,1050004,東京都,港区,新橋2-17-14,新橋駅1階,,,,,,
ee46bfc2-a402-426c-ae0d-a7e5e639a9e3,芝大門店,1050011,東京都,港区,芝公園2-3-4,リッチモンドホテル東京芝,,,,,,
4a2628c2-1940-418f-b26c-a294f68958b1,虎ノ門ヒルズ ステーションタワー店,1050001,東京都,港区,虎ノ門2-6-3,虎ノ門ヒルズステーションタワー7階,,,,,,
6c45a622-c74d-4dbd-98ff-eb716b19b198,愛宕グリーンヒルズ店,1050002,東京都,港区,愛宕2-5-1,ＭＯＲＩ タワー（愛宕グリーンヒルズ）,,,,,,
c3474e1e-c1be-4cdc-81ad-e12049184fc8,虎ノ門ヒルズ ビジネスタワー店,1050001,東京都,港区,虎ノ門1-17-1,虎ノ門ヒルズ ビジネスタワー,,,,,,
9b266749-f2a8-4548-9070-4b3c49c48532,東京ワールドゲート神谷町店,1050001,東京都,港区,虎ノ門4-1-1,神谷町トラストタワー,,,,,,
254e686a-e984-4fdb-9287-3d03e64df1dc,カレッタ汐留店,1050021,東京都,港区,東新橋1-8-2,カレッタ汐留,,,,,,
83ed1aee-e2a9-4210-a871-6411517ddf74,汐留シティセンター店,1050021,東京都,港区,東新橋1-5-2,汐留シティセンター,,,,,,
962e5454-b1e3-424d-96e8-1e485f0d8367,東京汐留ビルディング店,1050021,東京都,港区,東新橋1-9-1,東京汐留ビルディング地下2階,,,,,,
361284f7-2ce3-48a0-895d-b8a10c453d70,日テレプラザ店,1050021,東京都,港区,東新橋1-6-1,日本テレビタワー 2階,,,,,,
0de95e96-e6fe-4808-8b57-90e18acd374d,六本木７丁目店,1060032,東京都,港区,六本木7-14-1,東李閣ビル 1F,,,,,,
28faba37-971a-4022-b3ab-461cc61eef17,六本木ヒルズ メトロハット／ハリウッドプラザ店,1060032,東京都,港区,六本木6-4-1,メトロハット/ハリウッドプラザ,,,,,,
43c6467f-2e74-4e91-ae23-82ae4f9d950a,六本木ヒルズ ウエストウォーク店,1060032,東京都,港区,六本木6-10-1,森タワー 2F,,,,,,
9cf9c6b6-e2ed-4c2a-8228-80571230276f,アークヒルズサウスタワー店,1060032,東京都,港区,六本木1-4-5,アークヒルズサウスタワー,,,,,,
700f4787-5d76-4d81-b87d-e2dc86302534,六本木 蔦屋書店,1060032,東京都,港区,六本木6-11-1,ゲートタワー,,,,,,
5bcda587-1b0a-4460-a868-6d1fb919fb93,麻布台ヒルズ店,1060041,東京都,港区,麻布台1-3-1,麻布台ヒルズ タワープラザ 地下1階,,,,,,
bed3631e-3967-4efb-ad7f-f5e9303cf2af,麻布十番店,1060045,東京都,港区,麻布十番1-11-14,ＳＢＳビル,,,,,,
ce050142-0ee6-4fb9-8a52-a45d2ca81313,麻布十番２丁目店,1060045,東京都,港区,麻布十番2-3-12,,,,,,,
020aaa90-26be-40b0-b4f0-26998a64d3bf,六本木ヒルズ ウエストウォーク ラウンジ店,1060032,東京都,港区,六本木6-10-1,森タワー 1F,,,,,,
fbe988c9-f1ec-4ffc-9764-dc71400a2096,赤坂見附店,1070052,東京都,港区,赤坂3-21-20,赤坂ロングビーチビル 1F,,,,,,
13bc79fd-afde-4a42-b93b-9496437c2465,赤坂溜池タワー店,1070052,東京都,港区,赤坂2-17-1,赤坂溜池タワー,,,,,,
60d2ea63-6063-4f43-9527-df4ec6fb5ff6,赤坂インターシティAIR店,1070052,東京都,港区,赤坂1-8-1,,,,,,,
44a4bcbf-55c1-4684-92fb-98e2bfeff416,東京ミッドタウン店,1070052,東京都,港区,赤坂9-7-2,東京ミッドタウンB0103,,,,,,
a4782065-f004-4d9c-ab4b-5352d9582cf6,アクセス表参道店,1070061,東京都,港区,北青山3-6-17,アクセス表参道ビル,,,,,,
fa97d438-6bdc-4e3e-b597-6d7a9bfed9e8,青山ビルヂング店,1070061,東京都,港区,北青山1-2-3,青山ビル,,,,,,
ed517fb0-393f-4fff-8a3f-abf444a3d8af,南青山２丁目店,1070062,東京都,港区,南青山2-26-37,VORT外苑前Ⅰ1F,,,,,,
1f9ba7ce-4edc-4a2f-bc59-6f61ce489f88,青山骨董通り店,1070062,東京都,港区,南青山5-10-1,H2 AOYAMA BUILDING,,,,,,
7a421507-9283-47db-9d6c-41bc730771a0,南青山骨董通り店,1070062,東京都,港区,南青山5-4-27,Barbizon104,,,,,,
1b8cece5-da47-4bd5-8e4c-217efbd1b056,アークヒルズ店,1070052,東京都,港区,赤坂1-12-32,アーク森ビル 1F,,,,,,
273f0d73-4dac-4072-8a08-63ededb442d0,赤坂Bizタワー店,1070052,東京都,港区,赤坂5-3-1,赤坂Bizタワー(区画番号206),,,,,,
ab902dcf-d6d0-4de8-9ef0-4374fb258b74,新田町ビル店,1080014,東京都,港区,芝5-34-6,新田町ビル,,,,,,
b23584c8-042b-46be-8916-4c35154af38f,田町駅 南改札内店,1080014,東京都,港区,芝5ー33ー36,JR田町駅 南改札内,,,,,,
15ac0fe8-e54b-4132-bd1b-b856814d0435,田町タワー店,1080014,東京都,港区,芝5-33-11,田町タワーモール1階,,,,,,
aa0c60dd-9b1f-4aac-aa6c-8e930f7b574a,ムスブ田町2階店,1080023,東京都,港区,芝浦3-1-21,msb Tamachi 田町ステーションタワーS 2階205,,,,,,
d3ff0f3c-01a6-44c2-854b-77606604d68e,ムスブ田町4階店,1080023,東京都,港区,芝浦3-1-21,msb Tamachi 田町ステーションタワーS 4階402,,,,,,
9f3bc2ae-abe7-487f-8268-a5eb40109e7a,白金高輪店,1080072,東京都,港区,白金1-17-2-102,白金アエルシティ,,,,,,
068f1740-cbfc-4f7b-918d-ce9ca3845482,品川インターシティ店,1080075,東京都,港区,港南2-15-2,品川インターシティ 2F (206),,,,,,
bf343d24-1c06-4130-adf4-62c5f89abd2d,高輪ゲートウェイ駅店,1080075,東京都,港区,港南2-1-220,JR高輪ゲートウェイ駅改札外3階,,,,,,
1ade60a4-a08a-4b45-97d7-aec4ef5794fa,ＪＲ東海 品川駅ラチ内店,1080075,東京都,港区,港南2-1-78,JR-PLUS品川事務所,,,,,,
71a1aecc-d208-4674-b935-cb34a5448b05,JR東海 品川駅店,1080075,東京都,港区,港南2-1-78,JR-PLUS品川事務所,,,,,,
7671aa43-8c8c-47d4-a166-7d563895975d,上野マルイ店,1100005,東京都,台東区,上野6-15-1,上野マルイ店 B1F,,,,,,
c4e560ad-8788-4c3d-b8dc-db5566c8b03d,御徒町春日通り店,1100005,東京都,台東区,上野6-2-1,ヨシダビル,,,,,,
7fcfcc19-af00-410a-9c64-50302cf82943,アトレ上野店,1100005,東京都,台東区,上野7-1-1,アトレ上野 1F,,,,,,
517f9c53-9935-4f58-b0d4-25be5b2d89db,パルコヤ上野店,1100005,東京都,台東区,上野3-24-6,パルコヤ 5階,,,,,,
bf4c11ce-f5b9-4d54-9dd5-445905c0e001,エキュート上野 公園口店,1100005,東京都,台東区,上野7-1-1,エキュート上野,,,,,,
c8fba2dd-c865-49b7-bec6-df538c1c2843,JR上野駅 入谷改札前店,1100005,東京都,台東区,上野7-1-1,上野駅構内3階入谷口改札外,,,,,,
e066b263-5272-41ec-81c0-120a757fa680,上野恩賜公園店,1100007,東京都,台東区,上野公園8-22,,,,,,,
a0fe9c4d-b4ae-45ec-9c61-60245f4c3ae8,雷門店,1110032,東京都,台東区,浅草1-18-2,雷門旅館,,,,,,
fe3daa15-8a72-4622-a610-a5fd1ea83f7d,浅草駅前店,1110033,東京都,台東区,花川戸1-5-1,,,,,,,
3dc3dbfb-b1a1-4be7-bf98-f713ea8f740a,浅草雷門通り店,1110034,東京都,台東区,雷門2-16-7,グランコピエ浅草雷門,,,,,,
a0e894e2-181b-4811-a363-0f94768d79b1,東京ドームシティ ラクーア店,1120003,東京都,文京区,春日1-1-1,ラクーア,,,,,,
a8b10d10-ca63-4d4d-8f0e-821c45c69193,水道橋後楽森ビル店,1120004,東京都,文京区,後楽1-4-14,後楽森ビル 1F,,,,,,
db303177-e153-440c-af91-43efefa112ca,茗荷谷店,1120012,東京都,文京区,大塚1-4-1,中央大学 茗荷谷キャンパス,,,,,,
d09a9728-041c-4f1b-a8eb-d7a7083a3e94,東京ドームシティ ミーツポート店,1120004,東京都,文京区,後楽1-3-61,東京ドームシティミーツポート1階,,,,,,
3060ad89-3371-4bb9-885c-4602506b3dd7,本郷東大前店,1130033,東京都,文京区,本郷4-1-4,Design Placeα 1F,,,,,,
4e1c641c-57b1-455e-8ab4-ebd00383b8a9,順天堂医院店,1130033,東京都,文京区,本郷3-1-3,順天堂大学医学部附属順天堂医院 (1号館）,,,,,,
c2675c14-3a71-48d9-b466-b192014bce3a,東京科学大学店,1130034,東京都,文京区,湯島1-5-45,東京科学大学C棟1階,,,,,,
561e5352-8339-481c-89ba-ec4a51526b57,日本医科大学付属病院店,1130022,東京都,文京区,千駄木1-1-5,日本医科大学付属病院,,,,,,
abdf948e-9fe1-4776-ab0a-bdc7612f7d57,東京大学工学部店,1130033,東京都,文京区,本郷7-3-1,工学部11号館,,,,,,
d73b5930-462e-48ca-af9e-170da01b0519,王子駅前店,1140002,東京都,北区,王子1-9-5,京徳ビル 1F,,,,,,
2f9490d5-dc08-42c6-aabc-bd6e28b921c7,アトレヴィ田端店,1140013,東京都,北区,東田端1-17-2,アトレヴィ田端,,,,,,
7e15c0cd-5563-4857-9078-105c0f3f968d,イオンスタイル赤羽店,1150043,東京都,北区,神谷3-12-1,イオンスタイル赤羽1階,,,,,,
eba8adaa-2327-49b0-856b-4f142723e400,ビーンズ赤羽店,1150045,東京都,北区,赤羽1-1-1,ビーンズ赤羽,,,,,,
fa8fef0e-d23e-4343-b02d-9b8e056a947a,エキュート赤羽みなみ店,1150045,東京都,北区,赤羽1-1-1赤羽駅南改札内,エキュート赤羽みなみ1階,,,,,,
ec92cca0-16c2-43b9-9db8-c65d7a50af7f,Olive LOUNGE 町屋店,1160001,東京都,荒川区,町屋1-1-6,Olive LOUNGE 1階,,,,,,
36ca312f-6a2d-472c-a923-1304a0e30acc,LaLaテラス南千住店,1160003,東京都,荒川区,南千住4-7-2,LaLaテラス南千住 B棟1階,,,,,,
2b9879d4-daee-4f26-b6ab-3c9907bd55f6,ららテラス北綾瀬店,1200006,東京都,足立区,谷中4-8-1,ららテラス北綾瀬2階,,,,,,
9776a716-b47a-4668-8358-d8e26fce4f97,エキア北千住店,1200026,東京都,足立区,千住旭町42-1,EQUiA北千住,,,,,,
77279aa5-3b22-4c69-aaba-e5dec5db41ae,ルミネ北千住店,1200026,東京都,足立区,千住旭町42-2,ルミネ北千住,,,,,,
bfd0dcd3-55b4-4dc5-9fe4-35f0fdf14a72,北千住マルイ店,1200034,東京都,足立区,千住3-92,北千住マルイ,,,,,,
bd7252a5-7a0d-4d0c-b0d5-9b4984725dc0,エキア竹ノ塚店,1210822,東京都,足立区,西竹の塚2-1-2,EQUiA竹ノ塚1階,,,,,,
85fc3cb8-81fe-45c8-8640-0172f5f28bc0,アリオ西新井店,1230843,東京都,足立区,西新井栄町1-20-1,アリオ西新井,,,,,,
28b7e9bc-c916-435f-8702-21e33e00bdc1,シャポー新小岩店,1240024,東京都,葛飾区,新小岩1-45-1,シャポー新小岩1階,,,,,,
c8bcbe43-ff85-48b6-9edd-9c1e2b9fe0a9,金町駅南口店,1250042,東京都,葛飾区,金町6-4-2,ラヴィクレール金町,,,,,,
d854bb44-f33c-486f-a3ee-7284430c1bcc,アリオ亀有店,1250061,東京都,葛飾区,亀有3-49-3,アリオ亀有,,,,,,
ce5a9b25-aedb-455a-b577-13de0368b964,ビーンズ亀有店,1250061,東京都,葛飾区,亀有3-25-1,ビーンズ亀有 1階,,,,,,
c4d6707e-bb2e-4fb0-96b6-ae75acee0dcc,東京理科大学葛飾キャンパス店,1250051,東京都,葛飾区,新宿6-3-1,東京理科大学葛飾キャンパス内共創棟,,,,,,
11415b92-0ab3-4f2d-92db-ec416ce3ddaa,錦糸町オリナス店,1300012,東京都,墨田区,太平4-1-2,オリナス,,,,,,
8654aefd-deab-4f34-be26-85703f76a823,錦糸町テルミナ2店,1300013,東京都,墨田区,錦糸1-2-47,テルミナ2,,,,,,
9dd84aec-4d13-4134-8a37-8371c5a40b4a,錦糸町 丸井店,1300022,東京都,墨田区,江東橋3-9-10,丸井 錦糸町店,,,,,,
73e193f4-9c24-4be3-8ac9-159013a089d6,錦糸町パルコ店,1300022,東京都,墨田区,江東橋4-27-14,楽天地ビル,,,,,,
5266ee7f-f22b-4fdd-80d6-0dff9690fc70,錦糸町メトロピア店,1300022,東京都,墨田区,江東橋3-14-6,東京メトロ錦糸町駅構内 錦糸町メトロピア,,,,,,
8513dca3-2c44-4e9e-934e-8b75154d7e8a,東京スカイツリータウン・ソラマチ東6階店,1310045,東京都,墨田区,押上1-1-2,東京スカイツリータウン,,,,,,
7f6cf859-5766-403d-b49d-42f3e5a2d7df,東京スカイツリータウン・ソラマチ西1階店,1310045,東京都,墨田区,押上1-1-2,東京スカイツリータウン,,,,,,
d9b99657-0279-47d0-9f01-b07c1ad4ee76,シャポー小岩店,1330056,東京都,江戸川区,南小岩7-24-15,,,,,,,
79b00d51-01dd-476f-87cf-810c7a346b93,葛西駅南口店,1340084,東京都,江戸川区,東葛西6-2-1,RECS東葛西2階,,,,,,
153d93d0-60be-418e-b4c8-ca7e18981c7d,江戸川総合レクリエーション公園店,1340085,東京都,江戸川区,南葛西3-23-9,江戸川総合レクリエーション公園 ファミリースポーツ広場,,,,,,
135028d9-2f06-43e2-8461-8e792d84f729,葛西臨海公園駅店,1340086,東京都,江戸川区,臨海町6-3-4,葛西臨海公園駅高架下ビル,,,,,,
576f5db5-1444-4323-9e73-53652ed11a36,木場イトーヨーカドー店,1350042,東京都,江東区,木場1-5-30,イトーヨーカドー木場店 1F,,,,,,
db4c7e08-72ef-4592-876e-5d9d6faf1005,豊洲フォレシア店,1350061,東京都,江東区,豊洲3-2-24,豊洲フォレシア,,,,,,
24bf98d8-0c21-405e-9ca5-a04cb5d8037e,アーバンドック ららぽーと豊洲3 地下1階店,1350061,東京都,江東区,豊洲2-2-1,ららぽーと豊洲3 地下1階,,,,,,
8052b471-a8be-4e44-aa8a-c758fa8ae0ac,TSUTAYA BOOKSTORE 東雲店,1350062,東京都,江東区,東雲2-7-20,,,,,,,
1f22fc90-0ded-4cd0-9671-57a296049794,東京ビッグサイト店,1350063,東京都,江東区,有明3-11-1,東京ビッグサイト　レストラン街,,,,,,
bf3d1d7d-fc8b-4716-ab8a-9969ca5c3373,ダイバーシティ東京 プラザ店,1350064,東京都,江東区,青海1-1-10,ダイバーシティ東京 プラザ 2階,,,,,,
0b5b44fe-3711-4571-8ff9-895c28921a35,アクアシティお台場店,1350091,東京都,港区,台場1-7-1（区番R306）,アクアシティお台場,,,,,,
df6e9d90-644d-43f2-a5a3-c253f05f3d47,豊洲センタービル店,1350061,東京都,江東区,豊洲3-3-3,豊洲センタービル 1F,,,,,,
76c097b6-472a-4630-b8d3-3ae1d531fcf4,ららぽーと豊洲 サウスポート2階店,1350061,東京都,江東区,豊洲2-4-9,ららぽーと豊洲,,,,,,
96289eb4-5d7f-4e9a-9b21-85ebafa078d3,ららぽーと豊洲 シーサイドデッキ店,1350061,東京都,江東区,豊洲2-4-9,アーバンドック　ららぽーと豊洲,,,,,,
68f0c6d1-aae9-4e74-8ea7-356b7454003d,アトレ亀戸店,1360071,東京都,江東区,亀戸5-1-1,アトレ亀戸 1F,,,,,,
96a5c72b-3b15-42a4-960c-244cf10ce222,カメイドクロック店,1360071,東京都,江東区,亀戸6-31-6,KAMEIDO CLOCK,,,,,,
f9b20371-0f2f-4cf7-9f00-4a6bfd752d6f,アリオ北砂店,1360073,東京都,江東区,北砂2-17-1,アリオ北砂,,,,,,
4905e228-be29-4cee-8564-776d82dd55ac,南砂町 SUNAMO店,1360075,東京都,江東区,新砂3-4-31,南砂町ショッピングセンター SUNAMO１階,,,,,,
b778e3d2-93c0-45c1-a0a1-be213f6e6d79,イオン南砂店,1360076,東京都,江東区,南砂6-7-15,イオン南砂店 1F,,,,,,
38edb7e5-852a-4451-83c4-9625def6e21b,天王洲店,1400002,東京都,品川区,東品川2-2-4,天王洲ファーストタワー,,,,,,
deaac915-63b3-4448-ac2d-59e012b84999,イオンスタイル品川シーサイド店,1400002,東京都,品川区,東品川4-12-5,イオンスタイル品川シーサイド,,,,,,
b42a81ad-59d7-46b3-bca7-62f6ff324288,大井町駅東口店,1400011,東京都,品川区,東大井5-20-1,,,,,,,
5184cd9f-f371-4c4a-abfb-fbfbe572ec2c,エトモ大井町店,1400014,東京都,品川区,大井1-1-1,エトモ大井町,,,,,,
545bae01-ba3a-4137-a07b-c8b7e1eb8233,阪急大井町ガーデン店,1400014,東京都,品川区,大井1-50-5,新阪急大井町ビル,,,,,,
d9541c93-a4d9-430a-a392-99dc3fdfc69b,大崎ブライトタワー店,1410001,東京都,品川区,北品川5-6-1,大崎ブライトタワー,,,,,,
f0123d20-8539-435e-b13b-6bb25a01fd73,目黒店,1410021,東京都,品川区,上大崎2-25-2,新目黒東急ビル,,,,,,
b387b609-5e65-45f6-bf0a-5c5bbbeb9cc3,目黒セントラルスクエア店,1410021,東京都,品川区,上大崎3-1-1,,,,,,,
e44ab529-149a-457c-95f5-c1b4a97f7197,アトレ目黒1店,1410021,東京都,品川区,上大崎2-16-9,アトレ目黒1 1F,,,,,,
cfa262ec-2ac7-4255-857f-cb9334445d5c,五反田東急スクエア店,1410022,東京都,品川区,東五反田2-1-2,五反田東急スクエア,,,,,,
df5a7ff9-81eb-49a1-8cdc-d3deb6acf57b,西五反田店,1410031,東京都,品川区,西五反田1-18-1,ゴタンダ エクス 1F,,,,,,
bad53cb7-9957-4066-8252-6e308d8f8256,ゲートシティ大崎店,1410032,東京都,品川区,大崎1-11-1,ゲートシティ大崎,,,,,,
f88fc3c2-94c0-4a58-b56c-16a46e560ea2,武蔵小山店,1420062,東京都,品川区,小山3-15-1,パークシティ武蔵小山ザ モール,,,,,,
e07a0953-affd-45ff-ad1a-8b4ce29b27e5,アトレ大森店(2F),1430016,東京都,大田区,大森北1-6-16,アトレ大森 2F,,,,,,
4437d1d9-e529-4cd5-9434-7b89d9619b3d,アトレ大森店(5F),1430016,東京都,大田区,大森北1-6-16,アトレ大森 5F,,,,,,
460c0d39-0dc5-4f82-9454-64260512e9ea,羽田空港第1ターミナル　マーケットプレイス3階店,1440041,東京都,大田区,羽田空港3-3-2,第一旅客ターミナル3階,,,,,,
f0a6f9b5-2d1c-4180-9292-00d1315fc730,羽田空港第1ターミナル THE HANEDA HOUSE5階店,1440041,東京都,大田区,羽田空港3-3-2,第一旅客ターミナル5階,,,,,,
2b61e4ba-345b-455a-a71a-865831f756f3,羽田空港第2ターミナル国内線ゲートエリア店,1440041,東京都,大田区,羽田空港3-4-2,東京国際空港第2旅客ターミナルビル,,,,,,
4b40d462-eb2b-42f1-96af-46a191984f66,羽田空港第2ターミナル国際線ゲートエリア店,1440041,東京都,大田区,羽田空港3-4-2,第2旅客ターミナルビル,,,,,,
3a7f6534-58fe-4be0-9e91-a847aec447f2,羽田空港 蔦屋書店,1440041,東京都,大田区,羽田空港3-4-2,第2旅客ターミナルビル,,,,,,
a46260f6-f8c9-4f91-817e-3630b3f69e13,グランデュオ蒲田店,1440051,東京都,大田区,西蒲田7-68-1,グランデュオ蒲田　西館,,,,,,
e0fcccc8-ab80-470b-870a-b650c114ca21,田園調布 東急スクエアガーデンサイト店,1450071,東京都,大田区,田園調布2-62-3,東急スクエアガーデンサイト　アネックス,,,,,,
46e5108f-83d9-48b8-9a94-3d0bf2cfdb2e,エトモ池上店,1460082,東京都,大田区,池上6-3-10,エトモ池上,,,,,,
18ee06cb-019a-4fc0-b8cc-d8f739e1cb8d,明治神宮前メトロピア店,1500001,東京都,渋谷区,神宮前1-18-22駅事務室,千代田線　明治神宮前駅,,,,,,
46ee0a84-f93b-434d-b86f-2f3b95a7f561,神宮前6丁目店,1500001,東京都,渋谷区,神宮前6-17-11,JPR原宿ビル,,,,,,
4e2ab2fa-055c-4a72-b2c8-66e16bfd5e4e,表参道 神宮前4丁目店,1500001,東京都,渋谷区,神宮前4-3-4,Ｂａｒｂｉｚｏｎ ７ ＡＮＮＥＸ,,,,,,
c186b90f-ca56-48d0-a8c7-42e56d7481ce,東急プラザ表参道オモカド店,1500001,東京都,渋谷区,神宮前4-30-3,東急プラザ表参道「オモカド」,,,,,,
7afb2c24-78a9-47ec-8b5f-f39c981080fe,表参道ヒルズ店,1500001,東京都,渋谷区,神宮前4-12-10,表参道ヒルズ,,,,,,
54938297-b721-435f-85ae-8fee3f7cbb08,WITH HARAJUKU店,1500001,東京都,渋谷区,神宮前1-14-30,WITH HARAJUKU,,,,,,
b6d27ad0-36a2-4375-91ba-f402595dc3cc,MIYASHITA PARK店,1500001,東京都,渋谷区,神宮前6-20-10,MIYASHITA PARK North 4階 (区画番号40000),,,,,,
72fd6462-feb6-47f2-8545-6f22e17c2b08,渋谷３丁目店,1500002,東京都,渋谷区,渋谷3-11-7,第２ミネギシビル,,,,,,
10ad8419-4987-4d9e-ba4d-ca743b86c7aa,渋谷クロスタワー店,1500002,東京都,渋谷区,渋谷2-15-1,渋谷クロスタワー 3F,,,,,,
129a50d3-117a-4c49-9ad0-798b37be3b47,渋谷2丁目店,1500002,東京都,渋谷区,渋谷2-9-8,日総第25ビル,,,,,,
f60ca60e-29d7-4f06-b296-8ffc755d3493,渋谷ストリーム店,1500002,東京都,渋谷区,渋谷3-21-3,渋谷ストリーム,,,,,,
969cf6f8-dca3-4d2f-a4b1-640c82f11d05,渋谷cocoti店,1500002,東京都,渋谷区,渋谷1-23-16,cocoti SHIBUYA,,,,,,
baad791e-935c-4e86-bb83-0b949d9c1e68,広尾店,1500012,東京都,渋谷区,広尾5-14-5,ノースゲートビル,,,,,,
695fc846-58d9-477a-854d-ccd35bdd5eb5,恵比寿ファーストスクエア店,1500013,東京都,渋谷区,恵比寿1-18-14,恵比寿ファーストスクエア,,,,,,
1af42b1d-0a62-42f6-82b9-e68d14e0dada,恵比寿ガーデンプレイス センタープラザB1店,1500013,東京都,渋谷区,恵比寿4-20-7,恵比寿ガーデンプレイス センタープラザ B1,,,,,,
51ee415a-c039-43e4-89af-6a9132d534e9,恵比寿ユニオンビル店,1500022,東京都,渋谷区,恵比寿南1-2-10,エビス ユニオンビル １F,,,,,,
3cf11a1a-d998-4246-9739-c8a1cd6c277e,アトレ恵比寿店(2F),1500022,東京都,渋谷区,恵比寿南1-5-5,アトレ恵比寿,,,,,,
a5195c8d-497f-4765-951a-0678d1ab049a,アトレ恵比寿店(5F),1500022,東京都,渋谷区,恵比寿南1-5-5,アトレ恵比寿店　5階,,,,,,
5c707270-735f-4e35-b2d3-39f72d9c7d39,渋谷サクラステージ店,1500031,東京都,渋谷区,桜丘町1-4,渋谷サクラステージ SHIBUYAサイド 3階,,,,,,
4663dba6-1528-4b11-926d-e945d5212500,代官山 蔦屋書店,1500033,東京都,渋谷区,猿楽町17-5,蔦屋書店3号館1F,,,,,,
17bf0973-c730-48ff-a1f0-0b2e5703acd9,プリンチ 代官山T-SITE,1500033,東京都,渋谷区,猿楽町16-15,代官山T-SITE N-4棟1階,,,,,,
28497930-514c-413c-9231-7fca83473efe,渋谷公園通り店,1500041,東京都,渋谷区,神南1-7-5,渋谷公園通りＪＮビル 1F,,,,,,
8374b8e0-9c19-4daf-b4a9-9c22faab4987,渋谷ファイヤー通り店,1500041,東京都,渋谷区,神南1-12-10,,,,,,,
991f1802-ffe0-4331-a762-a378f0cb9291,渋谷モディ店,1500041,東京都,渋谷区,神南1-21-3,,,,,,,
cfbdaeca-f5e2-4c1e-9540-dc830cdd8952,SHIBUYA TSUTAYA 2F店,1500042,東京都,渋谷区,宇田川町21-6,QFRONT 2F,,,,,,
6c2f2301-e598-4d70-a7a2-3940b18ff35c,Olive LOUNGE 渋谷店,1500042,東京都,渋谷区,宇田川町20-2,Olive LOUNGE 1階,,,,,,
2feda6c4-18c8-42fc-b027-6989cff573f6,SHIBUYA TSUTAYA 1F店,1500042,東京都,渋谷区,宇田川町21-6,QFRONT 1F,,,,,,
c9778c9e-731f-4dbd-9f8b-5e463d328ed9,渋谷文化村通り店,1500043,東京都,渋谷区,道玄坂2-25-6,ホリウチビル 1F,,,,,,
e8d4b499-f232-4df9-a310-0b9101ddc6a0,渋谷マークシティ店,1500043,東京都,渋谷区,道玄坂1-12-3,渋谷マークシティ イースト 3F,,,,,,
b1eeb83b-a2e5-44ec-9b0d-2bcc6d574b25,渋谷フクラス店,1500043,東京都,渋谷区,道玄坂1-2-3,渋谷フクラス1階,,,,,,
c6a67cac-7951-47be-b4a0-70b21222bc10,恵比寿ガーデンプレイスタワー１F店,1500013,東京都,渋谷区,恵比寿4-20-3,恵比寿ガーデンプレイスタワー,,,,,,
94bc3166-e788-4ff8-bf58-1440ae9d7093,TSUTAYA BOOKSTORE 渋谷スクランブルスクエア店,1500002,東京都,渋谷区,渋谷2-24-12,渋谷スクランブルスクエア,,,,,,
eb2bdafd-685c-4198-8410-6f50c0ded31b,渋谷パルコ店,1500042,東京都,渋谷区,宇田川町15-1,渋谷パルコ5階,,,,,,
c0886bef-81d1-4433-93a1-11d2fa554f2f,渋谷ヒカリエ ShinQs店,1500002,東京都,渋谷区,渋谷2-21-1,渋谷ヒカリエ ShinQs B1F,,,,,,
a168f44a-1d70-45bb-9e42-3212cb0fb0eb,北参道店,1510051,東京都,渋谷区,千駄ヶ谷3-38-9,IBF-PLANNING ビル,,,,,,
351ae392-bc9b-422b-bdcc-1874fa84c15b,リンクスクエア新宿店,1510051,東京都,渋谷区,千駄ヶ谷5-27-5,リンクスクエア新宿,,,,,,
0d9753cd-bbc7-4f30-9628-adcd8b570bb3,新宿サザンテラス店,1510053,東京都,渋谷区,代々木2-2-1,新宿サザンテラス内,,,,,,
1c8f32b0-e8f3-419e-8fd0-c67667a93918,新宿マインズタワー店,1510053,東京都,渋谷区,代々木2-1-1,新宿マインズタワー 1F,,,,,,
d9075def-c24f-48af-bdff-b45001542c55,新宿南口店,1510053,東京都,渋谷区,代々木2-13-8,エスト新宿ビル,,,,,,
77c96716-816e-4abe-a3cb-a8cfdeb21d0c,代々木店,1510053,東京都,渋谷区,代々木1-38-7,川本ビル,,,,,,
8d8b730a-5b74-4f55-a9c4-a95ce93c2c06,アコルデ代々木上原店,1510066,東京都,渋谷区,西原3-8-5,アコルデ代々木上原,,,,,,
ff02ac1d-4528-441f-965e-aa50dd1c9438,京王笹塚店,1510073,東京都,渋谷区,笹塚1-56-18,京王クラウン街笹塚,,,,,,
2cce83d1-1a90-4a75-9803-52b7319cf7b1,イオンスタイル碑文谷店,1520003,東京都,目黒区,碑文谷4-1-1,,,,,,,
8c6b6152-1b2b-4358-9b01-1d4dd60b8a95,学芸大駅前店,1520004,東京都,目黒区,鷹番3-15-25,鳥芳ビル 1F,,,,,,
1072bf1d-1969-49f9-9fd9-7d9560bcffa0,Olive LOUNGE 都立大学駅前店,1520031,東京都,目黒区,中根1-3-1,Olive LOUNGE 1階,,,,,,
ab36fae3-4ea0-4685-993c-310569f1c64a,自由が丘店,1520035,東京都,目黒区,自由が丘2-10-18,栗山ビルⅡ 1F,,,,,,
236182a8-f433-4d54-aeb1-d4ca2affc13c,自由が丘駅前店,1520035,東京都,目黒区,自由が丘1-11-6,YG自由が丘ビル 1F,,,,,,
223683e7-7ed2-4ccb-bf5f-a61f43600113,STARBUCKS RESERVE(R) ROASTERY TOKYO,1530042,東京都,目黒区,青葉台2-19-23,,,,,,,
9dae7f72-9a43-4c98-980e-201389d2a569,中目黒山手通り店,1530051,東京都,目黒区,上目黒3-1-3,プライムアーバン中目黒Ⅱ,,,,,,
a9fc0b03-f90c-4c85-8cbe-e779efb5a5a8,中目黒GTタワー店,1530051,東京都,目黒区,上目黒2-1-1,中目黒ゲートタウンタワー B1F,,,,,,
741e1a52-b704-484e-acda-0e4db334ed9d,中目黒 蔦屋書店,1530051,東京都,目黒区,上目黒1-22-10,,,,,,,
7c8718b3-eeb7-4f88-8529-fd6f0750db1b,エトモ祐天寺店,1530052,東京都,目黒区,祐天寺2-13-4,エトモ祐天寺,,,,,,
bc0d36ba-d715-482d-bdcc-f7351cbd8a24,池尻2丁目店,1540001,東京都,世田谷区,池尻2-27-7,アリビエ池尻,,,,,,
f486ac6a-b6f9-4025-8939-f324ff4b8198,三軒茶屋店,1540004,東京都,世田谷区,太子堂4-20-25,三軒茶屋アバックビル,,,,,,
6636d0e4-1733-4e75-a961-a510f9f59173,駒沢1丁目店,1540012,東京都,世田谷区,駒沢1-24-5,,,,,,,
026d34ae-dad1-44c1-b04d-11e01f93f9a1,桜新町店,1540015,東京都,世田谷区,桜新町2-10-4,,,,,,,
c23733e0-6d16-42a8-8378-4db89ac20255,梅ヶ丘駅店,1540022,東京都,世田谷区,梅丘1-31-21,,,,,,,
4a2de52b-20b4-4334-b028-f3a335b79097,下北沢店,1550031,東京都,世田谷区,北沢2-30-6,下北沢ＵＣビル 1F,,,,,,
9a9518d8-dad1-4859-b5f3-7c1237cf8911,シモキタエキウエ店,1550031,東京都,世田谷区,北沢2-24-2,小田急下北沢駅 シモキタエキウエ内,,,,,,
d02bad60-8177-4021-b920-cb09ab8d69e5,代沢5丁目店,1550032,東京都,世田谷区,代沢5-8-13,クリークス代沢,,,,,,
abf6d069-a8ed-47e9-af3f-30bc9e6cee5b,明大前店,1560043,東京都,世田谷区,松原2-46-5,Ｒｙｕ’ｓビル 1F,,,,,,
7dee3237-07c5-4fad-bfcc-fb398c3a6628,Olive LOUNGE 下高井戸店,1560044,東京都,世田谷区,赤堤4-47-10,Olive LOUNGE 1階,,,,,,
c62157fa-263c-4a8d-8915-036df8c17790,経堂駅店,1560052,東京都,世田谷区,経堂2-1-3,,,,,,,
f98b8bb8-ddaf-4900-baab-9f7d5d953185,千歳船橋駅店,1560055,東京都,世田谷区,船橋1-9-45,小田急マルシェ千歳船橋2,,,,,,
b831af26-f671-489d-94f3-877511127b0e,芦花公園店,1570062,東京都,世田谷区,南烏山1-2-17,,,,,,,
a29a29ee-be24-46f7-993b-a1f685941513,千歳烏山店,1570062,東京都,世田谷区,南烏山5-15-10,SKCビル,,,,,,
96cda974-894c-4c44-8cf7-84ae7f663829,成城店,1570066,東京都,世田谷区,成城2-40-25,パレブラン成城,,,,,,
c20457fa-3841-400d-ae45-c8082e965af1,奥沢2丁目店,1580083,東京都,世田谷区,奥沢2-38-9,,,,,,,
08f889ff-e8af-46ae-b887-acce5aa57422,二子玉川ライズ　ドッグウッドプラザ店,1580094,東京都,世田谷区,玉川2-23-1,二子玉川ライズショッピングセンター　ドッグウッドプラザ,,,,,,
0a504456-9824-4553-bc53-147eedffb5da,二子玉川公園店,1580094,東京都,世田谷区,玉川1-16-1,,,,,,,
8e44b3e1-0af8-4d86-b3a1-11852f9912a4,二子玉川 蔦屋家電店,1580094,東京都,世田谷区,玉川1-14-1,二子玉川ライズ　S.C.　テラスマーケット,,,,,,
1d374936-3876-474e-944c-888da20be231,用賀店,1580095,東京都,世田谷区,瀬田5-39-22,,,,,,,
65e6ffd7-b0dc-4380-a1e1-aa6cc05814ec,世田谷ビジネススクエア店,1580097,東京都,世田谷区,用賀4-10-1,,,,,,,
f0a14336-0e3c-4cf2-be87-242cfcd0bac5,玉川高島屋Ｓ・Ｃ店,1580094,東京都,世田谷区,玉川3-17-1,玉川高島屋Ｓ・Ｃ (南館７階),,,,,,
a93127c3-992d-4053-952f-b3f30e448650,四谷３丁目店,1600004,東京都,新宿区,四谷2-14-4,ミツヤ四谷ビル 1F,,,,,,
d756dcf9-e7c4-435d-aeb3-655e322133e0,アトレ四谷店,1600004,東京都,新宿区,四谷1-5-25,アトレ四谷,,,,,,
ce82614a-b39d-404a-be81-58e40a784448,都立明治公園店,1600013,東京都,新宿区,霞ヶ丘町5-7,都立明治公園 B棟,,,,,,
7ab3df16-10df-4cf0-ba34-1ff51d770bab,新宿御苑店,1600014,東京都,新宿区,内藤町11,新宿御苑,,,,,,
b9176624-a6a9-4a28-9093-3f48b54fda3a,アトレ信濃町店,1600016,東京都,新宿区,信濃町34,アトレ信濃町,,,,,,
e48093c4-56b9-4c20-b988-db67883bbd4e,西武新宿ＰｅＰｅ店,1600021,東京都,新宿区,歌舞伎町1-30-1,西武新宿ペペ,,,,,,
6882974f-0c66-4448-ac08-392a60c9c370,新宿サブナード店,1600021,東京都,新宿区,歌舞伎町1丁目サブナード1,新宿サブナード,,,,,,
dfdf2302-3f15-4e98-b399-70d9b2be6dfc,東急歌舞伎町タワー店,1600021,東京都,新宿区,歌舞伎町1-29-1,東急歌舞伎町タワー,,,,,,
2d1fa60f-1ddd-4b48-9051-cf3ec8ef477e,新宿３丁目店,1600022,東京都,新宿区,新宿3-11-6,エクレ新宿 1F,,,,,,
99257a63-c84d-41b7-9179-086d35bce7e6,新宿ダイアンビル店,1600022,東京都,新宿区,新宿3-36-6,大安ビル 1F,,,,,,
971b7ab6-643d-4501-9359-6b029fdd840e,新宿新南口店,1600022,東京都,新宿区,新宿4-1-9,新宿ユースビル 1F,,,,,,
cf1fb73c-23b0-4837-8068-46e664766e1a,ルミネエスト新宿店,1600022,東京都,新宿区,新宿3-38-1,ルミネエスト ２Ｆ,,,,,,
3b1625ef-09fb-4115-ab6a-504a87775841,新宿マルイ本館2階店,1600022,東京都,新宿区,新宿3-30-13,新宿マルイ本館,,,,,,
5449736d-8098-4c37-8518-963adf79ed4c,新宿マルイ本館8階店,1600022,東京都,新宿区,新宿3-30-13,新宿マルイ本館,,,,,,
b78fd6f8-a0e8-41bd-80d9-a847fed91aff,新宿2丁目店,1600022,東京都,新宿区,新宿2-5-12,FORECAST新宿AVENUE,,,,,,
fa107393-8116-4750-8370-9b273fd9be41,京王新宿三丁目ビル店,1600022,東京都,新宿区,新宿3-1-24,京王新宿三丁目ビル,,,,,,
7b49f740-0372-4b62-b468-56f2d64865fa,西新宿三井ビル店,1600023,東京都,新宿区,西新宿6-24-1,西新宿三井ビル,,,,,,
3ed5e220-5df1-49bb-a457-438548be926a,新宿グリーンタワービル店,1600023,東京都,新宿区,西新宿6-14-1,新宿グリーンタワー,,,,,,
e5572d8b-1a08-49a9-af56-2a226c4e4b1b,新宿西口店,1600023,東京都,新宿区,西新宿1-12-1,高倉第一ビル,,,,,,
e9d07b80-1e2e-4845-8aef-de587d51f704,ルミネ新宿店,1600023,東京都,新宿区,西新宿1-1-5,ルミネ新宿１,,,,,,
dae3582d-f582-403f-b7e8-c7a6b20c6b65,新宿中央公園 SHUKNOVA店,1600023,東京都,新宿区,西新宿2-11-5,,,,,,,
a409ac42-7d0c-420c-9bb6-b8fef291483e,小田急百貨店SHINJUKU DELISH PARK店,1600023,東京都,新宿区,西新宿1丁目西口地下街１号,小田急エース北館,,,,,,
13eef09b-a750-4ac1-945c-0a9c70c7299b,慶應義塾大学病院店,1600016,東京都,新宿区,信濃町35,,,,,,,
c9607aa1-5fae-4740-9a7c-474a5427e2d3,飯田橋軽子坂店,1620824,東京都,新宿区,揚場町2-1,軽子坂ＭＮビル 1F,,,,,,
82c48d87-f06b-4d9e-97d9-6acd6008cd4f,飯田橋メトロピア店,1620825,東京都,新宿区,神楽坂1-13,南北線飯田橋駅構内,,,,,,
a5e657af-257b-45bc-80b7-d0f936da1027,神楽坂下店,1620825,東京都,新宿区,神楽坂1-9-2,秀永ビル,,,,,,
65074fed-1021-4e50-91f0-dfaba1e4780b,早稲田大学戸山キャンパス店,1628644,東京都,新宿区,戸山1-24-1,早稲田アリーナ,,,,,,
78e63975-fd6b-474f-84c3-ebce06ad05fc,新宿三井ビル店,1600023,東京都,新宿区,西新宿2-1-1,新宿三井ビルディング,,,,,,
e608bfe9-9742-43aa-8a5e-bdccf00ce9de,新宿野村ビル店,1600023,東京都,新宿区,西新宿1-26-2,新宿野村ビル B1F,,,,,,
e44df4bd-719f-4240-90d1-7d027e0f9e46,新宿エルタワー店,1600023,東京都,新宿区,西新宿1-6-1,新宿エルタワー,,,,,,
c7aaf702-610e-44f6-9189-58f3cdf5c837,中野通り店,1640001,東京都,中野区,中野5-64-5,中野サンピオーネビル 1F,,,,,,
62f2975b-54d2-418a-a776-eaf909c32da6,中野セントラルパーク店,1640001,東京都,中野区,中野4-10-2,中野セントラルパークサウス,,,,,,
f36cfb15-9500-4b71-9ae2-240796bd2b1c,中野坂上メトロピア店,1640012,東京都,中野区,本町2-48-2,丸の内線中野坂上駅構内,,,,,,
c0073071-1189-4528-9f7a-3f96e312f6bf,Olive LOUNGE 高円寺店,1660003,東京都,杉並区,高円寺南4-27-12,Olive LOUNGE 1階,,,,,,
2ba22219-c62e-47fe-bcb1-4f63e89c4b0f,ビーンズ阿佐ヶ谷駅前店,1660004,東京都,杉並区,阿佐谷南3-58-1,ビーンズ阿佐ヶ谷ぷらす,,,,,,
e22e17dd-d956-485e-b82a-88978fcfaf07,ビーンズ阿佐ヶ谷てくて店,1660004,東京都,杉並区,阿佐谷南2-42,ビーンズ阿佐ヶ谷てくて,,,,,,
bf7bdba3-8097-48e2-b52b-cb8399aca0ba,ルミネ荻窪店,1670043,東京都,杉並区,上荻1-7-1,ルミネ荻窪店,,,,,,
296ffe27-7528-498a-8f15-9bde05a08944,荻窪タウンセブン店,1670043,東京都,杉並区,上荻1-9-1,荻窪タウンセブン6F,,,,,,
397ba03b-3dd5-4bb2-b30b-5f22a6547478,TSUTAYA 浜田山店,1680065,東京都,杉並区,浜田山3-37-15,,,,,,,
9525bdee-5f78-4b5f-94fe-002b25bbb82f,新大久保駅店,1690073,東京都,新宿区,百人町1-10-15,,,,,,,
620a0743-12ec-46af-97a2-a970437abc60,西武高田馬場駅店,1690075,東京都,新宿区,高田馬場1-35-2,高田馬場西武ラチ内コンコース,,,,,,
6dc8c1d4-7669-4b21-8293-b446348a51e6,高田馬場早稲田通り店,1690075,東京都,新宿区,高田馬場1-25-32,１０８ビル 1F,,,,,,
d1457cce-1ca5-4521-b10a-86d68c4c2917,大塚駅前店,1700004,東京都,豊島区,北大塚2-13-1,ba07,,,,,,
31461c93-9392-4a0c-8580-514ff1a6d457,アトレヴィ大塚店,1700005,東京都,豊島区,南大塚3-33-1,アトレヴィ大塚,,,,,,
3bdeee0b-9b1a-405d-89a7-d64e3519ef3a,池袋サンシャイン通り店,1700013,東京都,豊島区,東池袋1-20-5,七富久ビル,,,,,,
b0eaea92-58f1-4ce0-8cce-adf5b3ec59ba,池袋サンシャインシティ アルパ 1階店,1700013,東京都,豊島区,東池袋3-1-2,サンシャインシティ アルパ 1階,,,,,,
f151991b-a029-4060-82b7-c7a8924f5162,池袋サンシャインシティ アルパ 2階店,1700013,東京都,豊島区,東池袋3-1-1,サンシャインシティ アルパ 2階,,,,,,
8fed0835-4a96-4377-8476-510758221bad,池袋西口店,1710021,東京都,豊島区,西池袋1-17-10,エキニア池袋,,,,,,
32e673e5-6e7d-40b4-a095-0fc3b405f239,ルミネ池袋2階店,1710021,東京都,豊島区,西池袋1-11-1,ルミネ池袋,,,,,,
3f728cf7-3bb4-4bbf-8693-94f239dacdde,エチカ池袋店,1710021,東京都,豊島区,西池袋3-28-14,,,,,,,
ae7fa2e3-8c59-44d7-a127-98a1ca12e570,ルミネ池袋9階店,1710021,東京都,豊島区,西池袋1-11-1,ルミネ池袋,,,,,,
7f510e5f-946c-408c-ad2b-5997738b14b4,JR池袋駅 西口店,1710021,東京都,豊島区,西池袋1-1-25,,,,,,,
bcb8997a-bc71-4514-ad1a-5aee8dd3e94d,池袋明治通り店,1710022,東京都,豊島区,南池袋1-18-17,Ｉ＆Ｋビル 1F,,,,,,
185c3d47-bb9e-457a-9d17-8e3efca76e00,南池袋店,1710022,東京都,豊島区,南池袋2-16-4,ＳＫビル,,,,,,
757a6d2b-c64c-4089-8cc1-1229d6f21df0,池袋ショッピングパーク南館店,1710022,東京都,豊島区,南池袋1-29-1,池袋ショッピングパーク,,,,,,
ebdef43f-2a01-4a01-af94-ea3c541f1812,JR東日本ホテルメッツ 目白店,1710031,東京都,豊島区,目白1-4-1,JR東日本ホテルメッツ 目白3階,,,,,,
57eb487e-a3dd-4c0b-b0d9-d297202d03e1,東武池袋店,1710021,東京都,豊島区,西池袋1-1-25,東武百貨店　池袋店,,,,,,
1ee7449c-898a-46ea-942f-f17ced2acfc2,池袋ショッピングパーク北館店,1710022,東京都,豊島区,南池袋1-29-1,池袋ショッピングパーク,,,,,,
97f6018c-f9b9-4f8c-982e-509bccf0b0a1,日本大学板橋病院店,1730032,東京都,板橋区,大谷口上町30-1,日本大学医学部附属板橋病院,,,,,,
1b448297-58f3-4b50-b60e-e8406a143547,帝京大学板橋キャンパス店,1730003,東京都,板橋区,加賀2-11-1,帝京大学板橋キャンパス,,,,,,
9852545a-3b8b-4211-935d-fa61b03a839d,板橋蓮根店,1740046,東京都,板橋区,蓮根2-9-12,,,,,,,
3be62eb5-cd3d-43ba-a05a-87bff3cfeb51,イオン板橋店,1750083,東京都,板橋区,徳丸2-6-1,イオン板橋,,,,,,
d789efae-756d-41d4-913f-3ba73259b071,エキア成増店,1750094,東京都,板橋区,成増2-13-1,EQUiA成増 2階,,,,,,
2a1b30cc-2d81-4cdf-a75b-520de5c64288,Olive LOUNGE 成増店,1750094,東京都,板橋区,成増2-16-1,Olive LOUNGE 1階,,,,,,
2b738baf-c347-4dd1-b643-89e32f7630f5,エミオ練馬店,1760001,東京都,練馬区,練馬1-3-5,エミオ練馬,,,,,,
f767446c-408f-4f9a-a8bb-b20274da930f,エミオ石神井公園店,1770041,東京都,練馬区,石神井町3-23-5,エミオ石神井公園 1階,,,,,,
794b314c-53a3-4801-ae63-5c32ffb5df9d,大泉学園ゆめりあフェンテ店,1780063,東京都,練馬区,東大泉5-43-1,ゆめりあフェンテ,,,,,,
1a5df1e3-dec2-443e-a3a9-9b04fd3f8d64,光が丘IMA店,1790072,東京都,練馬区,光が丘5-1-1,光が丘IMA,,,,,,
03eeef75-e684-4297-9236-eacd0a3e4b47,練馬光が丘病院店,1790072,東京都,練馬区,光が丘2-5-1,,,,,,,
b215ca17-5e44-49c4-bc48-d469fb20f06a,井の頭公園店,1800003,東京都,武蔵野市,吉祥寺南町1-15-7,重川ビル,,,,,,
2d4877ee-ce24-432c-8f31-0c45b51924fa,アトレ吉祥寺店,1800003,東京都,武蔵野市,吉祥寺南町1-1-24　,アトレ吉祥寺,,,,,,
24839c00-bc7f-499e-af87-2c8f7db62184,キラリナ京王吉祥寺店,1800003,東京都,武蔵野市,吉祥寺南町2-1-25,,,,,,,
4918559b-4af4-491f-b50a-5e282e2c604b,吉祥寺東急店,1800004,東京都,武蔵野市,吉祥寺本町2-3-1,東急百貨店吉祥寺店 1F,,,,,,
d77cbf52-0815-4935-83db-13439d1c4d28,吉祥寺駅前店,1800004,東京都,武蔵野市,吉祥寺本町1-15-9,吉祥寺岩崎ビル,,,,,,
78645e81-60c0-4a53-8d82-1151121b8975,武蔵境イトーヨーカドー店,1800023,東京都,武蔵野市,境南町2-3-6,イトーヨーカドー武蔵境店西館,,,,,,
a02d2961-826f-4b62-b4c8-9649e5b664f9,吉祥寺パルコ店,1800004,東京都,武蔵野市,吉祥寺本町1-5-1,吉祥寺PARCO,,,,,,
ad9b05f9-9f8b-4bd5-9918-8d6237c6f6bc,三鷹武蔵境通り店,1810011,東京都,三鷹市,井口2-1-2,,,,,,,
cf035073-748f-4775-b9cf-63df6177f852,アトレヴィ三鷹店,1810013,東京都,三鷹市,下連雀3-46-4,,,,,,,
69c2c749-2e1e-41a0-a9db-a30bd6c41bd3,杏林大学病院店,1810004,東京都,三鷹市,新川6-20-2,,,,,,,
f9a6b1de-7892-4be8-a9e4-9f006745f798,仙川駅前店,1820002,東京都,調布市,仙川町1-49-2,パール仙川 1F,,,,,,
82fc9eac-93f4-4f1f-a031-d23ef42926ca,トリエ京王調布店,1820024,東京都,調布市,布田4-4-22,トリエ京王調布 A館,,,,,,
fa649661-b0db-4abf-87e7-232eb36f5bf7,調布パルコ店,1820026,東京都,調布市,小島町1-38-1,,,,,,,
547885ef-e65d-4966-afb5-c446fa918fee,府中くるる店,1830023,東京都,府中市,宮町1-50,くるる,,,,,,
3ff36c72-5866-44b1-9117-685393a0a5c7,府中西府店,1830031,東京都,府中市,西府町2-5-7,,,,,,,
477e16f7-5bd3-4491-af68-10857023b7cc,京王府中駅ビル店,1830055,東京都,府中市,府中町1-2-1,京王府中ショッピングセンター,,,,,,
53031c40-c563-4734-a53d-b2127a15bd60,nonowa東小金井店,1840002,東京都,小金井市,梶野町5-1-1,nonowa東小金井,,,,,,
56cd328b-52f4-457e-b91f-61b5be686201,nonowa武蔵小金井店,1840004,東京都,小金井市,本町6-14-29,,,,,,,
7429831b-ab4c-4559-80a9-eb4ac2bef596,ミーツ国分寺店,1850012,東京都,国分寺市,本町3-1-1,cocobunji WEST,,,,,,
de5d82bf-78f3-419b-b231-6baf3e8aef08,nonowa西国分寺店,1850013,東京都,国分寺市,西恋ヶ窪2-1-18,JR西国分寺駅 改札内 nonowa西国分寺店,,,,,,
5645a9a9-d725-4adc-9d15-daddd1eb853a,nonowa国立店,1860001,東京都,国立市,北1-14-1,nonowa国立,,,,,,
abc5b235-2ae2-43e9-a106-aefa1fab7530,国立店,1860002,東京都,国立市,東1-6-21,,,,,,,
49dd04b6-846f-4c1a-bc6c-c136e1a40232,小平天神店,1870004,東京都,小平市,天神町1-12-9,,,,,,,
0eecbf09-81d5-428d-b308-9ac4feac11a2,立川若葉店,1900001,東京都,立川市,若葉町1-11-7,,,,,,,
bf646a15-4bd3-4d9b-87c9-c509d5de3a0f,立川伊勢丹店,1900012,東京都,立川市,曙町2-5-1,伊勢丹立川店 1F,,,,,,
2a6a7b23-2aa4-40aa-a8d4-ac93426cdbd8,ルミネ立川店,1900012,東京都,立川市,曙町2-1-1,ルミネ立川店　1階,,,,,,
7bf9531a-f04d-4863-b154-d6d6c3ee7505,ららぽーと立川立飛店,1900015,東京都,立川市,泉町935-1,,,,,,,
1d8ac974-65cd-4cb8-8348-3b60c4716c5f,ららぽーと立川立飛2階 パークサイド店,1900015,東京都,立川市,泉町935-1,ららぽーと立川立飛2階,,,,,,
eea98cdd-f148-4657-95ed-fa81d6eb37ee,エキュート立川店,1900023,東京都,立川市,柴崎町3-1-1,エキュート立川　３階,,,,,,
03132ffd-76ca-470a-921a-d6d834227607,イオンモール日の出1階店,1900182,東京都,西多摩郡,日の出町平井237-3,イオンモール日の出,,,,,,
b01a5500-ff87-4d09-bf27-53db81524767,イオンモール日の出2階店,1900182,東京都,西多摩郡,日の出町平井237-3,イオンモール日の出,,,,,,
b5d37a8a-293b-4542-8450-292d67682a3e,グランデュオ立川店,1900023,東京都,立川市,柴崎町3-2-1,,,,,,,
7bad370e-9cc5-485f-9d21-f390bb70666a,日野万願寺店,1910024,東京都,日野市,万願寺4-24-6,,,,,,,
a6211890-fcb4-422c-b2fe-2664bee381b4,イオンモール多摩平の森店,1910062,東京都,日野市,多摩平2-4-1,,,,,,,
3443e8da-ffb1-4d71-b6be-751ca708f110,八王子宇津木店,1920024,東京都,八王子市,宇津木町777-1,,,,,,,
9454f821-694b-4131-875f-9c5d6db1dc72,八王子オクトーレ店,1920083,東京都,八王子市,旭町9-1,八王子オクトーレ　1F,,,,,,
3d18090c-c848-4e0c-8046-d62d91533759,セレオ八王子北館店,1920083,東京都,八王子市,旭町1-1,セレオ八王子,,,,,,
641435df-51d9-4293-92cc-d2bbe08956dc,多摩野猿街道店,1920355,東京都,八王子市,堀之内2-12-1,,,,,,,
58a8c210-fe15-438c-956c-c9a2157b06a8,フレンテ南大沢店,1920364,東京都,八王子市,南大沢2-1-6,フレンテ南大沢,,,,,,
bfd70902-87de-4c67-9f81-beda71414970,中央大学店,1920351,東京都,八王子市,東中野742-1,,,,,,,
759f4c6a-0134-4265-b727-8368200c4a90,サザンスカイタワー八王子店,1920904,東京都,八王子市,子安町4-7-1,サザンスカイタワー八王子,,,,,,
505c9eca-7f0a-4c20-94ac-db86ce11a284,元八王子店,1930826,東京都,八王子市,元八王子町1-409-2,,,,,,,
49c33635-fab8-4a46-b3f3-af171968f683,イーアス高尾店,1930834,東京都,八王子市,東浅川町550-1,イーアス高尾,,,,,,
79c15dc3-89de-4e84-8c6a-d3cd60207dad,南町田グランベリーパーク店,1940004,東京都,町田市,鶴間3-4-1,南町田グランベリーパーク,,,,,,
dbee7ea1-3b59-4efd-be00-85c946a2d6fd,町田金森店,1940012,東京都,町田市,金森3-1-10,,,,,,,
23f1fc65-cbfe-462f-8d19-1d5867107799,ぽっぽ町田店,1940013,東京都,町田市,原町田4-10-20,,,,,,,
0af322f7-327a-4b24-b80b-ac6f1b0ceb8b,ルミネ町田店,1940013,東京都,町田市,原町田6-1-11,,,,,,,
94c6dedd-2ec6-4f9d-b511-123759bebf24,町田パリオ店,1940022,東京都,町田市,森野1-15-13,パリオビル,,,,,,
2a6dd153-8ce5-4701-ad3d-5d0dcdd28e41,多摩境店,1940215,東京都,町田市,小山ヶ丘3-2-8,,,,,,,
55eccd1c-2ace-4bb8-b0f0-e5af96845787,町田東急ツインズWEST店,1940013,東京都,町田市,原町田6-4-1,町田東急ツインズ　ウエスト３階　W306,,,,,,
e5994286-22c6-4559-8b16-115dd4a8226a,町田東急ツインズEAST店,1940013,東京都,町田市,原町田6-4-1,町田東急ツインズ イースト2階,,,,,,
28adc6af-22e2-4c89-a8fc-dad49b978941,小田急町田駅店,1940013,東京都,町田市,原町田6-12-20,,,,,,,
2202cbe2-8fb7-4086-b89f-2cbc530e088c,鶴川店,1950053,東京都,町田市,能ヶ谷1-5-1,小田急マルシェ鶴川２,,,,,,
547a8b5f-be0e-4c36-9607-d4771573459d,昭島モリタウン店,1960005,東京都,昭島市,代官山2-3-1,モリタウン,,,,,,
59b87054-86a6-44f2-92e1-064e39ab3f7e,昭島駅前店,1960005,東京都,昭島市,代官山2-3-1,モリタウン１階,,,,,,
8c6576b0-4399-413f-8d9e-6354f011926b,福生西友店,1970021,東京都,福生市,東町5-1,福生西友,,,,,,
d17ad610-752e-4433-a1b5-83400c8baa48,カインズホーム青梅店,1980024,東京都,青梅市,新町6-9-4,,,,,,,
0fe96e60-5cb7-449f-8715-c4d32ca6e885,エミオひばりヶ丘店,2020005,東京都,西東京市,住吉町3-9-19,エミオひばりヶ丘,,,,,,
83a485dd-ef24-4477-8663-6135b2e4e644,西東京新町店,2020023,東京都,西東京市,新町5-19-10,,,,,,,
e64c0c9f-acdd-4833-8cb2-4e920bb4037b,イオンモール東久留米店,2030023,東京都,東久留米市,南沢5-17-62,イオンモール東久留米,,,,,,
dc794ba7-0cea-4b33-801e-e4c2f56b96a4,清瀬駅前店,2040021,東京都,清瀬市,元町1-8-1,三福ビル,,,,,,
31dc446a-5ab0-4f09-8c8d-1621d574b4f5,羽村栄町店,2050002,東京都,羽村市,栄町2-2-6,,,,,,,
c93384ed-6e78-44e9-9975-eb9ce356442b,聖蹟桜ヶ丘オーパ店,2060011,東京都,多摩市,関戸4-72,聖蹟桜ヶ丘ＯＰＡ 1F,,,,,,
edaec979-5951-4efc-9541-89befbb767b4,京王聖蹟桜ヶ丘SC店,2060011,東京都,多摩市,関戸1-10-1,京王聖蹟桜ヶ丘ショッピングセンター B館,,,,,,
291e2d2e-5288-4210-a39b-26343c72aa48,小田急多摩センター駅店,2060033,東京都,多摩市,落合1-11-2,小田急マルシェ多摩センター,,,,,,
7b9569c5-d741-4c32-82ec-94e5c8bc0bed,稲城東長沼店,2060802,東京都,稲城市,東長沼1711-6,,,,,,,
98c218af-308c-4e08-9a82-c3c012cba0b9,ココリア多摩センター店,2060033,東京都,多摩市,落合1-46-1,ココリア多摩センター店,,,,,,
5c910758-293e-4009-81d0-900ac5c94f4b,よみうりランドHANA・BIYORI店,2060812,東京都,稲城市,矢野口4015-1,よみうりランドHANA・BIYORI,,,,,,
81038710-4141-45ad-826f-0fdfae8b6d22,よみうりランドグッジョバ!!店,2060812,東京都,稲城市,矢野口4015-1,よみうりランド,,,,,,
64f398d1-ad08-4c07-b618-a502ff105be3,イオンモールむさし村山2階店,2080022,東京都,武蔵村山市,榎1-1-3,,,,,,,
3963d54e-c20c-4e4a-9d36-0b8ccc5e9385,むさし村山新青梅街道店,2080022,東京都,武蔵村山市,榎3-2-3,,,,,,,
7e690e8f-6414-442e-881e-8f5e9eee7a87,イオンモールむさし村山1階店,2080022,東京都,武蔵村山市,榎1-1-3,イオンモールむさし村山,,,,,,
783c1bc1-c06c-4d53-965e-8588ac16442a,川崎モアーズ店,2100007,神奈川県,川崎市川崎区,駅前本町7,川崎モアーズ 2F,,,,,,
85ab6538-ee08-4d3e-8102-58c42cf68ebc,アトレ川崎店,2100007,神奈川県,川崎市川崎区,駅前本町26-1,アトレ川崎,,,,,,
22f26abf-bf20-4183-813a-2f680e6006f8,アトレ川崎 北側改札内店,2100007,神奈川県,川崎市川崎区,駅前本町26-1,アトレ川崎 北側改札内,,,,,,
2e7ab4e8-75de-4e82-9b25-62d6d5ca1f94,川崎 ラ チッタデッラ店,2100023,神奈川県,川崎市川崎区,小川町4-1,LA CITTADELLA,,,,,,
ad879e2f-5502-4d6b-a103-b4e94f37dbdb,川崎ルフロン店,2100024,神奈川県,川崎市川崎区,日進町1-11,川崎ルフロン,,,,,,
a258beff-c6df-4acc-8791-ff9b62d35b60,ららテラス 武蔵小杉店,2110004,神奈川県,川崎市中原区,新丸子東3-1302,ららテラス 武蔵小杉1階,,,,,,
8831b554-026d-4c56-a538-7ac86614e82c,グランツリー武蔵小杉店,2110004,神奈川県,川崎市中原区,新丸子東3-1135-1,グランツリー武蔵小杉,,,,,,
b6a746d7-77c7-4ff7-acd1-d07c0a3644c2,ビーンズ武蔵中原店,2110053,神奈川県,川崎市中原区,上小田中4-2-1,Beans武蔵中原2階,,,,,,
864b00cc-cabf-412c-9525-2245b8168dd6,武蔵小杉北口店,2110063,神奈川県,川崎市中原区,小杉町1-403,STMビル,,,,,,
57537f7d-45ea-4e05-bb92-390e06ba0c48,武蔵小杉東急スクエア店,2110063,神奈川県,川崎市中原区,小杉町3-472,,,,,,,
a432efeb-3ab4-4729-8a17-21e3f64c8819,日本医科大学 武蔵小杉病院店,2110063,神奈川県,川崎市中原区,小杉町1-383,日本医科大学 武蔵小杉病院,,,,,,
4dfd6434-ebee-4085-a925-35bab93689cf,ラゾーナ川崎3階店,2120013,神奈川県,川崎市幸区,堀川町72-1,ラゾーナ川崎プラザ 3F,,,,,,
ca321cdf-180f-4eee-8614-aef15047e864,ラゾーナ川崎1階店,2120013,神奈川県,川崎市幸区,堀川町72-1,ラゾーナ川崎プラザ1階,,,,,,
541becef-c5bd-4760-b15a-57e6a41608bc,Qiz溝の口店,2130001,神奈川県,川崎市高津区,溝口1-13-1,Qiz溝の口,,,,,,
bcb667a8-5206-49e2-8c9b-0e92be29db54,小田急登戸駅店,2140014,神奈川県,川崎市多摩区,登戸3437-2,小田急マルシェ登戸1階,,,,,,
5af124ac-e5ee-4376-a64f-6d441d9b8541,小田急アコルデ新百合ヶ丘北館店,2150004,神奈川県,川崎市麻生区,万福寺1-17-1,小田急アコルデ新百合ヶ丘北館店 3階,,,,,,
47d834ae-10cb-4c82-8d66-5d7d09cb55c8,新百合ヶ丘エルミロード店,2150021,神奈川県,川崎市麻生区,上麻生1-4-1,小田急新百合ケ丘エルミロード,,,,,,
0eee61bc-3598-40ab-8bb7-a838eb013b86,横浜北幸店,2200004,神奈川県,横浜市西区,北幸2-6-1,ONEST横浜西口ビル,,,,,,
0adad861-255c-4636-b6df-f78629c3ca80,横浜西口店,2200005,神奈川県,横浜市西区,南幸1-9-13,葉山ビル,,,,,,
82af8071-0ace-4bf4-9e85-067971a7eebb,横浜ジョイナス店,2200005,神奈川県,横浜市西区,南幸1-4,ジョイナス　B1F,,,,,,
16793dc0-7a86-473d-b0cd-fd88de02e652,ニュウマン横浜店,2200005,神奈川県,横浜市西区,南幸1-1-1,NEWoMan横浜7階,,,,,,
07efd152-de07-4817-8eef-b3ca5305bcfc,横浜スカイビル店,2200011,神奈川県,横浜市西区,高島2-19-12,スカイビル,,,,,,
eadbd07f-24ec-4aba-83b4-7c273db8b8be,ルミネ横浜店,2200011,神奈川県,横浜市西区,高島2-16-1,ルミネ横浜 2F,,,,,,
6d8cce31-2a15-4fac-9069-3ab191dd420a,横浜ポルタ店,2200011,神奈川県,横浜市西区,高島2-16-B1,横浜ポルタ,,,,,,
12a6c0c8-c7e8-462a-b3b9-7932bfc864eb,みなとみらい東急スクエア店,2200012,神奈川県,横浜市西区,みなとみらい2-3-9,みなとみらい東急スクエア ②１Ｆ,,,,,,
e905a27f-445a-4679-b50d-18e0b8569e1a,横浜ランドマークプラザ店,2200012,神奈川県,横浜市西区,みなとみらい2-2-1,横浜ランドマークタワー,,,,,,
cfc1ea3d-f934-44a4-9413-cd1cd7cf9cdb,横浜アイマークプレイス店,2200012,神奈川県,横浜市西区,みなとみらい4-4-5,,,,,,,
7acd0c39-b25d-48b2-82cc-259d0a81cf6a,オーシャンゲートみなとみらい店,2200012,神奈川県,横浜市西区,みなとみらい3-7-1,OCEAN GATE MINATOMIRAI,,,,,,
d03f2713-17d3-4421-ba3b-9e56d6be2fc8,TSUTAYA 横浜みなとみらい店,2200012,神奈川県,横浜市西区,みなとみらい4-7-1,ミッドスクウェア,,,,,,
dd28a66f-eb64-488f-b775-9de0112dec0c,そごう横浜店,2200011,神奈川県,横浜市西区,高島2-18-1,そごう横浜店3階,,,,,,
0888e173-eefe-4e75-ab76-a859a3628e58,横浜モアーズ店,2200005,神奈川県,横浜市西区,南幸1-3-1,横浜モアーズ 2F,,,,,,
95d58477-d79e-41b1-94b4-71d36a9b7abf,横浜モアーズ8階店,2200005,神奈川県,横浜市西区,南幸1-3-1,横浜モアーズ　8階,,,,,,
db54403e-de50-4685-a2a1-7f50f04b1458,横浜ビブレ店,2200005,神奈川県,横浜市西区,南幸2-15-13,横浜ビブレ 2F,,,,,,
4fb84235-cfe9-4048-a909-ff9044744cad,日産グローバル本社ギャラリー店,2200011,神奈川県,横浜市西区,高島1-1-1,NISSAN GLOBAL HEADQUARTERS GALLERY,,,,,,
488016e3-dae9-4c91-91e4-16093564ec18,横浜ベイクォーター店,2210056,神奈川県,横浜市神奈川区,金港町1-10,横浜ベイクォーター 3階,,,,,,
bdabb463-b5a9-4116-a429-ec19a24f87fa,トレッサ横浜店,2220002,神奈川県,横浜市港北区,師岡町700,トレッサ横浜 北棟2階,,,,,,
357c9717-61d4-406b-a655-d112e6ce292f,大倉山駅前店,2220037,神奈川県,横浜市港北区,大倉山1-2-10,,,,,,,
15e0434a-507b-46cf-bc7a-113fb56c5fe1,新横浜店,2220033,神奈川県,横浜市港北区,新横浜2-5-1,日総第１３ビル 1F,,,,,,
b3401827-b41f-493f-90b5-c4dbc085c556,新横浜３丁目店,2220033,神奈川県,横浜市港北区,新横浜3-17-2,友泉新横浜ビル,,,,,,
9fd7ea03-9776-466c-96b5-b65dd7de7613,キュービックプラザ新横浜3階店,2220033,神奈川県,横浜市港北区,新横浜2-100-45,キュービックプラザ新横浜 3F,,,,,,
df798a78-6163-46c9-96fb-b680561e9c1f,キュービックプラザ新横浜2階店,2220033,神奈川県,横浜市港北区,新横浜2-100-45,キュービックプラザ新横浜　2Ｆ,,,,,,
620abec8-2ec2-4dae-b9b7-3d657e854d3a,アピタテラス横浜綱島店,2230052,神奈川県,横浜市港北区,綱島東4-3-17,,,,,,,
99d81e78-6209-47e4-a150-63e495c20ac9,TSUTAYA BOOKSTORE 新綱島店,2230052,神奈川県,横浜市港北区,綱島東1-9-9,SHINSUI3階,,,,,,
7857f40b-2eec-4244-8a59-15bd49947e21,エトモ綱島店,2230053,神奈川県,横浜市港北区,綱島西1-1-8,エトモ綱島,,,,,,
86985f64-b78d-4884-a182-5ca10c2f38a7,都筑パーキングエリア（上り線）店,2230056,神奈川県,横浜市港北区,新吉田町5203-1,第三京浜道路　都筑パーキングエリア（上り線）内,,,,,,
b593cbbc-1b3a-4f38-a289-51553aa67efa,日吉店,2230061,神奈川県,横浜市港北区,日吉2-2-3,山村ビル 1F,,,,,,
79324bdb-b571-4270-9683-b7474ccc8e3e,そよら横浜高田店,2230066,神奈川県,横浜市港北区,高田西1-1-47,そよら横浜高田2階,,,,,,
42a0a889-ed17-44f5-a755-35fcf0cfda46,モザイクモール港北店,2240003,神奈川県,横浜市都筑区,中川中央1-31-1,モザイクモール港北　（区画番号2193),,,,,,
91f685c1-2268-4189-91b1-79d95c342505,港北ノースポート・モール店,2240003,神奈川県,横浜市都筑区,中川中央1-25-1,ノースポート・モール,,,,,,
8c2618ff-873a-42d4-89b3-10b50b2672e0,蔦屋書店 港北ミナモ店,2240003,神奈川県,横浜市都筑区,中川中央2-7-1,港北ミナモ,,,,,,
ae05b8b2-3ace-4164-b0e5-49221127fb92,港北東急S.C.店,2240032,神奈川県,横浜市都筑区,茅ケ崎中央5-1,港北東急ショッピングセンター,,,,,,
9a942d4b-e76d-4620-ac04-16d07f87a7fe,横浜折本店,2240043,神奈川県,横浜市都筑区,折本町251-1,,,,,,,
b766e3ee-790a-4b4e-9e9f-763b0a2ec4b3,ららぽーと横浜店,2240053,神奈川県,横浜市都筑区,池辺町4035-1,ららぽーと横浜　(店舗番号35010),,,,,,
efd867a4-9eef-490e-b464-e9921ea07889,たまプラーザテラス店,2250002,神奈川県,横浜市青葉区,美しが丘1-1-2,たまプラーザテラスゲートプラザ,,,,,,
ae3577cc-58db-4e7e-a93c-e038a0baaab5,エトモあざみ野店,2250011,神奈川県,横浜市青葉区,あざみ野2-1-3,エトモあざみ野,,,,,,
13803b8c-1f98-459c-8fcd-2ff26e449412,あざみ野みすずが丘店,2250012,神奈川県,横浜市青葉区,あざみ野南4-5-7,,,,,,,
aef4c7dd-8d8b-4b4f-99de-e05bbdd1e5a1,横浜荏田西店,2250014,神奈川県,横浜市青葉区,荏田西5-6-7,,,,,,,
d0d721d6-ad66-46e0-8ffc-3cc6f5454b11,ビーンズ中山店,2260013,神奈川県,横浜市緑区,寺山町59,ビーンズ中山,,,,,,
180ff25b-be5a-4b43-b1c6-dbb1d92d0a19,カエデウォーク長津田店,2260018,神奈川県,横浜市緑区,長津田みなみ台4-7-1,カエデウォーク長津田,,,,,,
690a796d-985e-406a-96b2-866b812aab1f,青葉台東急スクエア店,2270062,神奈川県,横浜市青葉区,青葉台2-1-1,青葉台東急スクエア Ｓｏｕｔｈ 1F,,,,,,
72721277-980c-4a1f-ad85-408af4a1ad54,横浜鶴見店,2300014,神奈川県,横浜市鶴見区,諏訪坂5-27,,,,,,,
ae8fa406-b666-4052-b6f7-f894df946133,CIAL鶴見店,2300051,神奈川県,横浜市鶴見区,鶴見中央1-1-2,CIAL鶴見,,,,,,
fcdc583a-04a6-4923-a4f0-6aa219e1eb9b,JR東日本ホテルメッツ 横浜鶴見店,2300051,神奈川県,横浜市鶴見区,鶴見中央1-31-2,JR東日本ホテルメッツ 横浜鶴見,,,,,,
912b17d4-7900-4695-97c0-8a28bc5e0699,Olive LOUNGE 鶴見店,2300062,神奈川県,横浜市鶴見区,豊岡町8-26,Olive LOUNGE 1階,,,,,,
b8d4fb3e-784e-41c4-80e1-b41cc0b7ea47,横浜ワールドポーターズ店,2310001,神奈川県,横浜市中区,新港2-2-1,横浜ワールドポーターズ,,,,,,
550a2cdf-8996-4031-87ea-12bee0824d7d,横浜ハンマーヘッド店,2310001,神奈川県,横浜市中区,新港2-14-1,横浜ハンマーヘッド,,,,,,
92444236-78b4-429b-8b54-0437d87abcb3,北仲ブリック＆ホワイト店,2310003,神奈川県,横浜市中区,北仲通5-57-2,KITANAKA BRICK & WHITE,,,,,,
d827a5b5-de3e-4ddc-a8bb-40a53529b979,横浜市役所 ラクシス フロント店,2310005,神奈川県,横浜市中区,本町6-50-10,横浜市役所 ラクシス フロント,,,,,,
f0a44558-e8d8-4223-a519-35db93d4fef3,関内馬車道店,2310014,神奈川県,横浜市中区,常盤町4-45,アートビル 1F,,,,,,
978b3346-6dbc-4b21-af22-f2166b5cd483,横浜公園店,2310021,神奈川県,横浜市中区,日本大通り60,朝日生命横浜ビル 1F,,,,,,
57334bbc-853d-402e-aea4-a209e15b96c1,CIAL桜木町店,2310062,神奈川県,横浜市中区,桜木町1-1,,,,,,,
1bb9c45d-0fde-4206-96d2-e08e5a4ba9a7,CIAL 桜木町 ANNEX店,2310062,神奈川県,横浜市中区,桜木町1-1-93,CIAL 桜木町 ANNEX,,,,,,
1bc71d03-aa01-47fa-ac55-3404e4c7a428,横浜元町店,2310861,神奈川県,横浜市中区,元町1-13-5,ラヴィ元町 1F,,,,,,
18383ce7-0a6e-420d-bbd4-d2b041a9b0fb,ウィング上大岡店,2330002,神奈川県,横浜市港南区,上大岡西1-6-1,ウィング上大岡 2F,,,,,,
a8124cc5-5774-4484-a66d-4a6f9558a9f2,京急百貨店6階店,2330002,神奈川県,横浜市港南区,上大岡西1-6-1,京急百貨店,,,,,,
5381eb51-b63e-49e8-9d4d-1b23f94f5c3f,港南台バーズ店,2340054,神奈川県,横浜市港南区,港南台3-1-3,港南台バーズ,,,,,,
4596a6c3-5e80-4400-b762-7d69c91d33c2,らびすた新杉田店,2350033,神奈川県,横浜市磯子区,杉田1-1-1,らびすた新杉田,,,,,,
4e375851-0246-48e6-bd87-4f9979a1207a,三井アウトレットパーク 横浜ベイサイド店,2360007,神奈川県,横浜市金沢区,白帆5-2,三井アウトレットパーク 横浜ベイサイド,,,,,,
378475a1-f2b0-4f2d-a1a4-b84d35d5be02,イオン金沢八景店,2360021,神奈川県,横浜市金沢区,泥亀1-27-1,イオン金沢八景,,,,,,
37e44781-5cb6-4833-9ef3-cd374eb5440c,コースカベイサイドストアーズ店,2380041,神奈川県,横須賀市,本町2-1-12,コースカベイサイドストアーズ,,,,,,
8eb0002f-3e65-4b2c-8da7-12f573276f76,横須賀モアーズシティ店,2380007,神奈川県,横須賀市,若松町2-30,横須賀モアーズシティ 2F,,,,,,
66dc4db5-547f-487d-bb94-f38f5c770026,横須賀大津店,2390808,神奈川県,横須賀市,大津町1-22-25,,,,,,,
ac1d93ba-bb1d-43a0-b33e-f836a71e2de5,イオン天王町店,2400001,神奈川県,横浜市保土ケ谷区,川辺町3-5,イオン天王町,,,,,,
c821edb0-8f10-4bb2-8adc-3b2ab6343dee,横浜ビジネスパーク店,2400005,神奈川県,横浜市保土ケ谷区,神戸町134,横浜ビジネスパーク/プレッツォ,,,,,,
6ab5f822-8dec-41d9-bde8-51a6e2225860,葉山店,2400113,神奈川県,三浦郡,葉山町長柄1809-1,,,,,,,
7cfbc24b-4646-4645-b624-d9e0ffa1e8ad,TSUTAYA 鶴ヶ峰駅前店,2410022,神奈川県,横浜市旭区,鶴ヶ峰2-82-1,ココロット鶴ヶ峰,,,,,,
1e949cc9-8df8-4446-a1a7-1ef7971aa7c4,横浜今宿店,2410032,神奈川県,横浜市旭区,今宿東町1527-2,,,,,,,
93ed3bc3-6a35-4d73-aa3c-01f160845a59,ジョイナステラス二俣川店,2410821,神奈川県,横浜市旭区,二俣川2-91-7,,,,,,,
5809d927-ec57-4405-a753-621d8a1fd988,大和オークシティ店,2420001,神奈川県,大和市,下鶴間1-2-1,イオンモール大和ショッピングセンター,,,,,,
5e95d199-f28a-47be-abf0-adf76beb85c0,エトモ中央林間店,2420007,神奈川県,大和市,中央林間4-6-3,エトモ中央林間2階,,,,,,
f2142987-327b-4826-a0d6-ac157aa847f8,YAMATO文化森店,2420016,神奈川県,大和市,大和南1-8-1,YAMATO文化森　,,,,,,
32fed219-eea2-4ca9-93d6-e128f4ac8c31,本厚木ミロード店,2430013,神奈川県,厚木市,泉町1-1,本厚木ミロード,,,,,,
e65fbba8-374b-43b8-ae63-3933b749c892,本厚木店,2430018,神奈川県,厚木市,中町2-6-20,人の森本厚木中町ビル １F,,,,,,
035adaa8-4b0c-400c-b95c-643f782f7997,厚木及川店,2430212,神奈川県,厚木市,及川1101-1,,,,,,,
d10c2c8b-b144-40a4-a9dc-5005f58b3ec5,EXPASA海老名サービスエリア（上り線）店,2430418,神奈川県,海老名市,大谷南5-1-1,,,,,,,
bac52c10-82de-481c-bd1d-8d6b157c5f02,海老名店,2430432,神奈川県,海老名市,中央1-4-1,ビナウォーク５番館,,,,,,
92295af3-badc-4d93-910d-e8a3719d0337,海老名中央店,2430432,神奈川県,海老名市,中央2-2-8,,,,,,,
9e49a4db-a928-46ae-99e3-94a4eaee6434,ららぽーと海老名店,2430436,神奈川県,海老名市,扇町13-1,ららぽーと海老名　2F,,,,,,
50e18a6c-012a-4b10-9e4d-8caf65b59e0d,蔦屋書店 海老名市立中央図書館店,2430438,神奈川県,海老名市,めぐみ町7ー1,,,,,,,
7e795c62-d3cb-485a-b558-e92527b80be7,TSUTAYA BOOKSTORE 海老名店,2430438,神奈川県,海老名市,めぐみ町3-1,ビナガーデンズ パーチ,,,,,,
4b158194-4db1-432f-a672-e4054ac51727,戸塚店,2440003,神奈川県,横浜市戸塚区,戸塚町10,ラピス戸塚１ 1F,,,,,,
9c6a843b-d7f2-4646-a810-f0c2e3cc6634,東急プラザ戸塚店,2440003,神奈川県,横浜市戸塚区,戸塚町16-1,(区画番号Ｄ-101）,,,,,,
5dc2eb90-81c8-47fb-a947-968d8b8351d6,西武東戸塚S.C.店,2440801,神奈川県,横浜市戸塚区,品濃町537-1,西武東戸塚S.C.店 西武館4階,,,,,,
b11b3569-39b5-4e2d-855a-a3f9fc8d41e6,TSUTAYA BOOKSTORE 弥生台店,2450008,神奈川県,横浜市泉区,弥生台16-3,KNOCKS横浜弥生台,,,,,,
88f0178f-f1df-41a9-adcf-3c5a044dd2fc,TSUTAYA BOOKSTORE ゆめが丘ソラトス店,2450019,神奈川県,横浜市泉区,ゆめが丘31,ゆめが丘ソラトス1 2階,,,,,,
f8b90df6-0456-4baf-9095-afeb46d61412,TSUTAYA 相鉄ライフ三ツ境店,2460022,神奈川県,横浜市瀬谷区,三ツ境2-19,相鉄ライフ三ツ境,,,,,,
f584e1b2-8493-41b3-8dcd-5879aa8f16c9,大船グランシップ店,2470006,神奈川県,横浜市栄区,笠間2-2-1,グランシップ,,,,,,
6ad0c2d2-7dd6-4780-85bc-555c59315019,大船ルミネウィング店,2470056,神奈川県,鎌倉市,大船1-4-1,ルミネウィング,,,,,,
906d093b-f201-4187-8749-62fbc3cfff93,アトレ大船店,2470056,神奈川県,鎌倉市,大船1-1-1,アトレ大船,,,,,,
6627dfa9-544e-40d5-8fe8-97a94f2b71f4,鎌倉店,2480006,神奈川県,鎌倉市,小町1-2-7,鎌倉とうきゅう,,,,,,
028e048a-689b-4a47-b7b6-e990690389a9,鎌倉御成町店,2480012,神奈川県,鎌倉市,御成町15-11,,,,,,,
353609c0-fdf0-45b2-ba37-5fb2f366554d,逗子駅前店,2490006,神奈川県,逗子市,逗子1-4-1,菊池ビルディング,,,,,,
25e808ed-7884-46ba-95a5-ef1981e6b30b,JR東海 小田原駅店,2500045,神奈川県,小田原市,城山1-1-1,JR小田原駅構内,,,,,,
52665021-612f-4454-b7e7-b727c1007f6a,南足柄店,2500111,神奈川県,南足柄市,竹松1003,,,,,,,
c7e29eb7-8c44-4701-a71c-b993f14b2298,小田原飯泉店,2500863,神奈川県,小田原市,飯泉374-1,,,,,,,
98f39507-1bd7-486d-9a98-880193cb0fba,小田原Ｄｙｎａｃｉｔｙ ＷＥＳＴ店,2500872,神奈川県,小田原市,中里208,Ｄｙｎａｃｉｔｙ ＷＥＳＴ 1F,,,,,,
8cc89b43-1719-4812-9ec8-2aafc7a7fd0b,テラスモール湘南店,2510041,神奈川県,藤沢市,辻堂神台1-3-1,テラスモール湘南,,,,,,
8b1c35c6-a8e6-4ea0-a84d-04868003d89b,ミスターマックス湘南藤沢ショッピングセンター店,2510042,神奈川県,藤沢市,辻堂新町4-3-5,ミスターマックス湘南藤沢ショッピングセンター,,,,,,
091cd39c-d0ec-4ac9-a692-3efe8ef7b5a1,湘南 蔦屋書店,2510043,神奈川県,藤沢市,辻堂元町6-20-1,,,,,,,
21a67755-8104-4170-ad99-b66058ca443a,ルミネ藤沢店,2510052,神奈川県,藤沢市,藤沢438-1,ルミネ藤沢,,,,,,
1871704f-5225-4711-9ab1-d9c9513cec35,リエール藤沢店,2510055,神奈川県,藤沢市,南藤沢1-2,リエール藤沢,,,,,,
03dd9761-3699-424b-99f4-67408c4d8002,イオンモール座間店,2520012,神奈川県,座間市,広野台2-10-4,,,,,,,
ce369574-dbd5-4c37-9d31-21f7de3ed06a,イオン橋本店,2520143,神奈川県,相模原市緑区,橋本6-2-1,イオン橋本,,,,,,
173f228c-bf10-4f52-beb0-1a3119d7e49f,ミウィ橋本店,2520143,神奈川県,相模原市緑区,橋本3-28-1,ミウィ橋本2階,,,,,,
3a17fa5c-7f1f-4c5d-85f1-67dcde5ec420,アリオ橋本店,2520146,神奈川県,相模原市緑区,大山町1-22,アリオ橋本,,,,,,
663fdfa0-8a08-4e02-b616-2411d2c5b891,相模原共和店,2520234,神奈川県,相模原市中央区,共和4-19-20,,,,,,,
8f39116e-581e-4052-806f-1c929a591662,小田急相模大野ステーションスクエア店,2520303,神奈川県,相模原市南区,相模大野3-8-1,,,,,,,
cc3ca3c5-1174-43f6-9c4a-c08d30050834,イオン相模原ショッピングセンター店,2520344,神奈川県,相模原市南区,古淵2-10-1,イオン相模原ショッピングセンター2階,,,,,,
963d15af-4af5-4e25-a906-4ea72d9c0ec0,北里大学病院店,2520329,神奈川県,相模原市南区,北里1-15-1,北里大学病院本館1階,,,,,,
b5435d77-c070-4b9a-a7ee-5d0958cc7ce1,湘南台駅ビル店,2520804,神奈川県,藤沢市,湘南台2-15,小田急マルシェ湘南台２,,,,,,
99718de3-03a4-4c17-889c-e5e782175332,湘南台イトーヨーカドー店,2520815,神奈川県,藤沢市,石川6-2-1,イトーヨーカドー湘南台店,,,,,,
4ef6ec0f-a42b-41ef-95af-408b60606cbf,藤沢菖蒲沢店,2520823,神奈川県,藤沢市,菖蒲沢929,,,,,,,
4a68d7f8-2677-4fee-9021-1c9a03b2a528,茅ヶ崎スルガビル店,2530043,神奈川県,茅ヶ崎市,元町2-3,Ｇ．Ｃ．ＣＨＩＧＡＳＡＫＩ 3F,,,,,,
b6caa4c5-bdf6-4346-a505-6d2f16ba201e,ジ アウトレット湘南平塚店,2540012,神奈川県,平塚市,大神8丁目1-1,ジ アウトレット湘南平塚,,,,,,
e8f58b04-7ae5-4845-baa5-42b92b614540,平塚田村店,2540013,神奈川県,平塚市,田村1-5-7,クロスガーデン平塚,,,,,,
0dec5045-8c3e-4258-a2de-5a9deb23d35e,ららぽーと湘南平塚店,2540031,神奈川県,平塚市,天沼10-1,,,,,,,
900e376b-90b1-4846-82a7-d34b82a37763,平塚ラスカ店,2540034,神奈川県,平塚市,宝町1-1,ラスカステーションビル 3F,,,,,,
bb9cc016-8070-4b52-b611-ae2c9a7f11bf,イオン秦野店,2570041,神奈川県,秦野市,入船町12-1,イオン秦野,,,,,,
3c42aeff-d051-41b4-82ba-4fb6dcbd9b5f,伊勢原成瀬店,2591143,神奈川県,伊勢原市,下糟屋2008-1,,,,,,,
9d598731-d63d-47e4-9627-51ebc1b3196d,東海大学医学部付属病院店,2591143,神奈川県,伊勢原市,下糟屋143,東海大学医学部付属病院,,,,,,
ec9638ac-e964-49f2-84f8-0a5c04dad44b,CoCoLo長岡店,9400061,新潟県,長岡市,城内町1-611-1,CoCoLo長岡2階,,,,,,
700156ef-ce9b-4c10-938f-02693cb4fb6d,長岡宮内店,9401155,新潟県,長岡市,宮内町3371-1,,,,,,,
faba1487-51b6-45a2-9519-fcf68d03361b,長岡リバーサイド千秋店,9402108,新潟県,長岡市,千秋2-278,リバーサイド千秋,,,,,,
6d07aa9a-6463-4ea0-9b52-cc71db93ae00,長岡七日町店,9402123,新潟県,長岡市,七日町川原470-1,,,,,,,
96a0f8cc-2473-4853-b51f-d1b7f23aec4b,直江津店,9420004,新潟県,上越市,西本町3-8-8,直江津ショッピングセンター 2F,,,,,,
6518d4e1-7149-4aa0-89a6-48e39a1e37d6,上越店,9420063,新潟県,上越市,下門前1766,,,,,,,
56f32b0d-b8a1-4b75-a1da-4c31a0845456,上越高田城址公園店,9430835,新潟県,上越市,本城町9-12,,,,,,,
68adef21-e12d-492b-be37-2c1ec269f6d3,柏崎穂波町店,9450822,新潟県,柏崎市,穂波町13-8,,,,,,,
c151a666-67a7-4a67-9a2f-3a114e89a215,新潟松崎店,9500014,新潟県,新潟市東区,松崎862,,,,,,,
bb9c2104-d098-4728-b284-1078e0c0b338,CoCoLo新潟店,9500086,新潟県,新潟市中央区,花園1-602,CoCoLo新潟 WEST SIDE 2階,,,,,,
868ff71c-1acb-4039-992c-fd42f8ebd340,新潟マルタケビル店,9500087,新潟県,新潟市中央区,東大通1-4-1,マルタケビル 1階,,,,,,
6f039383-5eee-4682-8d6e-33912deefae3,新潟万代シテイ店,9500088,新潟県,新潟市中央区,万代1-6-1,,,,,,,
41c512d8-aff7-4696-bcea-1322bd83c4e6,イオンモール新潟亀田インター店,9500150,新潟県,新潟市江南区,下早通柳田1-1-1,イオンモール新潟亀田インター,,,,,,
8427a475-a29f-4a1c-b593-c74c90fe06cb,新潟亀田店,9500157,新潟県,新潟市江南区,鵜ノ子2-2-11,,,,,,,
587223d1-4c44-4cfc-96d3-ee46174c6201,新潟中野山店,9500837,新潟県,新潟市東区,若葉町1-1-31,,,,,,,
ff868b6e-0581-4138-b30b-15b5b598576e,新潟紫竹山店,9500914,新潟県,新潟市中央区,紫竹山5-2-19,,,,,,,
ab2e4f5b-b65e-478f-a52b-e0ce165d6dd3,新潟女池店,9500945,新潟県,新潟市中央区,女池上山2-9-19,,,,,,,
fa5b9070-d3cd-4f25-be41-c83a1b7e3e16,黒埼パーキングエリア（下り線）店,9501122,新潟県,新潟市西区,木場1206-3,黒埼パーキングエリア（下り線）,,,,,,
348a7e0b-70ae-4234-b932-63d81380fa17,アピタ新潟西店,9502023,新潟県,新潟市西区,小新5-7-21,アピタ 新潟西店,,,,,,
2a236d6c-f7a3-434c-9cb9-88f84ba68149,新潟小新店,9502028,新潟県,新潟市西区,小新南1-21-10,,,,,,,
a43ccda8-59b7-4888-9315-4e7d1de61add,三条東新保店,9550863,新潟県,三条市,東新保9-16,,,,,,,
96f5e93a-a20d-491d-af56-d19d3ba6d84c,新潟新津店,9560031,新潟県,新潟市秋葉区,新津5149-2,,,,,,,
cd8261fd-9322-493f-814e-8f7b62da2866,新発田小舟店,9570007,新潟県,新発田市,小舟町1-8-9,,,,,,,
f7d31cdc-8123-4291-b425-f4374646c497,イオンモール新発田店,9570061,新潟県,新発田市,住吉町5-11-5,イオンモール新発田,,,,,,
129f48ef-b7c3-4578-b93b-a9333ae2942c,富山マルート店,9300001,富山県,富山市,明輪町1-231,マルート1階,,,,,,
9fe45201-4d21-458c-b13e-6f12e81bfa33,マリエとやま店,9300003,富山県,富山市,桜町1-1-61,マリエとやま 1階,,,,,,
304035cd-996c-4b9d-bf09-e09500700fc4,富山総曲輪フェリオ店,9300083,富山県,富山市,総曲輪3-8-6,総曲輪フェリオ,,,,,,
c85e3afc-e926-4da5-85b3-fc3efc29b7f6,富山環水公園店,9300805,富山県,富山市,湊入船町5,富山富岩運河環水公園,,,,,,
81a76d02-685b-4367-b4ee-61505a649811,富山五福公園店,9300887,富山県,富山市,五福5区1942,富山五福公園,,,,,,
c9b16695-86aa-4878-9ee0-28b6d8d56814,富山藤の木店,9300944,富山県,富山市,開1330,,,,,,,
7d4f5682-1212-4693-a2e9-03784ae67be2,富山天正寺店,9300955,富山県,富山市,天正寺1125,,,,,,,
81fcf9d9-a431-43e1-90c6-7adbb1870dd3,三井アウトレットパーク北陸小矢部店,9320035,富山県,小矢部市,西中野972-1,,,,,,,
92829870-13ae-4f48-a539-2a28aff0e42d,イオンモール高岡店,9330813,富山県,高岡市,下伏間江383,,,,,,,
1cf9dec8-8590-4950-aaff-5dd191c99636,イオンモール高岡 2階 セントラルコート店,9330813,富山県,高岡市,下伏間江383,イオンモール高岡,,,,,,
976ad869-dcdb-4f3c-b881-87ac8129a9af,高岡泉町店,9330858,富山県,高岡市,泉町3-9,,,,,,,
6515445f-f0bc-46fe-9169-601524b0604f,射水歌の森運動公園店,9390311,富山県,射水市,黒河713-4,,,,,,,
f15437ed-eebe-4cbf-a6d6-67c7c2ff241c,富山ファボーレ店,9392716,富山県,富山市,婦中町下轡田165-1,フューチャーシティ　ファボーレ,,,,,,
b707cef3-1fdf-4380-afc1-fa6f3cfd90c6,富山けやき通り店,9398208,富山県,富山市,布瀬町南3-6-7,,,,,,,
2702dca0-18a5-485d-a730-bf4e9fd253b7,クロスゲート金沢店,9200031,石川県,金沢市,広岡1-5-3,クロスゲ－ト金沢 1階,,,,,,
4c00e400-9fb9-4f20-8e01-384cc7c097bb,金沢藤江店,9200345,石川県,金沢市,藤江北4-475,,,,,,,
99c25863-4f90-44e0-9020-e80ba4050b30,金沢フォーラス6階クーゴ店,9200849,石川県,金沢市,堀川新町3-1,金沢フォーラス 6F,,,,,,
6a8f484d-fc7b-46e6-84e9-73545eeb91de,金沢フォーラス1階店,9200849,石川県,金沢市,堀川新町3-1,金沢フォーラス 1F,,,,,,
825820d4-b99e-4183-9142-380c2cdaf470,金沢百番街Rinto店,9200858,石川県,金沢市,木ノ新保町1-1,金沢百番街Rinto 1階,,,,,,
213280d3-9419-4f79-bd01-bf635b129d44,香林坊店,9200961,石川県,金沢市,香林坊2-1-1,クラソ・プレイス香林坊,,,,,,
1e059802-9d37-4f43-ab61-072384de3313,金沢鞍月店,9208204,石川県,金沢市,戸水1-429,,,,,,,
87619c8e-76c0-4245-8342-c51578736f80,金沢エムザ店,9200855,石川県,金沢市,武蔵町15-1,金沢エムザ,,,,,,
15ec953a-22a1-4a04-9837-75e25fcb5493,金沢大桑店,9218045,石川県,金沢市,大桑2-394,,,,,,,
36522500-b047-4ee8-b3a3-8aba93fff295,金沢有松店,9218161,石川県,金沢市,有松3-3-36,,,,,,,
82cf15c6-edc5-466b-b34b-a1ba1dac5137,野々市市役所前店,9218825,石川県,野々市市,三納1-46,,,,,,,
f4eedc5e-43ed-43fe-88c6-2fbdd6f5a3fe,野々市堀内店,9218844,石川県,野々市市,堀内5-241,,,,,,,
acce0f98-1a2e-4044-8ef8-1f85edc55901,小松打越店,9230831,石川県,小松市,打越町い201,,,,,,,
7252453c-5f6a-4580-b383-b39e47714b21,イオンモール新小松店,9230862,石川県,小松市,清六町315,,,,,,,
7614bcbc-fcc3-4b20-abfb-6f013a08c97d,イオンモール白山店,9240011,石川県,白山市,横江町5001,,,,,,,
a4f418f7-f65d-4d05-b595-7cde78ee7465,TSUTAYA BOOKSTORE イオンモール白山店,9240011,石川県,白山市,横江町5001,,,,,,,
8402d9c1-7eb4-48e5-98c5-fddaee634cb4,フェアモール松任店,9240817,石川県,白山市,幸明町232-1,フェアモール松任,,,,,,
0d89194e-705b-4e02-bd35-06cb72e7a20d,イオンモールかほく店,9291126,石川県,かほく市,内日角タ25,イオンモールかほく,,,,,,
85b8b798-eedc-4c0e-9a53-67b36af3e846,くるふ福井駅店,9100006,福井県,福井市,中央1-1-25,くるふ福井駅内,,,,,,
f6d78dc4-f357-43ad-aefb-bac150169f42,福井二の宮 藤島通り店,9100015,福井県,福井市,二の宮3-2-11,,,,,,,
6aefc66a-a2a8-43ff-9539-b81171d96492,フェアモール福井店,9100836,福井県,福井市,大和田2-1230,フェアモール福井,,,,,,
85e83141-4f39-4efc-bbe5-61135fd4bff0,フェアモール福井エルパ店,9100836,福井県,福井市,大和田2-1212,ラブリーパートナーエルパ2階,,,,,,
594ccf93-492c-45f4-b19c-2a72d3228151,そよら福井開発店,9100843,福井県,福井市,西開発3-205,そよら福井開発1階,,,,,,
af3495d5-7423-448e-bda0-d9043d7ebf56,敦賀駅前店,9140055,福井県,敦賀市,鉄輪町1-3-40,,,,,,,
00365ba5-e13b-4a41-ab3e-90c261b685a0,武生中央公園店,9150832,福井県,越前市,高瀬2-7-131,武生中央公園,,,,,,
8b6e444f-1fb7-4ba6-97f4-951e0728474a,福井花堂店,9188015,福井県,福井市,花堂南1-4-19,,,,,,,
5f199ad9-0759-4903-b9c3-1b0f34c212a7,福井西環状　やしろ店,9188026,福井県,福井市,渕2-1717,,,,,,,
b5abf516-9111-4c83-ae21-b541b5eaa363,福井県済生会病院店,9188235,福井県,福井市,和田中町舟橋7-1,済生会病院,,,,,,
7a2ce35d-81f7-4951-b218-222fd34540be,南条サービスエリア（上り線）店,9190203,福井県,南条郡,南越前町牧谷39,南条サービスエリア（上り線）,,,,,,
131ff68b-db47-4bbe-a760-6b901da795a2,福井春江店,9190419,福井県,坂井市,春江町随応寺東46,,,,,,,
ee7a2705-3e59-481b-94f9-3b92b04984cc,セレオ甲府店,4000031,山梨県,甲府市,丸の内1-1-8,セレオ甲府2階,,,,,,
f1765ce8-0e69-4b83-b710-5d0ecf4f4a2c,ラザウォーク甲斐双葉店,4000107,山梨県,甲斐市,志田柿木645-1,ラザウォーク甲斐双葉,,,,,,
333284ea-3449-4c7e-adfb-03b9eb0dd5c4,甲府和戸通り店,4000813,山梨県,甲府市,向町172-4,,,,,,,
083f8860-ec53-4542-a389-0954251bf343,甲府平和通り店,4000851,山梨県,甲府市,住吉2-6-17,,,,,,,
dc9233df-4c2e-4286-8350-0110e83f4c79,富士急ハイランド店,4030017,山梨県,富士吉田市,新西原5-6-1,富士急ハイランド,,,,,,
8e471137-190d-4baa-b734-ef7ed11d3990,富士吉田店,4030032,山梨県,富士吉田市,上吉田東4-14-22,,,,,,,
08438a4d-7e15-47c1-8705-555f8eeb8bcc,談合坂サービスエリア(上り線)店,4090123,山梨県,上野原市,大野4943,,,,,,,
869c532b-c717-4393-9fcc-d45174899d7e,EXPASA談合坂サービスエリア（下り線）店,4090125,山梨県,上野原市,野田尻710,中央自動車道　談合坂サービスエリア(下り線）内,,,,,,
e275958e-eee1-41bb-933c-38787dc78a6b,甲府リバーシティ店,4093845,山梨県,中央市,山ノ神1122,リバーシティショッピングセンター,,,,,,
fdec737c-a950-4bea-a396-31d2e0fbaf10,イオンモール甲府昭和1階店,4093852,山梨県,中巨摩郡,昭和町飯喰1505-1,イオンモール甲府昭和1階,,,,,,
c047a029-57b0-4881-a8cf-4f5fa0be5365,イオンモール甲府昭和3階店,4093852,山梨県,中巨摩郡,昭和町飯喰1505-1,イオンモール甲府昭和3階,,,,,,
7884632a-4d9b-40ef-bf47-ebffa4f0055e,甲府アルプス通り店,4093867,山梨県,中巨摩郡,昭和町清水新居59-12,,,,,,,
68aed6a8-39a0-4224-9b2e-f937728aae8c,山梨大学医学部附属病院店,4093821,山梨県,中央市,下河東1110,山梨大学医学部附属病院,,,,,,
a1e2576b-d768-4f1d-acbb-2e5c169a600a,長野駅前店,3800822,長野県,長野市,南千歳町826,C-one,,,,,,
ad9014a2-59fc-43ca-864c-d80a2d4e81c1,信州善光寺仲見世通り店,3800851,長野県,長野市,元善町483,,,,,,,
0c20561f-dcc5-4a50-b2b5-8e1bd6bf1d69,MIDORI長野店,3800823,長野県,長野市,南千歳1-22-6,,,,,,,
146b240f-ee90-4818-b2de-bc1e9d2072b3,長野南高田店,3810033,長野県,長野市,南高田1-16-7,,,,,,,
2aba2bbc-b1bd-44c5-8dd9-db10a86953dd,長野川中島店,3812215,長野県,長野市,稲里町中氷鉋963-1,,,,,,,
415ff22d-1739-443f-9c0a-5298c78d987a,佐久平南店,3850022,長野県,佐久市,岩村田5509‐1,,,,,,,
8ed62079-6dff-4d06-bd75-9ef9f9602d7a,フレスポ佐久インター店,3850023,長野県,佐久市,岩村田北1-22-3,フレスポ佐久インター,,,,,,
efc1d7c0-7a37-4601-9559-3d4a89905dad,イオンモール佐久平店,3850029,長野県,佐久市,佐久平駅南11-10,イオンモール佐久平,,,,,,
2930a9d6-6885-4d10-bb1e-d76e240ee4d1,上田中央店,3860011,長野県,上田市,中央北1-6-34,,,,,,,
86baffec-1fd2-4198-ae6d-dcde4e6e09cd,イオン上田店,3860018,長野県,上田市,常田2-12-18,イオン上田ショッピングセンター,,,,,,
dd6e341d-3298-45fc-bceb-b9f79f264467,アリオ上田店,3860025,長野県,上田市,天神3-5-1,アリオ上田,,,,,,
92598bf9-24b2-4c25-8b3a-71e3ee0d46dd,軽井沢・プリンスショッピングプラザ店,3890102,長野県,北佐久郡,軽井沢町軽井沢,軽井沢・プリンスショッピングプラザ・ニューイースト,,,,,,
9f89aca7-84d1-4ff8-9e84-2ffe9584345b,千曲店,3890802,長野県,千曲市,内川736-1,,,,,,,
37478793-3107-40d6-ac1f-3479ea210275,TSUTAYA 東松本店,3900803,長野県,松本市,元町1-2-1,,,,,,,
c498f2ea-5e12-42ac-bc2f-cf768a65c3c3,イオンモール松本店,3900811,長野県,松本市,中央4-9-51,イオンモール松本,,,,,,
58728993-6cb3-438b-afae-6a951130957d,MIDORI松本店,3900815,長野県,松本市,深志1-1-1,MIDORI松本店,,,,,,
787ba5aa-46f2-4b80-bfcc-d0ef8926c04e,松本庄内店,3900827,長野県,松本市,出川1-1-3,,,,,,,
4a8e3367-dd2c-4970-a0a2-1d59729a3e61,松本笹部店,3900847,長野県,松本市,笹部2-1-55,,,,,,,
2c80d4d8-3f18-49ef-b449-0558c6464085,茅野中沖店,3910000,長野県,茅野市,中沖1-8,,,,,,,
77fcd641-a6e4-4ade-a8eb-f66e843be2b0,諏訪湖サービスエリア（上り線）店,3920016,長野県,諏訪市,豊田所久保3171,中央自動車道　諏訪湖サービスエリア(上り線）内,,,,,,
c1c5f322-2e0f-4d93-be9e-be35d2e11e61,諏訪城南店,3920017,長野県,諏訪市,城南2-2312-1,,,,,,,
8b943be9-c2d7-4b75-b490-70977be8d3f1,レイクウォーク岡谷店,3940022,長野県,岡谷市,銀座1-1-5,レイクウォーク岡谷,,,,,,
7ec4b1e8-8465-4e3a-9d3b-d9467f168406,飯田アップルロード店,3950805,長野県,飯田市,鼎一色160-8,,,,,,,
061f83a7-dc3f-4ae0-9d18-215e737b30c1,伊那ナイスロード店,3960012,長野県,伊那市,上新田2405-1,,,,,,,
657d7e90-1b5e-4e26-a48a-ba98ae667301,松本平田店,3990014,長野県,松本市,平田東2-18-14,,,,,,,
0fc10c73-b316-4d58-9fea-2800503fb814,塩尻店,3990701,長野県,塩尻市,広丘吉田986-1,,,,,,,
7aa0936d-3b10-40ce-a744-50d8c0abf83d,安曇野豊科店,3998201,長野県,安曇野市,豊科南穂高629-12,,,,,,,
53d1bc15-082f-40b4-a352-0ddc6b6633ac,梓川サービスエリア(上り線)店,3998204,長野県,安曇野市,豊科高家961-1,梓川サービスエリア(上り線),,,,,,
d96263af-8a71-4c7f-a77a-2f0666963237,スノーピークランドステーション白馬店,3999301,長野県,北安曇郡,白馬村北城5490,Snow Peak LAND STATION HAKUBA,,,,,,
a9ef6d50-f522-4da7-b92c-b0ef5e6852be,みんなの森 ぎふメディアコスモス店,5008076,岐阜県,岐阜市,司町40-5,みんなの森 ぎふメディアコスモス,,,,,,
422eff43-d6aa-497c-ae7f-8ee0d56048f8,岐阜茜部店,5008283,岐阜県,岐阜市,茜部野瀬2-14-1,,,,,,,
53a8168c-8904-4071-b9b1-262166852c98,ASTY岐阜店,5008856,岐阜県,岐阜市,橋本町1-10-1,ASTY岐阜3F,,,,,,
ad28c50c-818a-42d8-be47-796d39c06386,本巣北方店,5010438,岐阜県,本巣郡,北方町平成8-1,,,,,,,
f7acfec2-4e48-4952-83c3-eb1f00de0906,モレラ岐阜店,5010406,岐阜県,本巣市,三橋1100,モレラ岐阜,,,,,,
6718aaf7-4038-4e4a-99f5-6d783c532a98,TSUTAYA BOOKSTORE モレラ岐阜店,5010406,岐阜県,本巣市,三橋1100,モレラ岐阜2階,,,,,,
d86e31d3-8713-4004-bfc4-d436bd3556f6,関 マーゴ店,5013936,岐阜県,関市,倉知516,サンサンシティ　マーゴ,,,,,,
1c8e410d-e72b-48c1-9555-435636108c9b,関倉知店,5013936,岐阜県,関市,倉知627,,,,,,,
7fdd2f7f-99fd-47f0-8f84-221e1c76e837,TSUTAYA BOOKSTORE カラフルタウン岐阜店,5016115,岐阜県,岐阜市,柳津町丸野3-3-6,カラフルタウン岐阜1階,,,,,,
340a53bc-2e0d-44d6-a878-afcb54afc9b2,羽島福寿店,5016256,岐阜県,羽島市,福寿町千代田3-27,,,,,,,
5f80c603-46fb-490c-9f3d-da0cbf4a5094,岐阜正木店,5020882,岐阜県,岐阜市,正木中2-3-8,,,,,,,
3cf8304b-c0dc-4301-8238-e9f6ab6857c7,岐阜菅生店,5020914,岐阜県,岐阜市,菅生6-7-16,,,,,,,
fc9bc50e-003c-44d5-bd6d-5e95b5b80e14,イオンモール大垣店,5030933,岐阜県,大垣市,外野2-100,イオンモール大垣,,,,,,
019933dc-5cca-4282-b7b9-dc987eb1a6e0,大垣島里店,5030935,岐阜県,大垣市,島里2-92,,,,,,,
311b9789-4363-448d-9cdb-b826f1690c0c,アクアウォーク大垣店,5030015,岐阜県,大垣市,林町6-80-21,アクアウォーク大垣,,,,,,
9f4ff878-5f8e-460c-b40c-aa983cb43741,各務原蘇原店,5040831,岐阜県,各務原市,蘇原瑞穂町5-54,,,,,,,
a61c1e61-6faf-4d46-a0c8-f4310a1dfa0a,イオンモール各務原店,5040943,岐阜県,各務原市,那加萱場町3-8,イオンモール各務原,,,,,,
85e67cc1-8908-4421-9cae-9dede54eaeac,美濃加茂新池店,5050031,岐阜県,美濃加茂市,新池町1-6-35,,,,,,,
82fae12d-9910-43e8-bbc3-733461a4a204,高山岡本店,5060054,岐阜県,高山市,岡本町2-47,,,,,,,
30b5b910-8466-4a87-be33-805f3626beb2,多治見光ケ丘店,5070052,岐阜県,多治見市,光ケ丘4-48-2,,,,,,,
88e2d2a6-6b18-4029-84a2-0cd338931cb1,ルビットタウン中津川店,5080034,岐阜県,中津川市,淀川町3-8,ルビットタウン中津川,,,,,,
479fb81c-e443-41c9-90a9-556bbcdaada3,草叢BOOKS 各務原店,5090141,岐阜県,各務原市,鵜沼各務原町8-7,アピタ各務原,,,,,,
b317d1ed-eea5-433b-9ce3-25594e93728f,可児広見店,5090214,岐阜県,可児市,広見6-1,,,,,,,
94d08d70-df56-4f5d-ac2d-3424cf406344,イオンモール土岐店,5095122,岐阜県,土岐市,土岐津町土岐口1372-1,イオンモール土岐,,,,,,
418b7963-82c0-4503-926c-47a9d4b5e7c4,恵那峡サービスエリア（下り線）店,5097201,岐阜県,恵那市,大井町2194-82,恵那峡サービスエリア（下り線）,,,,,,
43cacb31-cba5-4b6c-ae4c-675eae12fc8f,恵那店,5097203,岐阜県,恵那市,長島町正家3-8-41,,,,,,,
5a076647-4b55-48ea-9e69-28b6ef3ac7b3,沼津花園店,4100065,静岡県,沼津市,花園町10-15,,,,,,,
c13c41cf-b0c3-4eb5-ab1d-8c3d2616128e,ららぽーと沼津店,4100302,静岡県,沼津市,東椎路東荒301-3,ららぽーと沼津,,,,,,
898d4f7f-2a79-4763-81e0-1ff1dc0cbf4f,裾野伊豆島田店,4101123,静岡県,裾野市,伊豆島田830-2,,,,,,,
e4c988ee-6c81-402a-9739-b4dfcb6a5211,EXPASA足柄サービスエリア（下り線）店,4101315,静岡県,駿東郡,小山町桑木599,東名高速道路　EXPASA足柄（下り線）,,,,,,
43530fad-c171-4f11-8304-40158cc2ad91,JR三島駅 南口店,4110036,静岡県,三島市,一番町16-1,,,,,,,
127fb263-fc37-47c1-b7cb-8c4111422650,三島安久店,4110815,静岡県,三島市,安久144-3,,,,,,,
e1b6fe44-a5a6-4294-a5fd-8d6da27595ce,三島玉川店,4110835,静岡県,三島市,玉川247-1,,,,,,,
790facc3-90b4-4f91-91d2-39ed34b372cb,EXPASA足柄サービスエリア（上り線）店,4120023,静岡県,御殿場市,深沢1801-1,東名高速道路　EXPASA足柄（上り線）,,,,,,
a2555762-3081-4315-a3ad-d1e3d257c777,御殿場プレミアム・アウトレット店,4120023,静岡県,御殿場市,深沢1312,御殿場プレミアム・アウトレット EAST ZONE 2920区,,,,,,
e38e5395-d3b2-4852-89e9-d37201d1fd9a,御殿場萩原店,4120042,静岡県,御殿場市,萩原226-1,,,,,,,
caf777f8-c0ae-4ebe-952a-add5cfa41900,ラスカ熱海店,4130011,静岡県,熱海市,田原本町11-1,ラスカ熱海2階,,,,,,
6e2911b5-f75a-4a7c-99db-3cb8d482b833,イオンタウン富士南店,4160934,静岡県,富士市,鮫島118-10,イオンタウン富士南,,,,,,
4f283112-e400-4e2a-a97a-930ab010d214,富士高島店,4170048,静岡県,富士市,高島町68,,,,,,,
62e7ceaa-fe50-4d0a-9838-ba475752c145,イオンモール富士宮店,4180032,静岡県,富士宮市,浅間町1-8　,イオンモール富士宮,,,,,,
7436da8d-46da-401c-808e-851220bd8bdc,アクロスプラザ富士宮店,4180073,静岡県,富士宮市,弓沢町499,アクロスプラザ富士宮,,,,,,
52f78f95-c0a6-4c39-acce-e0c5171fe9ac,富士入山瀬店,4190204,静岡県,富士市,入山瀬503-3,,,,,,,
a4b3b692-3b3c-4847-bedf-573b492bc9f6,TSUTAYA BOOKSTORE 静岡店,4200031,静岡県,静岡市葵区,呉服町1-20,,,,,,,
745f2b75-18a0-410c-88d8-f662788031a9,MARK IS 静岡店,4200821,静岡県,静岡市葵区,柚木1026,MARK IS 静岡,,,,,,
d2973559-6da3-4a3a-83fa-7f6ab54cee36,静岡駅 新幹線ラチ内店,4200851,静岡県,静岡市葵区,黒金町47,ASTY静岡,,,,,,
7314f84e-2ba3-4549-9154-aae76a280492,ASTY静岡 西館店,4200851,静岡県,静岡市葵区,黒金町47,ASTY静岡,,,,,,
40707eaf-8132-4aca-93f2-6119d843652e,静岡御幸町店,4200857,静岡県,静岡市葵区,御幸町20,M20 2階,,,,,,
c2783731-7b40-48d6-9969-1c03af8f9188,静岡南瀬名店,4200915,静岡県,静岡市葵区,南瀬名町5-37,,,,,,,
097be31b-75fc-4111-b41c-ef58ec4f8e3e,富士川サービスエリア（下り線）店,4213305,静岡県,富士市,岩淵1348-3,東名高速道路 富士川サービスエリア（下り線）,,,,,,
5a8e20ac-1296-45a7-b0d3-362c7108a206,静岡草薙店,4228001,静岡県,静岡市駿河区,中吉田43-27,,,,,,,
e8365e4c-6844-4ec1-bcfc-fdb3548465b4,アピタ静岡店,4228042,静岡県,静岡市駿河区,石田1-5-1,アピタ静岡店,,,,,,
7449acd7-9030-4c6b-a549-52c6e48a63be,静岡中原店,4228058,静岡県,静岡市駿河区,中原430-1,,,,,,,
fa8df2b0-95b8-4690-bfd1-d44632d4972e,清水梅が岡店,4240938,静岡県,静岡市清水区,梅が岡6-7,,,,,,,
f820ee9c-63c3-41bc-87d1-881ca8340405,エスパルスドリームプラザ店,4240942,静岡県,静岡市清水区,入船町13-15,エスパルスドリームプラザ パークサイド2階,,,,,,
a94b73d9-24e3-45a0-bd0a-c5059967f709,焼津祢宜島店,4250047,静岡県,焼津市,東祢宜島5-27,,,,,,,
1935e70a-8cbb-49b8-bd75-cb02fe978388,焼津八楠店,4250091,静岡県,焼津市,八楠2-1-1,,,,,,,
f0478bf2-5ba2-4e9c-b40c-7937e46be155,藤枝蓮華寺池公園店,4260018,静岡県,藤枝市,本町1-2,,,,,,,
cf99bcbe-11bc-439a-b9e9-bf6a8068a34e,藤枝高柳店,4260041,静岡県,藤枝市,高柳1-8-42,,,,,,,
c5356387-81ef-4513-beed-a1dbde673ff9,島田中河町店,4270041,静岡県,島田市,中河町8966-5,,,,,,,
d52586b2-a66f-44b5-8a7b-a3704798ccf2,浜松新津町店,4300911,静岡県,浜松市中央区,新津町682-1,,,,,,,
e38cb5e0-448c-44b4-bb5c-90f108102327,浜松 メイワン エキマチウエスト店,4300926,静岡県,浜松市中央区,砂山町6-2,EKIMACHI WEST,,,,,,
2723b0cd-d449-4e27-b95a-92e09a877775,浜松駅 新幹線ラチ内店,4300926,静岡県,浜松市中央区,砂山町6-2,EKIMACHI WEST（浜松 メイワン エキマチウエスト店）,,,,,,
051241bf-86e9-47ba-8fb7-a3367618ffbe,浜松 メイワン 2階店,4300926,静岡県,浜松市中央区,砂山町6-1,,,,,,,
ac64cf46-7fca-4ad5-8627-73e3b450bcfc,ザザシティ浜松店,4300933,静岡県,浜松市中央区,鍛冶町15,ザザシティ浜松 西館,,,,,,
c8a5d774-8555-4963-95c8-5cfa3d781404,浜松城公園店,4300946,静岡県,浜松市中央区,元城町100-2,,,,,,,
97ef8fec-eabb-4bd6-8ea1-6486c8f52a04,浜名湖サービスエリア店,4311401,静岡県,浜松市浜名区,三ケ日町佐久米61-2,東名高速道路 浜名湖サービスエリア内,,,,,,
55ebb6ce-6f9d-4cfa-9a45-70f3aa4c68af,浜松半田山店,4313125,静岡県,浜松市中央区,半田山4-4-25,,,,,,,
5f23b2ec-fbba-4c1f-a9ce-ac7b52cd946b,浜松佐鳴台店,4328021,静岡県,浜松市中央区,佐鳴台3-52-34,,,,,,,
dc92fe88-e463-44ab-9678-56c2be235a2c,そよら浜松西伊場店,4328038,静岡県,浜松市中央区,西伊場町78-1,そよら浜松西伊場,,,,,,
80cd983a-8f68-4acd-85a8-4059d2831cc3,TSUTAYA 佐鳴台店,4328061,静岡県,浜松市中央区,入野町621-1,,,,,,,
0429b15e-6f9d-4007-9894-a5b0996e61e1,イオンモール浜松志都呂店,4328069,静岡県,浜松市中央区,志都呂2-37-1,,,,,,,
72305261-02d6-4643-bdea-9fbd69dd9f11,浜松葵東店,4338114,静岡県,浜松市中央区,葵東2-24-51,,,,,,,
d6c881a6-4548-44e2-9c9c-ddd176885615,プレ葉ウォーク浜北店,4340038,静岡県,浜松市浜名区,貴布祢1200,,,,,,,
f96e9bb3-608f-48c9-99a5-016262d973f5,イオンモール浜松市野1階店,4350052,静岡県,浜松市中央区,天王町諏訪1981-3,イオンモール浜松市野1階,,,,,,
6009523c-0b9e-4978-afa4-f17ff608c6dd,イオンモール浜松市野2階店,4350052,静岡県,浜松市中央区,天王町諏訪1981-3,イオンモール浜松市野2階,,,,,,
aba233a8-9113-4ccb-b431-c42670d588d9,掛川大池店,4360043,静岡県,掛川市,大池3028-1,,,,,,,
fcb9e020-239b-485e-a439-a10870a10a02,掛川細田店,4360048,静岡県,掛川市,細田280-1,,,,,,,
3bbfa7a1-f736-4fd3-b14b-13912dc558fb,ノブレスパルク袋井店,4370023,静岡県,袋井市,高尾3000,,,,,,,
d83338ea-cb86-4ad9-bfea-47151b373191,磐田見付店,4380086,静岡県,磐田市,見付6039-2,,,,,,,
f10da8f4-7597-4535-beb7-6c7189a7073f,ららぽーと磐田店,4380801,静岡県,磐田市,高見丘1200,ららぽーと磐田,,,,,,
4bd25ef3-4231-48eb-a74e-690769632894,豊橋ココラフロント店,4400888,愛知県,豊橋市,駅前大通1-55,ココラフロント,,,,,,
8cd261e5-26c2-4fb3-a75a-d3ab8299fe73,ホリデイ・スクエア豊橋店,4418061,愛知県,豊橋市,藤沢町141,,,,,,,
27d2dccc-85cd-4a34-bd2b-b2d82a39b46e,豊橋柱店,4418087,愛知県,豊橋市,牟呂町扇田53-1,,,,,,,
08209302-d7b8-47fd-9247-d8fef1715719,豊橋曙店,4418151,愛知県,豊橋市,曙町南松原6-4,,,,,,,
bc57c64b-b2d0-423e-88c4-c984f6418a39,豊川大堀店,4420013,愛知県,豊川市,大堀町335,,,,,,,
6efe8d60-5d23-4528-96b4-20d4f24772bf,豊川正岡店,4420823,愛知県,豊川市,正岡町流田506,,,,,,,
acfcc52b-7a10-4065-828b-f8941355e118,豊川下長山店,4420824,愛知県,豊川市,下長山町宮下7-1,,,,,,,
0704a60a-447e-40fc-ae1b-ffd590a115f8,イオンモール豊川店,4420848,愛知県,豊川市,白鳥町兎足1-16,イオンモール豊川,,,,,,
8d2a08aa-a4ca-40fc-97d0-9c5715bad875,カインズ蒲郡店,4430037,愛知県,蒲郡市,鹿島町浅井新田1-7,,,,,,,
14b07941-5898-468c-ba9f-d5ca708ed465,イオンタウン岡崎美合店,4440802,愛知県,岡崎市,美合町つむぎ南1-1,イオンタウン岡崎美合,,,,,,
074b82f1-3081-4ca0-a7f1-0372723acfeb,岡崎針崎店,4440827,愛知県,岡崎市,針崎町岡崎駅南土地区画整理事業27街区5,,,,,,,
e2dd8eb6-5162-4b0d-8d5e-01d5918a9810,イオンモール岡崎1階店,4440840,愛知県,岡崎市,戸崎町外山38-5,イオンモール岡崎1階,,,,,,
fdb81ad9-afb8-481c-94cf-2afba60f52a5,イオンモール岡崎3階店,4440840,愛知県,岡崎市,戸崎町外山38-5,イオンモール岡崎3階,,,,,,
7c88653b-132d-4631-9105-79791dd8f3b8,岡崎竜美店,4440875,愛知県,岡崎市,竜美西2-9-13,,,,,,,
fdadee8a-257b-49b6-9eb0-54346a914213,NEOPASA岡崎サービスエリア店,4442109,愛知県,岡崎市,宮石町六ツ田10-4　,新東名高速道路　岡崎サービスエリア内,,,,,,
c27149a2-7e66-4edb-82d5-710bef9647f7,西尾今川店,4450063,愛知県,西尾市,今川町下落21-1,,,,,,,
3a6f1f78-df9a-4dd0-86a1-269aa74e6a69,ヴェルサウォーク西尾店,4450064,愛知県,西尾市,高畠町3-23-9,ヴェルサウォーク西尾,,,,,,
bbb907aa-75a6-4bb5-b966-57425b33a866,西尾道光寺店,4450811,愛知県,西尾市,道光寺町西縄16-1,,,,,,,
3b104160-f08f-4334-8e01-2ba5ab34dd8d,安城百石店,4460044,愛知県,安城市,百石町１-5-9,,,,,,,
ffaafb15-c2c4-4b12-a74e-433a803b3303,三河安城店,4460058,愛知県,安城市,三河安城南町1-11-5,,,,,,,
0ae2728b-7f80-4a4e-8b3d-65bbc39f9a94,ららぽーと安城店,4460065,愛知県,安城市,大東町9-30,ららぽーと安城1階,,,,,,
1c9f5707-6976-4427-ac16-e055a8cab16b,安城篠目店,4460073,愛知県,安城市,篠目町肥田59-1,,,,,,,
0afc8d14-9338-4f30-afc7-32997d5b9597,碧南城山店,4470037,愛知県,碧南市,城山町1-81-3,,,,,,,
fc778b78-52e7-4a0a-9f51-ac3eb30e3779,刈谷東境店,4480007,愛知県,刈谷市,東境町松本15-2,,,,,,,
286cba97-5ad5-41cc-aa7c-83460a813449,刈谷松栄店,4480806,愛知県,刈谷市,松栄町2-7-5,,,,,,,
e68e0cb8-c112-4254-a6ee-980bef041b3b,名駅地下街 サンロード店,4500002,愛知県,名古屋市中村区,名駅4-7-25,名駅地下街サンロード,,,,,,
a1fa5770-a719-40b0-a7a2-05639e45f444,名駅地下街 ユニモール店,4500002,愛知県,名古屋市中村区,名駅4-5-26先,ユニモール,,,,,,
d782efb9-4b88-4125-8018-cc93c27c0945,名古屋スパイラルタワーズ店,4500002,愛知県,名古屋市中村区,名駅4-27-1,モード学園スパイラルタワーズ,,,,,,
83353b99-4504-4b89-8063-11eb990598c1,JR名古屋駅　広小路口店,4500002,愛知県,名古屋市中村区,名駅1-1-5　,JR名古屋駅構内,,,,,,
63d74933-b7d4-42b0-8690-f9a54d19370d,JR名古屋駅 新幹線南ラチ内店,4500002,愛知県,名古屋市中村区,名駅1-1-5　,JR名古屋駅構内,,,,,,
855352b1-5cf9-4402-8b61-624d9aad681c,ＪＲ名古屋駅 太閤通南口店,4500002,愛知県,名古屋市中村区,名駅1-1-4,,,,,,,
4c44baaf-2199-4a96-b2d0-7bbb5b24e436,JR名古屋駅 中央コンコース店,4500002,愛知県,名古屋市中村区,名駅1-1-4,JR名古屋駅 中央コンコース内,,,,,,
01fa1b14-2b9a-436b-a400-2a89e707543c,ジェイアール名古屋タカシマヤ店,4500002,愛知県,名古屋市中村区,名駅1-1-4,ジェイアール名古屋タカシマヤ7階,,,,,,
2254132c-ff62-4a15-ba8f-953009a44351,名古屋ＪＲセントラルタワーズ店,4500002,愛知県,名古屋市中村区,名駅1-1-4,ＪＲセントラルタワーズ 13F,,,,,,
70cdd1e3-baad-4cf5-851f-2689fcf4f37c,ＫＩＴＴＥ名古屋店,4500002,愛知県,名古屋市中村区,名駅1-1-1,,,,,,,
70661a00-0f3a-4b77-8c61-ba4d7da9cf8a,大名古屋ビルヂング店,4500002,愛知県,名古屋市中村区,名駅3-28-12,大名古屋ビルヂング地下1階,,,,,,
79b652b5-5d97-4c66-8993-37f5a50e64fc,名古屋 タカシマヤ ゲートタワーモール店,4500002,愛知県,名古屋市中村区,名駅1-1-3,タカシマヤ ゲートタワーモール１F,,,,,,
8a116dbc-4839-4362-aa5d-501371a4eb83,名古屋 JRゲートタワー店,4500002,愛知県,名古屋市中村区,名駅1-1-3,JRゲートタワー 15F,,,,,,
5d7265ae-8a36-49db-8414-3608374b17c7,名鉄百貨店名古屋店,4500002,愛知県,名古屋市中村区,名駅1-2-1,名鉄百貨店本店本館,,,,,,
c6b096ea-e247-4f1d-b5c4-af7efb43467c,名古屋則武新町1階店,4510051,愛知県,名古屋市西区,則武新町3-1-17,イオンモール Nagoya Noritake Garden,,,,,,
3765da8f-1a7d-47ae-8180-5aabaa9fe96e,名古屋則武新町2階店,4510051,愛知県,名古屋市西区,則武新町3-1-17,イオンモール Nagoya Noritake Garden,,,,,,
81fd90c4-41ee-4446-91c1-8a7e2350927a,上小田井mozoワンダーシティ 2階店,4520817,愛知県,名古屋市西区,二方町40,mozo ワンダーシティ,,,,,,
683bfbeb-1928-4279-a8fb-6413158a3cc6,上小田井mozoワンダーシティ 4階店,4520817,愛知県,名古屋市西区,二方町40,mozo ワンダーシティ,,,,,,
84264954-dd1e-41a8-a95a-c1cf23fec85f,名古屋グローバルゲート店,4530872,愛知県,名古屋市中村区,平池町4-60-12,グローバルゲート,,,,,,
de61fa89-0be7-4c45-aef2-bbd2b635eb49,名古屋みなと 蔦屋書店,4550018,愛知県,名古屋市港区,港明2-3-2,ららぽーと名古屋みなとアクルス,,,,,,
383fc4e6-e193-428a-992f-ee697f02c34a,イオンモール名古屋茶屋店,4550858,愛知県,名古屋市港区,西茶屋2-11,イオンモール名古屋茶屋,,,,,,
3dc5a86a-3047-4264-a431-7cdb9fb3635b,ららぽーと名古屋みなとアクルス店,4550018,愛知県,名古屋市港区,港明2-3-2,ららぽーと名古屋みなとアクルス,,,,,,
c87e198f-ecc7-4c0c-a9e0-1034a8275aaf,金山駅南口店,4560002,愛知県,名古屋市熱田区,金山町1-2-26,ヤガミ金山ビル,,,,,,
04e3b749-22af-4bb6-a91f-98bfcfac7703,ミュープラット神宮前店,4560032,愛知県,名古屋市熱田区,三本松町18-4,μPLAT神宮前2階,,,,,,
2a5bad2c-f7ac-4722-94db-8f3a57f05d3d,イオンモール熱田1階店,4560023,愛知県,名古屋市熱田区,六野1-201,イオンモール熱田 1階,,,,,,
f3e126fe-4d22-47d1-93c7-8436afa332fa,イオンモール熱田3階店,4560023,愛知県,名古屋市熱田区,六野1-201,イオンモール熱田 3階,,,,,,
816eb300-ba55-4325-9102-a9fb5de67097,大同病院店,4570818,愛知県,名古屋市南区,白水町9,大同病院,,,,,,
4b683831-1169-4b94-b764-cd4eedd9b0a7,名古屋港東通店,4570834,愛知県,名古屋市南区,港東通1-32,,,,,,,
e1e0446b-439a-45fc-874b-33619252400c,名古屋滝ノ水店,4580016,愛知県,名古屋市緑区,上旭2-201,,,,,,,
e0102068-7dae-4fb2-8f1d-49fa527f587b,名古屋鳴海店,4580842,愛知県,名古屋市緑区,鳴海町上ノ山12-24,,,,,,,
50f3ef6c-bd9f-4529-bbed-7335305b08b7,アピタ鳴海店,4580844,愛知県,名古屋市緑区,鳴海町伝治山3-9,アピタ鳴海店,,,,,,
8b5ee502-9a70-42a0-9a05-ebc58c0bc95c,ヒルズウォーク徳重ガーデンズ店,4580852,愛知県,名古屋市緑区,元徳重1-505,ヒルズウォーク徳重ガーデンズ,,,,,,
a4d3f08a-8f23-40f3-98fd-60a373b70856,イオンモール大高1階店,4598016,愛知県,名古屋市緑区,南大高2-450,イオンモール大高 1階,,,,,,
e6da087a-c706-4d4e-9c7a-2031a0926308,イオンモール大高3階店,4598016,愛知県,名古屋市緑区,南大高2-450,イオンモール大高 3階,,,,,,
508472b8-24cf-4423-9adf-21fd1bfbd0f8,桜通り大津店,4600002,愛知県,名古屋市中区,丸の内3-20-17,KDX桜通ビル 1F,,,,,,
1813801e-cca2-40fb-a67d-3dde7b6278e4,三井住友銀行名古屋ビル店,4600003,愛知県,名古屋市中区,錦2-18-19,三井住友銀行名古屋ビル 1F,,,,,,
cdac426c-fdfa-4ef7-84a7-1b29d8fba718,栄広小路店,4600003,愛知県,名古屋市中区,錦3-24-24,錦324ビル,,,,,,
83d3b443-d341-4e11-9ac8-a8f84ca1d4f5,名古屋インターシティ伏見店,4600003,愛知県,名古屋市中区,錦1-11-11,名古屋インターシティ B1F,,,,,,
0ad1b6e4-6958-4771-b21d-ea84edfcf4f5,ヨリマチFUSHIMI店,4600003,愛知県,名古屋市中区,錦2-16-24,ヨリマチFUSHIMI,,,,,,
3fe7700d-8271-4f50-8e5e-08d8913873d8,栄セントラルパーク店,4600003,愛知県,名古屋市中区,錦3-15-13先,セントラルパーク地下街,,,,,,
4faea55f-f257-48e5-96c0-c735db1169f3,栄 チェリープラザ店,4600008,愛知県,名古屋市中区,栄3-19-8,栄ミナミ平和ビル,,,,,,
15c51ae8-c06a-4b74-8a24-d3c4c74f3dfa,栄ラシック店,4600008,愛知県,名古屋市中区,栄3-6-1,,,,,,,
c2ab23c6-faef-43f4-beda-54fffaabc366,栄大津通店,4600008,愛知県,名古屋市中区,栄3-27-7,サンサカエビル,,,,,,
5474c897-19f7-4626-b06a-29b587260e47,名古屋久屋南店,4600008,愛知県,名古屋市中区,栄3-31-10,松坂屋久屋南パークテラス,,,,,,
7f96dcb2-016d-4b4f-80b9-ef12ad4733e0,名古屋パルコ 西館店,4600008,愛知県,名古屋市中区,栄3-29-1,名古屋パルコ,,,,,,
d15613c6-7669-4514-be49-46176f6a7839,名古屋大須万松寺店,4600011,愛知県,名古屋市中区,大須3-31-14,山惣第２ビル,,,,,,
8c8128ae-c1c5-44b9-b46e-8c6f830abd5d,東別院店,4600016,愛知県,名古屋市中区,橘2-903,,,,,,,
72055d0b-81c3-4745-9807-de9e0171e08c,アスナル金山1階店,4600022,愛知県,名古屋市中区,金山1-17-1,アスナル金山,,,,,,
e2918c87-509f-427c-9b99-ea54331d1a1b,アスナル金山3階店,4600022,愛知県,名古屋市中区,金山1-17-1,アスナル金山,,,,,,
56fbf58d-3703-4c85-ad1f-0787d5b9c9af,名古屋 伏見 ＡＴビル店,4600003,愛知県,名古屋市中区,錦1-18-22,名古屋ATビル,,,,,,
8fd565ba-54d5-4a42-b7b1-a601bc1a01da,新栄葵町店,4610004,愛知県,名古屋市東区,葵1-21-4,,,,,,,
d73f05c8-10ab-4b97-be22-499053133479,東山線千種駅店,4610004,愛知県,名古屋市東区,葵3-15-21先,地下鉄千種駅,,,,,,
918bdd43-72b1-4e5e-b763-91448247468b,栄公園 オアシス２１店,4610005,愛知県,名古屋市東区,東桜1-11-1,オアシス21,,,,,,
b2ecb9e7-fb94-4bcd-9b76-6002bb503ddb,ASTY大曽根店,4610022,愛知県,名古屋市東区,東大曽根町46-6,ASTY大曽根,,,,,,
603f7e9a-75f7-4a3b-8437-256435ea64a0,イオンモールナゴヤドーム前店,4610048,愛知県,名古屋市東区,矢田南4-102-3,イオンモールナゴヤドーム前,,,,,,
852f846b-3bf9-4c66-928b-b783f0ae8d72,イオンモールナゴヤドーム前フードコート店,4610048,愛知県,名古屋市東区,矢田南4-102-3,,,,,,,
fe08bb4b-0747-48bd-882b-74ada123783c,名城公園店,4620846,愛知県,名古屋市北区,名城1-4-1,tonarino,,,,,,
eda6142e-5690-40f3-8537-333dcf6cd4e7,そよら上飯田店,4620864,愛知県,名古屋市北区,織部町1-1,そよら上飯田,,,,,,
6bd5ae59-c705-4e72-b28f-ea2977307c45,名古屋志段味店,4630001,愛知県,名古屋市守山区,上志段味羽根528,,,,,,,
526c1f62-6c8f-4093-9103-138acefd9d34,草叢BOOKS 新守山店,4630070,愛知県,名古屋市守山区,新守山2830,アピタ新守山,,,,,,
f0374096-7975-4c63-8ef6-f61df5d39696,アピタ千代田橋店,4640011,愛知県,名古屋市千種区,千代田橋2-1-1,アピタ千代田橋店,,,,,,
7eee951c-dd73-467e-8458-9b543a2f7039,名古屋自由ヶ丘店,4640021,愛知県,名古屋市千種区,鹿子殿14-8,,,,,,,
9ce863fa-74f3-4448-a848-fd734ccecdb2,星が丘テラス店,4640802,愛知県,名古屋市千種区,星が丘元町16-50,星が丘テラスEAST,,,,,,
90d56313-4057-4dfa-af80-f4313344368d,本山駅前店,4640807,愛知県,名古屋市千種区,東山通1-1-1,,,,,,,
d9f836d6-d653-4a18-ae39-2373788b10c7,覚王山店,4640821,愛知県,名古屋市千種区,末盛通1-1,末盛ビル,,,,,,
6e4b7987-44c4-41b4-a4c6-3e9263685a85,イオンタウン千種店,4640858,愛知県,名古屋市千種区,千種2-16-13,イオンタウン千種,,,,,,
d1b57372-0bb7-4b9d-8b8f-f9e53ca182cf,名古屋大学附属図書館店,4640814,愛知県,名古屋市千種区,不老町,名古屋大学附属中央図書館,,,,,,
1b9f0023-2ad7-47b6-8155-3b57cd3c9e17,名古屋猪子石店,4650021,愛知県,名古屋市名東区,猪子石2-804,,,,,,,
133449be-b21d-47e3-b57d-2bfb20157855,藤が丘effe店,4650032,愛知県,名古屋市名東区,藤が丘170-4,effe,,,,,,
1e5bd18e-64ec-44ee-8b52-9ab922e63310,御器所駅前店,4660027,愛知県,名古屋市昭和区,阿由知通4-2-1,,,,,,,
02f7340c-d841-4d06-a416-8249a4bdb659,名古屋高辻店,4660058,愛知県,名古屋市昭和区,白金3-11-11,,,,,,,
59654dbd-6da2-48ab-8456-91534f2a6542,イオン八事店,4660834,愛知県,名古屋市昭和区,広路町石坂2-1,イオン八事B2階,,,,,,
ebc28501-9901-48d2-ac17-0de116d5e7a6,中京大学 名古屋キャンパス店,4660825,愛知県,名古屋市昭和区,八事本町101-2,中京大学名古屋キャンパスセンタービルＧ階,,,,,,
3e7a4e7f-1f29-4f2d-aad0-80d4ffe549fb,名古屋市立大学病院店,4670001,愛知県,名古屋市瑞穂区,瑞穂町川澄1,名古屋市立大学病院　外来診療棟,,,,,,
bf75b12a-c85c-4189-939c-e17c84272033,プライムツリー赤池店,4700126,愛知県,日進市,赤池町箕ノ手1,プライムツリー赤池,,,,,,
8393d327-b7ee-46c6-9046-6d5242600ea6,日進香久山店,4700134,愛知県,日進市,香久山4-201-3,MiO香久山 con*te uno,,,,,,
9cf6cc50-5ee7-4d3d-bbb2-9068ee626b9b,日進竹の山店,4700136,愛知県,日進市,竹の山2-2306,,,,,,,
c63c1326-ed95-4a86-99e1-8037da2fc6a6,ららぽーと愛知東郷3階店,4700186,愛知県,愛知郡,東郷町東郷中央土地区画整理事業62街区1・3,ららぽーと愛知東郷3階(店舗番号3470),,,,,,
fcd17829-83d0-4dae-86d9-7c2a1d4fb7ab,TSUTAYA BOOKSTORE ららぽーと愛知東郷店,4700186,愛知県,愛知郡,東郷町東郷中央土地区画整理事業62街区1・3,ららぽーと愛知東郷2階(店舗番号23601),,,,,,
bbc3f579-3141-4a6f-947a-686380de8a57,みよし店,4700224,愛知県,みよし市,三好町中島70-1,,,,,,,
84fbe942-7c1d-4fe7-881f-fc475d01a69a,豊田上原店,4700341,愛知県,豊田市,上原町一丁田74-1,,,,,,,
afc73b27-8435-4658-8b78-8eb1d0274d1d,豊明店,4701101,愛知県,豊明市,沓掛町十三塚2,,,,,,,
e356d39a-8063-49ad-90d6-d713b0f98a21,豊田渡刈店,4701202,愛知県,豊田市,渡刈町1-253-1,ハビット豊田豊栄町,,,,,,
cdf7604e-9a44-4285-9184-10ef65749388,イオンモール東浦1階店,4780001,愛知県,知多郡,東浦町緒川旭13-2,イオンモール東浦 1階,,,,,,
f6b9f2df-fd48-4465-805c-4ecadc7a3638,イオンモール東浦2階店,4780001,愛知県,知多郡,東浦町緒川旭13-2,イオンモール東浦 2階,,,,,,
c244fa81-d6d4-4dcd-a901-83dcf8bf0336,豊田鞍ケ池公園店,4710001,愛知県,豊田市,池田町五反田566-1,鞍ケ池公園,,,,,,
09ee94ab-a062-4185-9f3a-c04d76424585,豊田T-FACE店,4710026,愛知県,豊田市,若宮町1-57-1,T-FACE A館2階,,,,,,
bf2608f2-a233-456d-aaae-a1877b586008,豊田元町店,4710842,愛知県,豊田市,土橋町1-21,MEGA ドン・キホーテ UNY豊田元町,,,,,,
37447e26-7df2-4e06-a8ac-5b40f42fa83b,知立上重原店,4720026,愛知県,知立市,上重原町恩田214,,,,,,,
c715185c-5603-44f5-8773-16830f48a252,ギャラリエアピタ知立店,4720045,愛知県,知立市,長篠町大山18-1,ギャラリエアピタ知立,,,,,,
004a9da9-6851-4141-bca8-3a4d6e7d5e41,豊田住吉店,4730905,愛知県,豊田市,住吉町平和27-1,,,,,,,
649e53cf-e6cb-47e9-8758-32cb814e81fe,大府柊山店,4740053,愛知県,大府市,柊山町3-401,,,,,,,
63d9c3e1-6cf7-4112-9284-2922b8e96732,半田住吉店,4750903,愛知県,半田市,出口町１-40-8,,,,,,,
9dcb4e1b-7ffc-4817-b833-7d69c6dc72a0,半田山代店,4750974,愛知県,半田市,山代町2-104-1,,,,,,,
7be1c73b-03eb-4c8a-b188-d4e7f4f36508,ラスパ太田川店,4770031,愛知県,東海市,大田町下浜田102-1,ラスパ太田川ショッピングセンター (南館1F),,,,,,
147e76a8-6709-484b-8e02-3da6aebf8d02,東海加木屋店,4770032,愛知県,東海市,加木屋町石田72,,,,,,,
3b27fb1b-e2f7-43e3-8d6c-1b1c6e2ca259,知多信濃川店,4780001,愛知県,知多市,八幡竹後20,,,,,,,
b4bf142e-f2cb-4bb6-ae6e-da509f130c5e,中部国際空港セントレア店,4790881,愛知県,常滑市,セントレア1-1,中部国際空港セントレア(4F),,,,,,
f434cf1e-5a38-40c6-9e65-6c8f9282aafc,中部国際空港出発ターミナル内店,4790881,愛知県,常滑市,セントレア1-1,中部国際空港セントレア(3F),,,,,,
8c6f39d3-6c1a-42a4-a6ca-4bbb73094e6d,中部国際空港第２セントレアビル店,4790881,愛知県,常滑市,セントレア1-1,第2セントレアビル,,,,,,
362377d4-e905-44af-b16c-900b7e768712,中部国際空港セントレアFLIGHT OF DREAMS店,4790881,愛知県,常滑市,セントレア1-1,FLIGHT OF DREAMS,,,,,,
e187ca22-9a3e-4c55-8039-8e91f748ea50,イオンモール常滑店,4790882,愛知県,常滑市,りんくう町2-20-3,イオンモール常滑,,,,,,
946614f4-c7cc-4e1f-946d-db5d283776f5,イオンモール扶桑店,4800105,愛知県,丹羽郡,扶桑町南山名高塚5-1,イオンモール扶桑,,,,,,
a93d4a91-a2c3-43af-8a91-a8bb4e1c17ef,名古屋 アピタ長久手店,4801124,愛知県,長久手市,戸田谷901-1,アピタ長久手店,,,,,,
6858ab13-0df7-4295-9706-78f9e1459b1b,イオンモール長久手店,4801128,愛知県,長久手市,勝入塚501番地,イオンモール長久手,,,,,,
33c01506-bed0-4784-bec9-cd88a5556fbc,長久手南けやき通り店,4801146,愛知県,長久手市,片平2-1702,,,,,,,
996c7b00-b1f6-4569-bec8-12082ac00555,愛知医科大学店,4801103,愛知県,長久手市,岩作雁又1-1,,,,,,,
3eed9e04-a429-4227-aaa1-66293baeeb7e,北名古屋店,4810014,愛知県,北名古屋市,井瀬木鴨80-1,,,,,,,
85539e1c-5fed-4dc4-9c1c-a7c2bc454212,VIA MALL アピタ江南西店,4838342,愛知県,江南市,松竹町上野205,VIA MALL アピタ江南西,,,,,,
5e72f003-a7dd-46a8-bf71-37c5ba11d3c8,犬山梅坪店,4840074,愛知県,犬山市,梅坪2-116,,,,,,,
d106f10e-7c7f-4ba5-88a6-852a2958e13f,小牧市中央図書館店,4850029,愛知県,小牧市,中央1-234,中央図書館,,,,,,
420a998a-1c28-4138-a061-a926dd8db019,小牧川西店,4850045,愛知県,小牧市,川西1-1-5,,,,,,,
ad787739-a595-4680-9cd6-f93228c236d4,春日井東野店,4860817,愛知県,春日井市,東野町9-20-15,,,,,,,
ca99f3c4-748c-44e9-99ae-a95b9d3aa2a3,春日井南下原店,4860841,愛知県,春日井市,南下原町3-12-4,,,,,,,
7d40783b-c271-47d7-ab08-cfc6a2f20eec,イーアス春日井店,4860842,愛知県,春日井市,六軒屋町東丘22,イーアス春日井,,,,,,
78af905e-6552-43e8-8bef-34b20d2b1cd8,TSUTAYA 春日井店,4860917,愛知県,春日井市,美濃町2-3,,,,,,,
7bb85950-28c6-4be4-a40b-ed7bd1c55d3e,春日井勝川店,4860926,愛知県,春日井市,小野町2-1-1,,,,,,,
48f9dacb-e324-45d5-9ca0-3df28fd18898,アピタ高蔵寺店,4870011,愛知県,春日井市,中央台2-5,アピタ高蔵寺店,,,,,,
3cda97e1-335c-4ca8-a537-d4230bea1c6f,中部大学店,4870027,愛知県,春日井市,松本町1200,,,,,,,
ceba5550-6fe5-42ae-91c7-ad7ba42f1bc1,瀬戸西長根店,4890929,愛知県,瀬戸市,西長根町68-1,,,,,,,
5b7531ff-1554-4a36-a5b4-3b2bcd5ad7e9,TSUTAYA 瀬戸店,4890971,愛知県,瀬戸市,西本地町2-222-1,,,,,,,
fddb22df-c2d0-481a-ae0a-f262f474c8d4,あま篠田店,4901211,愛知県,あま市,篠田鹿造3,,,,,,,
022ff049-31c2-49e2-8922-ff8e21a12232,テラスウォーク一宮店,4910022,愛知県,一宮市,両郷町1-2,テラスウォーク一宮,,,,,,
3754c15c-fb9d-43d2-86f9-172a0c87aa15,一宮富士店,4910024,愛知県,一宮市,富士3-1-12,,,,,,,
5c093a52-a8f9-4a1e-ae8e-b2f94e7dcd7b,尾張一宮パーキングエリア（下り線）店,4910815,愛知県,一宮市,千秋町塩尻14-2,尾張一宮パーキングエリア（下り線）,,,,,,
5f1aa196-8841-42b2-be66-7460e3f01ed8,尾張一宮パーキングエリア（上り線）店,4910826,愛知県,一宮市,丹陽町三ツ井2709-6,尾張一宮パーキングエリア（上り線）,,,,,,
8f5b18ad-dbf7-4602-b432-41877ac67db6,稲沢桜木宮前店,4928273,愛知県,稲沢市,桜木宮前町77-1,,,,,,,
10f6ce16-21e6-4d26-aded-4d8a6d462acd,アピタタウン稲沢店,4928275,愛知県,稲沢市,天池五反田町1,アピタタウン稲沢,,,,,,
0e7380be-2fb2-43b7-b048-aed9ae38d3f2,リーフウォーク稲沢店,4928142,愛知県,稲沢市,長野7-1-2,リーフウォーク稲沢,,,,,,
cce45216-77d3-440c-95da-44cf4656ae53,イオンモール木曽川店,4930001,愛知県,一宮市,木曽川町黒田南八ツヶ池25-1,,,,,,,
16a0b663-4f4a-47b4-b5e7-e39b9b168153,一宮木曽川店,4930007,愛知県,一宮市,木曽川町外割田四の通り131,,,,,,,
ca7a0dc3-ac4e-414b-a281-1d19565098e2,津島大坪店,4960012,愛知県,津島市,大坪町蛤田28-1,,,,,,,
c9b012e6-6728-47d0-ba7e-af5deadf30d4,天王川公園店,4960853,愛知県,津島市,宮川町1-1,天王川公園,,,,,,
c82ee597-de77-408d-872a-1d30b4651663,愛西店,4960924,愛知県,愛西市,善太新田町十二上57,,,,,,,
1b49536d-ab76-4fa6-bf58-2bf26025eeb0,アピタ四日市店,5100075,三重県,四日市市,安島1-3-31,トナリエ四日市,,,,,,
cc8cd4bc-e43e-42f2-8158-eeac5fc3c091,イオンタウン四日市泊店,5100883,三重県,四日市市,泊小柳町4-5,イオンタウン四日市泊,,,,,,
7912b306-a275-4c9d-a758-51f476b2f63b,四日市中央緑地店,5100886,三重県,四日市市,日永東1-3-21,中央緑地,,,,,,
66cb82b4-35f6-40e6-8e7e-52bea72c989c,菰野町店,5101232,三重県,三重郡,菰野町宿野神明田325-2,,,,,,,
a27ac393-0159-4cab-aa7a-2a06dec77a82,イオンモール四日市北店,5108016,三重県,四日市市,富州原町2-40,イオンモール四日市北,,,,,,
7be784af-94d4-46be-af50-e216dfb6c446,イオンモール東員店,5110255,三重県,員弁郡,東員町長深510-1,イオンモール東員,,,,,,
6eeba3e5-2a1c-46f7-b6ba-d2b38727c9e7,イオンモール桑名店,5110863,三重県,桑名市,新西方1-22,イオンモール桑名,,,,,,
0f4e93f8-2a29-49a1-8420-54917494396b,桑名サンシパーク店,5110947,三重県,桑名市,大仲新田111-1,桑名サンシパーク,,,,,,
99bbd799-4715-47e1-ad4b-dd87aefe8ba5,ジャズドリーム長島店,5111135,三重県,桑名市,長島町浦安368,三井アウトレットパーク ジャズドリーム長島,,,,,,
ef8ad311-8f37-4c20-80b1-e20a038dacc6,EXPASA御在所サービスエリア（下り線）店,5120906,三重県,四日市市,山之一色町乱取口1491-2　,東名阪自動車道　EXPASA御在所(下り線）,,,,,,
41439551-036d-4fce-a52b-7edb7a461747,EXPASA御在所サービスエリア(上り線)店,5120906,三重県,四日市市,山之一色町池の谷口1569-2,東名阪自動車道　EXPASA御在所(上り線),,,,,,
2153f2bb-50c6-428a-9ff2-627e5d1afd2d,四日市尾平店,5120921,三重県,四日市市,尾平町天王川原1863-1,,,,,,,
407d0d06-a382-4565-af90-4c6db138876a,TSUTAYA 鈴鹿中央通店,5130805,三重県,鈴鹿市,算所町417-1,,,,,,,
cd428325-9097-4133-b46f-f115329ddc6e,鈴鹿平田店,5130806,三重県,鈴鹿市,算所1-3-8,,,,,,,
eb734828-02ef-471a-98b1-cf231bbf5025,鈴鹿玉垣店,5130813,三重県,鈴鹿市,北玉垣町細田1681-1,,,,,,,
dd3b127b-c861-4711-9d48-fd055cb82aff,イオンモール鈴鹿店,5130834,三重県,鈴鹿市,庄野羽山4-1-2,,,,,,,
ea14fc37-bcb4-49c4-83cf-279d75be8845,ベイスクエア津店,5140815,三重県,津市,藤方716,BAY SQUARE Tsu,,,,,,
1cc22cb6-5167-42ec-8848-b2146a7fcb50,イオンモール津南店,5140817,三重県,津市,高茶屋小森町145,イオンモール津南,,,,,,
ee44c4c8-ae6d-4f47-80d1-42c664bccaaa,津高茶屋店,5140817,三重県,津市,高茶屋小森町981-6,,,,,,,
183bd1ca-6c1d-4beb-9e03-9a663604b1ec,久居インターガーデン店,5141101,三重県,津市,久居明神町風早2533,久居インターガーデン,,,,,,
50a5f143-f72c-4e12-8557-84f874a97667,イオンモール明和店,5150348,三重県,多気郡,明和町中村1223,イオンモール明和,,,,,,
2cd1ebe5-502c-414d-b4ab-36482519e059,松阪塚本店,5150811,三重県,松阪市,塚本町28-1,,,,,,,
ebb126d3-fba0-4a52-a840-2d9242ed8221,松阪川井店,5150818,三重県,松阪市,川井町772-31,,,,,,,
2c24b0f0-e5e8-402e-9d75-879f8d70f3ed,イオンタウン伊勢ララパーク店,5160007,三重県,伊勢市,小木町538,イオンタウンイセララパーク,,,,,,
696426e7-d55a-4c1d-a749-0721a43f0976,伊勢 内宮前店,5160024,三重県,伊勢市,宇治今在家町中賀集楽37-4,,,,,,,
ad949da8-2792-444f-8fa9-74e75bbf0617,伊勢御薗店,5160804,三重県,伊勢市,御薗町長屋2223,,,,,,,
00f60e3a-d7f9-4a65-8ab4-16a7ed67171b,イオンタウン伊賀上野店,5180823,三重県,伊賀市,四十九町1850,イオンタウン伊賀上野,,,,,,
0ab1120c-8ae8-4337-8524-563e129cf2c8,ブランチ大津京店,5200021,滋賀県,大津市,二本松1-1,ブランチ大津京,,,,,,
d6b07c6c-7489-4545-91ef-e664e315456a,ビエラ大津店,5200055,滋賀県,大津市,春日町1-3,,,,,,,
99992444-a2d4-4d05-a7bc-4bf7f4475055,フォレオ大津一里山店,5202153,滋賀県,大津市,一里山7-1-1,フォレオ大津一里山1階,,,,,,
4e1e1457-7ed4-43f8-8542-cfe6cd238e77,三井アウトレットパーク滋賀竜王店,5202551,滋賀県,蒲生郡,竜王町薬師砂山1178-694,三井アウトレットパーク滋賀竜王,,,,,,
ff4adf62-18e8-424d-9ed6-46e8884a3605,ビバシティ彦根1階 ビバマルシェ店,5220044,滋賀県,彦根市,竹ヶ鼻町43-1,ビバシティ彦根1階,,,,,,
41f219b5-632e-42bc-99e8-d21597f3707a,カインズモール彦根店,5220069,滋賀県,彦根市,馬場2-1-1,,,,,,,
b020fa23-8cc6-4f64-9dd7-0309062c9563,ビバシティ彦根店,5220201,滋賀県,彦根市,高宮町1330-2,ビバシティ彦根,,,,,,
e24b0f67-183c-4c8f-bfd4-9a8aff20afe7,多賀サービスエリア（上り線）店,5220342,滋賀県,犬上郡,多賀町敏満寺62-2,多賀サービスエリア（上り線）,,,,,,
0f5c900a-5951-4b30-8705-facf20b9eda9,EXPASA多賀サービスエリア（下り線）店,5220342,滋賀県,犬上郡,多賀町敏満寺66-11,名神高速道路　EXPASA多賀（下り線）,,,,,,
66a12897-fe76-4195-802f-be5b4f0a6aba,近江八幡店,5230896,滋賀県,近江八幡市,鷹飼町北2-3-11,,,,,,,
8c439203-4502-488a-b656-ba1971b0a3c8,草津駒井沢店,5250014,滋賀県,草津市,駒井沢町18,,,,,,,
5a039b6f-8d87-45b7-92d7-29f1714140e3,草津A・SQUARE店,5250025,滋賀県,草津市,西渋川1-23-23,,,,,,,
958150c2-550e-4c80-b308-5526ada12dc8,草津国道１号店,5250034,滋賀県,草津市,草津1-20-20,,,,,,,
3cca4851-1df5-4d76-bd12-1e74cbaf2f62,南草津駅西口店,5250050,滋賀県,草津市,南草津2-1-25,,,,,,,
b4c95c0d-89bf-4a33-8015-bde354b02347,南草津かがやき通り店,5250059,滋賀県,草津市,野路6-6-5,,,,,,,
9a0076cd-3e6c-4e07-8bf3-406e84c5a5ea,イオンモール草津店,5250067,滋賀県,草津市,新浜町300,イオンモール草津,,,,,,
45885193-49cf-4b4a-a1a7-4efdf133943a,近鉄草津店,5250026,滋賀県,草津市,渋川1-1-50,近鉄百貨店草津店2階,,,,,,
225f078a-39f0-4f86-8dd3-92f8d8473d72,滋賀長浜店,5260846,滋賀県,長浜市,川崎町265,,,,,,,
238f6727-8b8b-4eb8-b139-f0f19fbda80a,東近江八日市店,5270022,滋賀県,東近江市,八日市上之町7-40,,,,,,,
b9de76e7-651c-445e-b6b3-0edd4370613b,甲賀水口店,5280005,滋賀県,甲賀市,水口町水口6004-1,,,,,,,
a60bd77c-d2b3-4c62-885e-53d165e523dd,京都信用金庫本店ビル店,6008005,京都府,京都市下京区,四条通柳馬場東入立売東町7,京都信用金庫本店ビル,,,,,,
db8a428d-e5c7-4833-ae56-50b6e6767f1c,京都四条通ヤサカビル店,6008006,京都府,京都市下京区,四条通柳馬場西入ル,立売中之町106 ヤサカ四条ビル,,,,,,
6ebfa5b7-b04e-4482-9ac5-34ddc465ecd7,ＬＡＱＵＥ四条烏丸店,6008009,京都府,京都市下京区,四条通室町東入函谷鉾町101,アーバンネット四条烏丸ビル,,,,,,
9bc5f3fa-757a-4b05-b88e-f9a8ff39660f,JR京都駅 新幹線中央口店,6008214,京都府,京都市下京区,東塩小路高倉町8-3,JR東海京都駅構内 ASTY京都 2階,,,,,,
cc38de11-137b-4921-beb8-a057fa6c1d5c,京都Porta店,6008175,京都府,京都市下京区,烏丸通塩小路下ル,東塩小路町902 京都ポルタ駅前地下街,,,,,,
9d80e02d-6b0d-45c9-ad5c-b22735146e22,京都タワー サンド店,6008175,京都府,京都市下京区,烏丸通七条下ル,東塩小路町721-1　京都タワービル,,,,,,
1d0ae57a-3896-4e06-9766-83cae70c2b52,JR京都駅 新幹線改札内店,6008216,京都府,京都市下京区,東塩小路町680-6,JR-PLUS京都支店,,,,,,
2c765299-cc05-47b7-9fa4-214d47fd357f,JR京都駅 西口店,6008175,京都府,京都市下京区,烏丸通塩小路下ル,東塩小路町 JR京都駅2階 橋上南北自由通路,,,,,,
e66f9f2f-b315-4106-8bb7-0c4dddff174b,京都Porta イースト店,6008175,京都府,京都市下京区,烏丸通塩小路下ル,東塩小路町902 京都ポルタ駅前地下街,,,,,,
0f6e3a45-37ba-4800-8908-9f218d10cfd1,からすま京都ホテル店,6008175,京都府,京都市下京区,烏丸通綾小路下ル,二帖半敷町652 からすま京都ホテル,,,,,,
62067927-554f-46b8-bb4d-f9c6dd563f56,TSUTAYA 京都リサーチパーク店,6008815,京都府,京都市下京区,中堂寺粟田町91　,京都リサーチパーク 9号館,,,,,,
ee3ac0a8-1b50-4b45-8132-d8f388314143,ビバスクエア京都 梅小路公園店,6008835,京都府,京都市下京区,観喜寺町,梅小路公園内 JR梅小路京都西駅前,,,,,,
ab691efa-6d4d-42fd-8eb1-f0475866b738,京都久世店,6018205,京都府,京都市南区,久世殿城町453-2,,,,,,,
282e050d-6754-436a-a587-84ecc69198d7,イオンモールKYOTO店,6018417,京都府,京都市南区,西九条鳥居口町1,,,,,,,
2be19d19-f931-4481-ab01-c9c62e911537,イオンモール京都桂川1階店,6018211,京都府,京都市南区,久世高田町376-1,イオンモール京都桂川　1階,,,,,,
0292d2db-978a-41f5-acd8-aa610221653b,イオンモール京都桂川2階店,6018211,京都府,京都市南区,久世高田町376-1,イオンモール京都桂川 2階,,,,,,
8146af2f-73c7-4b0b-b20a-7b9ade68b23a,イオンモール北大路店,6038142,京都府,京都市北区,小山北上総町49-1,イオンモール北大路,,,,,,
0d464ae8-bfbf-4e39-ae89-34f20b2acd78,京都三条大橋店,6048004,京都府,京都市中京区,三条通河原町東入ル中島町113,近江屋ビル 1F,,,,,,
b267a080-99d0-47db-8a46-35bf118fb1d0,京都BAL店,6048032,京都府,京都市中京区,河原町通三条下ル山崎町251,京都BAL　3F,,,,,,
c57e87b5-ff46-4537-9e6f-b5dac4caf60d,京都新京極店,6048035,京都府,京都市中京区,新京極通三条下ル,桜之町421　小町ビル,,,,,,
72931105-dd58-4045-8904-6d3987724dfc,京都烏丸六角店,6048134,京都府,京都市中京区,六角通東洞院西入,堂之前町254,,,,,,
a79ab727-0541-4c83-a98e-bbca586f793c,京都錦小路店,6048145,京都府,京都市中京区,東洞院通蛸薬師下ル,元竹田町651,,,,,,
ae6e0022-e64e-42b8-9c02-0d1314e112a8,京都三条烏丸ビル店,6048166,京都府,京都市中京区,三条通烏丸西入ル,御倉町85-1 ＫＤＸ京都烏丸ビル 1F,,,,,,
95970c41-038f-4c08-b9b6-0bb9263ad417,コトチカ烏丸御池店,6048171,京都府,京都市中京区,虎屋町地先,,,,,,,
2a0d675c-fff5-4920-8dd4-691066f73fc7,BiVi二条店,6048415,京都府,京都市中京区,西ノ京栂尾町107,BiVi二条1階,,,,,,
44d9b1f1-51b6-4b8b-bf66-6c7dc2a50826,河原町オーパ店,6048505,京都府,京都市中京区,河原町通四条上ル米屋町385,河原町オーパ地下1階,,,,,,
bde71440-4268-4ff6-a105-597135c762ab,京都祇園ホテル店,6050074,京都府,京都市東山区,祇園町南側555,祇園ホテル 1F,,,,,,
9b044c3b-f9bf-4a7b-8de5-ef4a8910a08e,京阪祇園四条駅店,6050076,京都府,京都市東山区,四条大橋東詰,「京阪祇園四条駅」構内 103区画,,,,,,
89e47420-8db8-4420-b34b-684bbfb4d277,京都二寧坂ヤサカ茶屋店,6050826,京都府,京都市東山区,高台寺南門通下河原東入桝屋町349,,,,,,,
f1713f44-5ea9-4e51-a5c1-4f59e0cd5b60,洛北阪急スクエア店,6068103,京都府,京都市左京区,高野西開町36,洛北阪急スクエア 1F,,,,,,
23bee724-f593-4eb3-9cbd-ee3e4f0992f2,京都岡崎 蔦屋書店,6068342,京都府,京都市左京区,岡崎最勝寺町13,ロームシアター京都,,,,,,
12b4263c-34b5-4d16-898b-bec74fceeafc,山科駅前店,6078013,京都府,京都市山科区,安朱中小路町5,山科駅NKビル,,,,,,
91b56836-5562-4023-8cbb-59138e707f47,松井山手店,6100353,京都府,京田辺市,松井ケ丘3-2-1,,,,,,,
60325fe5-846d-44f8-af30-e71a6b7b97de,京都宇治平等院表参道店,6110021,京都府,宇治市,宇治蓮華21-18,,,,,,,
1452fab3-db37-4ad1-a5eb-95ac349dcee8,伏見桃山店,6128083,京都府,京都市伏見区,京町4-155-1,京阪桃山ビル1階,,,,,,
844847f5-1229-4fc2-b180-ef16c399d6ec,龍谷大学店,6120021,京都府,京都市伏見区,深草塚本町67,,,,,,,
a16eea47-76fd-4012-8eec-3c9f55538e1c,イオンモール久御山店,6130024,京都府,久世郡,久御山町森南大内156-1,,,,,,,
a8d072cc-2443-4872-9b17-67c67923f8a8,松井山手欽明台店,6148297,京都府,八幡市,欽明台西21-1,,,,,,,
5cc9178e-92c6-42af-ad39-2dc4f3b16618,イオンモール京都五条店,6150035,京都府,京都市右京区,西院追分町25-1-043,,,,,,,
029ed0d4-11b6-4721-8d9b-c57d95c445de,京都西大路店,6150043,京都府,京都市右京区,西院中水町21,,,,,,,
4bffafd2-bc78-4a19-949c-000faa8c399a,A PIT京都四条店,6150051,京都府,京都市右京区,西院安塚町1,A PIT AUTOBACS KYOTO SHIJO2階,,,,,,
cd0957af-df34-4f9f-a49d-502b29a1675a,京都四条葛野大路店,6150072,京都府,京都市右京区,山ノ内池尻町8-2,,,,,,,
5509bd9d-922e-4b9f-89ea-952eb79e8277,イオンモール高の原店,6190223,京都府,木津川市,相楽台1-1-1,イオンモール高の原,,,,,,
7dd9ff00-db5f-499f-aa66-e351c1ef5ef6,京都精華台店,6190238,京都府,相楽郡,精華町精華台3-12-5,,,,,,,
2a8005c0-d68a-4dde-8c15-e79486ed2b6e,TSUTAYA 福知山店,6200933,京都府,福知山市,東羽合町149,アビタウン福知山,,,,,,
3766efd9-7b53-4365-8975-65eff544f67f,京都亀岡店,6210807,京都府,亀岡市,亀岡駅北1-9-1,,,,,,,
fe699a11-6f32-4301-9100-4c628ae273c1,大阪ガーデンシティ店,5300001,大阪府,大阪市北区,梅田3-3-20,明治安田生命大阪ビル,,,,,,
fd5bd46b-9b0a-4b90-8533-61eb1ce4a8cf,エキマルシェ大阪店,5300001,大阪府,大阪市北区,梅田3-1-1,,,,,,,
03b0ad78-3a50-4047-a98c-74201b8ddb2d,TSUTAYA BOOKSTORE イノゲート大阪店,5300001,大阪府,大阪市北区,梅田3-2-123,イノゲート大阪6階,,,,,,
ceb416f2-af24-44eb-9d0e-57011a184590,JR大阪駅北店,5300001,大阪府,大阪市北区,梅田3-1-1JR大阪駅構内,JR大阪駅1階,,,,,,
c01f67f9-7676-40f3-bcab-13144c6a91fc,梅田イーマ店,5300001,大阪府,大阪市北区,梅田1-12-6,梅田イーマ地下2階,,,,,,
35f39ac9-295f-4045-8df1-114dc2dd3488,ＫＩＴＴＥ大阪店,5300001,大阪府,大阪市北区,梅田3-2-2,ＫＩＴＴＥ大阪 6F 615/616区画,,,,,,
82511a16-2657-43ef-9246-1d2d49bca415,桜橋プラザビル店,5300002,大阪府,大阪市北区,曽根崎新地1-4-12,桜橋プラザビル,,,,,,
17fc959d-8610-4ffb-a7be-b5cae320c2a0,中之島三井ビル店,5300005,大阪府,大阪市北区,中之島3-3-3,中之島三井ビルディング,,,,,,
e30c79a8-38e9-4ca9-b0b7-03ef4ea944d7,グランフロント大阪南館6階店,5300011,大阪府,大阪市北区,大深町4-20,グランフロント大阪南館 6階,,,,,,
253f1350-c71b-4522-a65e-895c016aaf6a,LINKS UMEDA　地下1階店,5300011,大阪府,大阪市北区,大深町1-1,ヨドバシ梅田タワー LINKS UMEDA 地下1階,,,,,,
e1f21bae-ceca-40b8-918f-6ff168933c5f,LINKS UMEDA　2階店,5300011,大阪府,大阪市北区,大深町1-1,ヨドバシ梅田タワー LINKS UMEDA 2階,,,,,,
ba60773e-045a-47a6-92c5-a4de574fb55b,LINKS UMEDA　8階店,5300011,大阪府,大阪市北区,大深町1-1,ヨドバシ梅田タワー LINKS UMEDA 8階,,,,,,
3e5dbf97-b6d5-4e4c-91e0-bbd50eda161b,グランフロント大阪北館1階店,5300011,大阪府,大阪市北区,大深町3-1,グランフロント大阪北館 1階,,,,,,
3e0f5dd5-31ab-4a95-81ae-01c3e0b726ed,うめきたグリーンプレイス店,5300011,大阪府,大阪市北区,大深町5-1,うめきたグリーンプレイス2階,,,,,,
0e234462-37fd-4325-a5dc-8abcc4091b3a,ちゃやまちアプローズタワー店,5300013,大阪府,大阪市北区,茶屋町19-19,アプローズタワー 1F,,,,,,
4da5afe7-c861-47b3-a244-4ed8634ddb94,NU茶屋町プラス店,5300013,大阪府,大阪市北区,茶屋町8-26,NU茶屋町プラス 区画番号109,,,,,,
a31b0dc3-85f5-40c3-9f0e-86da98f08ebb,TSUTAYA 梅田 MeRISE店,5300014,大阪府,大阪市北区,鶴野町1-5,,,,,,,
6f3e6c92-f0ce-43e6-90ae-19fce14c4c5a,梅田HEP FIVE7階店,5300017,大阪府,大阪市北区,角田町5-15,HEP FIVE 7F,,,,,,
42220656-1726-418e-b11a-0a721823280f,梅田エスト店,5300017,大阪府,大阪市北区,角田町3-25,EST,,,,,,
6730880e-3113-4f62-94da-3d55e7ecdc06,阪急サン広場地下通り店,5300017,大阪府,大阪市北区,角田町8-47,阪急サン広場地下通り 地下1階,,,,,,
d3c511f2-2e6e-4e62-90e5-8beed51ae099,梅田HEP FIVE3階店,5300017,大阪府,大阪市北区,角田町5-15,HEP FIVE 3階,,,,,,
b0fd58a5-46e7-4379-9731-ae077e6116cf,ホワイティうめだ店,5300027,大阪府,大阪市北区,堂山町梅田地下街3-6,ホワイティうめだ イーストモール内,,,,,,
8596464e-3953-439b-8370-079eb3b29fca,大丸梅田店,5300001,大阪府,大阪市北区,梅田3-1-1,大丸大阪梅田店,,,,,,
191de039-e57d-4326-a8a5-aeebd0ce1479,LUCUA 9階店,5300001,大阪府,大阪市北区,梅田3-1-3,LUCUA　9階,,,,,,
42b99e93-bc6c-4f65-b9ea-1dc742f471f4,LUCUA 2階店,5300001,大阪府,大阪市北区,梅田3-1-3,LUCUA 2階,,,,,,
79e3ad31-2d7a-4bce-8239-d0537e4d88d3,阪神梅田本店 地下2階店,5300001,大阪府,大阪市北区,梅田1-13-13,阪神梅田本店,,,,,,
1e452f11-eec3-480d-8131-8dc102a37a9c,阪神梅田本店 9階店,5300001,大阪府,大阪市北区,梅田1-13-13,阪神梅田本店,,,,,,
23dc79e2-632c-44cc-abda-58ea2c8207d4,阪急うめだ本店9階店,5300017,大阪府,大阪市北区,角田町8-7,阪急うめだ本店9階,,,,,,
c183147b-e07a-4fe7-b797-468868cd9359,LUCUA 1100 2階 グランマルシェ店,5300001,大阪府,大阪市北区,梅田3-1-3,,,,,,,
800a21f0-5cb5-4bfa-96a1-b064a3d8c7c1,LUCUA 1100 2階 アトリウムガーデン店,5300001,大阪府,大阪市北区,梅田3-1-3,,,,,,,
df89224b-b2d9-4596-9c2b-d1362c147cf0,LUCUA osaka 地下2階店,5300001,大阪府,大阪市北区,梅田3-1-3,LUCUA osaka,,,,,,
b5970bad-01b1-4629-b18a-8253c63e79d5,梅田 蔦屋書店,5300001,大阪府,大阪市北区,梅田3-1-3,LUCUA 1100 9階,,,,,,
ba4d9615-cc94-4a61-a1b9-092c2b0b0d13,新大阪ニッセイビル店,5320003,大阪府,大阪市淀川区,宮原3-4-30,ニッセイ新大阪ビル,,,,,,
fe34c959-ab0d-4d7e-8521-2f5c7a00ab14,エキマルシェ新大阪店,5320011,大阪府,大阪市淀川区,西中島5-16-1,,,,,,,
2a3cd55a-19c6-421a-a4ae-a4b76bb2d619,JR新大阪アルデ店,5320011,大阪府,大阪市淀川区,西中島5-16-1,アルデ新大阪　（arde）,,,,,,
74060c2e-3067-4950-a98e-44afe80671c7,ＪＲ東海 新大阪駅新幹線ラチ内店,5320011,大阪府,大阪市淀川区,西中島5-16-1　新大阪駅1階,JR-PLUS関西支社,,,,,,
a964cdfc-6c05-4649-90d3-14fd4384532d,京橋 京阪モール店,5340024,大阪府,大阪市都島区,東野田町2-1-38,,,,,,,
d11bd7f4-0a73-47d8-8ea9-b50998793d54,京阪京橋駅片町口店,5340024,大阪府,大阪市都島区,東野田町1-6-1,Kぶらっと,,,,,,
d6c6ea60-56a7-4dce-baa1-810b004fefc7,コムズガーデン店,5340024,大阪府,大阪市都島区,東野田町2-6-1,コムズガーデン B2階,,,,,,
6e69aeab-92c6-4b74-8d4b-181e9fdc4408,大阪鶴見緑地公園店,5380036,大阪府,大阪市鶴見区,緑地公園1-30,,,,,,,
025db054-dd81-4515-8f81-fe4219c8cd58,イオンモール鶴見緑地店,5380053,大阪府,大阪市鶴見区,鶴見4-17-1,イオンモール鶴見緑地　1階,,,,,,
301a17bf-06ab-4de2-b274-401a833c777a,大阪城公園店,5400002,大阪府,大阪市中央区,大阪城3-1,JO-TERRACE OSAKA,,,,,,
0b2dbc96-5537-4c5c-8d54-987cee47f3c1,大阪城公園森ノ宮店,5400002,大阪府,大阪市中央区,大阪城3-9,,,,,,,
ddaf83ce-2456-4132-bb85-0cc9fae15bf4,谷町筋ＮＳビル店,5400012,大阪府,大阪市中央区,谷町2-2-22,ＮＳビル 1F,,,,,,
194e0d49-3657-4d7f-a544-fa7b9577a893,天満橋京阪シティモール店,5400032,大阪府,大阪市中央区,天満橋京町1-1,京阪シティモール,,,,,,
cb7cc3c1-94e0-4c07-a891-da67ba513b09,ＯＢＰ松下ＩＭＰビル店,5400001,大阪府,大阪市中央区,城見1-3-7,松下IMPビル,,,,,,
717ca6d4-0d30-49eb-95f2-7765e94ee541,淀屋橋odona店,5410042,大阪府,大阪市中央区,今橋4-1-1,淀屋橋odona B1F,,,,,,
b473b786-9497-4af1-ace4-a62ea190048a,北浜店,5410042,大阪府,大阪市中央区,今橋2-2-2,南都銀行大阪北浜ビル1階,,,,,,
5d684952-7d6b-434d-9d8d-23b99fd0ac45,御堂筋本町店,5410053,大阪府,大阪市中央区,本町4-2-12,野村不動産御堂筋本町ビル,,,,,,
b6618827-a9ce-4de4-8de8-a1aaf101d172,堺筋本町店,5410053,大阪府,大阪市中央区,本町1-8-12,オーク堺筋本町ビル1F,,,,,,
00769399-822b-4dba-a0d9-8a84b526dfa2,南御堂ビルディング店,5410056,大阪府,大阪市中央区,久太郎町4-1-15,南御堂ビルディング,,,,,,
13a32f56-5432-4eab-999e-8e644a2f4d8e,Olive LOUNGE 船場店,5410056,大阪府,大阪市中央区,久太郎町3-5-19,Olive LOUNGE 1階,,,,,,
fa325a7a-13d6-4bcc-b5ce-ee0d94195896,TSUTAYA EBISUBASHI店,5420071,大阪府,大阪市中央区,道頓堀1-8-19,,,,,,,
f740c66c-4f66-4dcf-b79a-8062978bd518,なんばウォーク店,5420074,大阪府,大阪市中央区,千日前1,なんばウォーク5-1,,,,,,
3b9f84b5-f4bb-49ba-ba53-49eed8d0c2d1,なんば南海通店,5420075,大阪府,大阪市中央区,難波千日前12-30,難波長和ビル1階,,,,,,
c9ad60c8-3470-499b-9e3a-c19489dcd5d0,なんば 御堂筋グランドビル店,5420076,大阪府,大阪市中央区,難波2-2-3,御堂筋グランドビル B1F,,,,,,
a3c7d622-a098-4bd9-86da-566f5384795f,なんばCITY店,5420076,大阪府,大阪市中央区,難波5-1-60,なんばCITY,,,,,,
d66ddac0-8448-4f6b-b1c3-a21e0bd4e7da,なんばスカイオ 3階店,5420076,大阪府,大阪市中央区,難波5-1-60,なんばスカイオ,,,,,,
e92a25b5-0836-4e9b-b55b-52fd3f67bb6f,大阪高島屋 地階西ゾーン店,5420076,大阪府,大阪市中央区,難波5-1-5,大阪高島屋,,,,,,
6a051efe-23ea-4995-b5d4-78213aea0971,エディオンなんば店,5420076,大阪府,大阪市中央区,難波3-2-18,エディオンなんば本店,,,,,,
40a0533a-514a-4025-bc19-77a1c5c991e6,クリスタ長堀店,5420081,大阪府,大阪市中央区,南船場3丁目,長堀地下街4号　CRYSTA,,,,,,
5a8b78c2-616b-4afe-936d-70cde21edee7,北心斎橋店,5420081,大阪府,大阪市中央区,南船場3-11-10,,,,,,,
568bb0ac-3368-4370-a512-aeb04febe304,クリスタ長堀 ウエスト店,5420081,大阪府,大阪市中央区,南船場4丁目,長堀地下街7号 クリスタ長堀,,,,,,
cd8b2ff8-b3cc-45b8-bfe0-42ee00d96db5,心斎橋パルコ店,5420085,大阪府,大阪市中央区,心斎橋筋1-8-3,心斎橋パルコ,,,,,,
0c31e625-1a4a-4ae2-a00f-09c9b486f635,心斎橋BIG STEP店,5420086,大阪府,大阪市中央区,西心斎橋1-6-14,BIG STEP,,,,,,
30affff5-f556-44e0-aa40-7d70df1c5096,心斎橋オーパ店,5420086,大阪府,大阪市中央区,西心斎橋1-4-3,心斎橋OPA 本館 2階,,,,,,
f23a8cef-0180-4c99-b479-6cd8191bc75e,JR桃谷駅店,5430033,大阪府,大阪市天王寺区,堂ケ芝1-8-27,,,,,,,
f99eb6e9-2211-4b80-adad-8034acc11b56,天王寺ミオ 本館8階店,5430055,大阪府,大阪市天王寺区,悲田院町10-39,天王寺ミオ本館,,,,,,
14b17de5-75ea-48fa-9fa4-e8f364df3747,天王寺ミオ プラザ館店,5430055,大阪府,大阪市天王寺区,悲田院町10-48,,,,,,,
383b3cd9-00c5-4073-bc12-f605aa715596,天王寺ミオ 本館3階店,5430055,大阪府,大阪市天王寺区,悲田院町10-39,天王寺ミオ本館,,,,,,
d65430ef-c63f-40f2-a7de-3a2de647c0f7,JR天王寺駅 東改札内店,5430055,大阪府,大阪市天王寺区,悲田院町10-45,JR天王寺駅東改札内,,,,,,
89c214bc-34fc-4bca-a7d3-b458d2964580,あべのHoop店,5450052,大阪府,大阪市阿倍野区,阿倍野筋1-2-30,あべのHoop,,,,,,
f2d50227-8ebc-4d24-a7d1-1ec92f177407,あべのキューズモール店,5450052,大阪府,大阪市阿倍野区,阿倍野筋1-6-1,あべのキューズモール,,,,,,
079b5ea9-1c86-423d-9d08-558d319dc26e,近鉄あべのハルカス店,5450052,大阪府,大阪市阿倍野区,阿倍野筋1-1-43,あべのハルカス近鉄本店ウィング館3F,,,,,,
f9d47a22-3ccb-4937-8721-13b07fb42dac,そよら長原駅前店,5470013,大阪府,大阪市平野区,長吉長原東2-2-35,そよら長原駅前1階,,,,,,
2ad09996-dc55-4837-b1bb-6eec09375806,関西国際空港1階サウスゲート店,5490011,大阪府,泉南郡,田尻町泉州空港中1,関西国際空港旅客ターミナルビル1階,,,,,,
d3a8b2a1-dea9-4416-ba08-44e84afcb33a,関西国際空港2階店,5490011,大阪府,泉南郡,田尻町泉州空港中1,関西国際空港旅客ターミナルビル2階,,,,,,
5b2d0a07-0b0d-4698-9157-fa334bc5871a,肥後橋南店,5500002,大阪府,大阪市西区,江戸堀1-2-16,肥後橋南山下ビル,,,,,,
7699b4fb-2345-47db-af0f-521fd8ecc50c,西本町店,5500011,大阪府,大阪市西区,阿波座1-3-18,エッグビル本町,,,,,,
af1cc73f-258c-4c7e-a790-1e2624b038ee,四ツ橋店,5500014,大阪府,大阪市西区,北堀江1-1-18,四ツ橋イーストビル,,,,,,
8fe639b0-2118-479c-9ca0-02292a903c17,イオンモール大阪ドームシティ店,5500023,大阪府,大阪市西区,千代崎3-13-1,,,,,,,
1f03c18b-669d-495b-a1ed-a5a76f4e54f2,JR弁天町駅店,5520001,大阪府,大阪市港区,波除3-11-50,,,,,,,
d8e140d3-0230-4962-bd6c-479a70a8a7fd,海遊館店,5520022,大阪府,大阪市港区,海岸通1-1-10,海遊館,,,,,,
97ae13fc-2e4c-4285-84be-765ccc781622,そよら海老江店,5530001,大阪府,大阪市福島区,海老江1-5-52,そよら海老江,,,,,,
7d750093-939e-46f1-9e1d-1421947a13a8,ホテル京阪　ユニバーサル・タワー店,5540024,大阪府,大阪市此花区,島屋6-2-45,ホテル京阪 ユニバーサル・タワー,,,,,,
b69b37fc-3b89-44a2-b3bf-7d7e49f67306,なんばパークス店,5560011,大阪府,大阪市浪速区,難波中2-10-70,なんばパークス Tーterrace 2階,,,,,,
c3d9322d-e8f1-478b-91f1-06053ea8d83a,JR難波駅前店,5560017,大阪府,大阪市浪速区,湊町1-2-3,マルイト難波ビル B1階,,,,,,
1a15beda-b2aa-4231-9a79-e3840dacbdcd,阪急豊中駅前店,5600021,大阪府,豊中市,本町1-1-3,ティオ阪急豊中1階,,,,,,
43a16356-b512-4fe7-91d1-04500fd6cd26,蛍池ルシオーレ店,5600033,大阪府,豊中市,蛍池中町3-2-1,ルシオーレ（310),,,,,,
6deae22c-084c-4ead-b7af-326567d88873,大阪国際空港国内線南ゲートエリア店,5600036,大阪府,豊中市,蛍池西町3-555,大阪国際空港ターミナルビル2F,,,,,,
3f6f2e89-1ab1-450d-8f14-9ab71362afd5,豊中ロマンチック街道店,5600053,大阪府,豊中市,向丘2-10-22,,,,,,,
a1d1e0b5-a6ec-4da5-920f-784e89de96c0,千里中央店,5600082,大阪府,豊中市,新千里東町1-1-3,SENRITOよみうり,,,,,,
1b1ce0d5-f579-49ae-9c98-4d37828a77aa,豊中緑地公園店,5610871,大阪府,豊中市,東寺内町12-38,,,,,,,
c8e0a527-03c8-4a45-abab-315fdb2a557d,服部緑地店,5610873,大阪府,豊中市,服部緑地1-150,,,,,,,
bb444526-6b77-46f9-86ff-2011ae62c0c9,箕面小野原店,5620032,大阪府,箕面市,小野原西5-5-19,,,,,,,
f4979640-ef86-4c72-b51b-eb712df97e44,みのおキューズモール店,5620034,大阪府,箕面市,西宿1-17-22,みのおキューズモール,,,,,,
36c31c97-e330-47ee-903e-9c4c48497675,箕面百楽荘店,5620042,大阪府,箕面市,百楽荘4-275-1,,,,,,,
a3d16155-00b5-4a98-bdea-dd4047c60571,阪急池田駅店,5630056,大阪府,池田市,栄町1-1,阪急池田ブランマルシェ２番館,,,,,,
d2702a58-8dc5-4d32-8b2d-c5747033d741,江坂オッツ店,5640051,大阪府,吹田市,豊津町14-8,江坂オッツ,,,,,,
60ae21eb-70f1-4037-9b00-65c4714d08d4,吹田山田店,5650821,大阪府,吹田市,山田東2-17-5,,,,,,,
47a35636-9cfb-47c2-b7ab-a010da9ba36d,ららぽーとEXPOCITY 2階店,5650826,大阪府,吹田市,千里万博公園2-1,ららぽーとEXPOCITY 2階 20340(店舗番号),,,,,,
717ab123-5f79-4a35-8aa5-db4add2f3061,ららぽーとEXPOCITY 1階店,5650826,大阪府,吹田市,千里万博公園2-1,ららぽーとEXPOCITY 1階 10350(店舗番号),,,,,,
3a803084-286a-4a7e-83f6-c3047e2b4812,関西大学 千里山店,5650842,大阪府,吹田市,千里山東3-10-1,,,,,,,
53a19eee-f83c-4459-a523-f3af66f854c0,阪急南千里店,5650862,大阪府,吹田市,津雲台1-1-2,,,,,,,
63399972-f805-4a49-bea7-cd51ac2927d8,大阪大学医学部附属病院店,5650871,大阪府,吹田市,山田丘2-15,大阪大学医学部附属病院内,,,,,,
7fcf7fa6-87fd-4e45-90a9-b1739cc356d2,イオン北千里店,5650874,大阪府,吹田市,古江台4-2-50,ディオス北千里7番館,,,,,,
d455b77a-36c8-4054-a719-7088ccff97b6,イオンタウン茨木太田店,5670014,大阪府,茨木市,城の前町2-1,イオンタウン茨木太田,,,,,,
c85a2dc8-9b24-4b5c-ad4e-496159335c1e,イオンモール茨木店,5670033,大阪府,茨木市,松ケ本町8-30,,,,,,,
cc24ab3d-f455-44d3-b7ef-b676b848707d,茨木真砂店,5670850,大阪府,茨木市,真砂玉島台1-5,,,,,,,
246d70c3-aaa3-4a8e-b574-c8726a6533e6,立命館大学大阪いばらき店,5670871,大阪府,茨木市,岩倉町2-150,,,,,,,
c065283c-ee0d-4132-ab2a-08add8af14fe,高槻安満遺跡公園店,5690096,大阪府,高槻市,八丁畷町12-17,,,,,,,
e0c9547d-8a17-4419-b32d-1acc0e348dd2,ＪＲ高槻駅北店,5691123,大阪府,高槻市,芥川町1-2,B-0202号 アクトアモーレ,,,,,,
f1cead13-b3f5-4613-ae6f-a41a733118a9,高槻阪急スクエア店,5691116,大阪府,高槻市,白梅町4-1,高槻阪急スクエア1階,,,,,,
6b9e00ef-df92-44fd-a43a-eef3dff37e8f,松坂屋 高槻店,5690804,大阪府,高槻市,紺屋町2-1,松坂屋,,,,,,
093fdbc9-bf41-412c-b023-f34c22895672,イオンモール大日1階店,5700016,大阪府,守口市,大日東町1-18,イオンモール大日1階,,,,,,
992af4b1-79a0-4196-a770-c0c3e4e02780,イオンモール大日3階 SHIBANIWA店,5700016,大阪府,守口市,大日東町1-18,イオンモール大日3階,,,,,,
5c0abae7-1c71-440a-989b-3588196e5159,京阪守口市駅店,5700038,大阪府,守口市,河原町1-1,エル守口,,,,,,
cdd9ba92-d683-4715-b024-c51679f185a4,イオンタウン守口店,5700083,大阪府,守口市,京阪本通2-2-4,イオンタウン守口１階　,,,,,,
79146aa1-9c85-4a79-9b5b-c24a2b94b3e6,そよら古川橋駅前店,5710030,大阪府,門真市,末広町41-2,そよら古川橋駅前1階,,,,,,
6e131c32-bd8a-41c2-9ade-41ca59c5ab6c,ららぽーと門真店,5710044,大阪府,門真市,松生町1-11,ららぽーと門真 1階(店舗番号16000),,,,,,
7c0f26b5-5365-4ab8-803d-f3ad0a6cacc5,TSUTAYA BOOKSTORE 香里園店,5720085,大阪府,寝屋川市,香里新町31-17,,,,,,,
ad08a931-fb69-4a06-ae22-32acf6b2cbd8,TSUTAYA BOOKSTORE ビバモール寝屋川店,5720855,大阪府,寝屋川市,寝屋南2-22-2,ビバモール寝屋川,,,,,,
01e591f2-49e3-43eb-9279-380c3b2ee4af,京阪枚方市駅店,5730032,大阪府,枚方市,岡東町19-19,京阪百貨店ひらかた店1階,,,,,,
d1b2e86d-7cea-4964-8dad-e22913e7c979,枚方 蔦屋書店,5730032,大阪府,枚方市,岡東町12-2,,,,,,,
4492fcf4-699a-48ab-b584-cc35a37cdb3f,東香里店,5730073,大阪府,枚方市,高田1-15-10,,,,,,,
4c1f16bf-1945-43b5-8adf-39ba1a5fcab7,関西外国語大学 中宮店,5731195,大阪府,枚方市,中宮東之町16-1,,,,,,,
02a9662c-8484-4e5d-be8b-640877d8d084,くずは美咲店,5731111,大阪府,枚方市,楠葉朝日2-20,,,,,,,
d9fbb80d-1e7f-4573-9349-19ddfc4985c2,くずはモール ダイニングストリート店,5731121,大阪府,枚方市,楠葉花園町15-1-112,くずはモール1階 ダイニングストリート,,,,,,
d1ff2ede-c484-4267-8005-4b4628c11988,くずはモール ハナノモール店,5731121,大阪府,枚方市,楠葉花園町15-1-Z105,くずはモール1階 ハナノモール,,,,,,
64209996-5956-4d50-aa01-1b2be89709b2,アルビ住道店,5740026,大阪府,大東市,住道,2-3-1 アルビ内,,,,,,
7367e83e-3f53-44a8-bd6c-e0b03f54ff89,イオンモール四條畷店,5750001,大阪府,四條畷市,砂4-3-2,,,,,,,
85844d8a-b335-4388-927b-2d8c6c84fd2b,近鉄東大阪店,5770056,大阪府,東大阪市,長堂1-1-1,近鉄東大阪店,,,,,,
594d8882-7710-47ed-ae58-bd343d4a9ee0,東大阪宝持店,5770805,大阪府,東大阪市,宝持4-2-18,,,,,,,
372fcc3d-fb25-4628-ab23-177dcfdb5a1c,近鉄久宝寺口南店,5770823,大阪府,東大阪市,金岡4-15-21,,,,,,,
50df7291-8b74-4ba2-92d8-071582439c80,セブンパーク天美店,5800032,大阪府,松原市,天美東3-500,セブンパーク天美,,,,,,
28300fd7-b9ef-4ade-8893-95b8e59c1667,八尾青山通り店,5810017,大阪府,八尾市,高美町3-2-24,,,,,,,
ccbe92d5-a785-4101-9d4a-b56326d71272,アリオ八尾店,5810803,大阪府,八尾市,光町2-3,アリオ八尾,,,,,,
ee521ca6-d9df-4d17-95d1-ebf5750f0457,TSUTAYA リノアス八尾店,5810803,大阪府,八尾市,光町2-60,,,,,,,
4cc81864-176b-421b-abf3-b27d7b65b9d6,イオン藤井寺ショッピングセンター店,5830027,大阪府,藤井寺市,岡2-10-11,イオン藤井寺ショッピングセンター,,,,,,
711f0628-9846-4026-972a-5a3d6bbcabc7,クロスモール富田林店,5840058,大阪府,富田林市,彼方1014-1,クロスモール富田林,,,,,,
71e49dca-c45d-45f4-b8ea-916bc4048ffe,河内長野高向店,5860036,大阪府,河内長野市,高向825-1,,,,,,,
f15397f5-0e4b-4a69-ad81-7de948d8bde3,堺美原青南台店,5870043,大阪府,堺市美原区,青南台1-1-34,,,,,,,
e46dfc6c-fab5-41b7-b168-f71575d75e5d,ららぽーと堺店,5870002,大阪府,堺市美原区,黒山22-1,ららぽーと堺,,,,,,
2208c393-6b5e-4d01-beb1-d406f0a1eaa4,そよら金剛店,5890011,大阪府,大阪狭山市,半田1-22,そよら金剛1階,,,,,,
cb284222-401f-40ef-b1e2-86b3ae459f39,堺東中央線店,5900071,大阪府,堺市堺区,北向陽町2-2-3,,,,,,,
6de213a0-7464-45e9-818b-f2a3639d8746,堺 泉ヶ丘駅前店,5900115,大阪府,堺市南区,茶山台1-2-3,泉ヶ丘ひろば専門店街,,,,,,
02982304-86b0-4a60-b3f4-98ceaaa9c63c,泉北槇塚台店,5900122,大阪府,堺市南区,釜室1000-1,,,,,,,
5ad812b6-4769-483f-82de-52165792b787,イオンモールりんくう泉南店,5900535,大阪府,泉南市,りんくう南浜3-12,,,,,,,
352616ec-40f9-48c4-836d-2a1050aa9c62,泉南りんくう公園店,5900535,大阪府,泉南市,りんくう南浜3-201,泉南りんくう公園内,,,,,,
84df5aba-45b1-40a7-af06-31ac67213d6d,イオンモール堺鉄砲町店,5900905,大阪府,堺市堺区,鉄砲町1,イオンモール堺鉄砲町,,,,,,
1de2401f-2fdb-4fcc-bf84-3a32ecbf37ea,堺フェニックス通り 利晶の杜店,5900958,大阪府,堺市堺区,宿院町西2丁1-41,,,,,,,
68bb08ce-61c6-4316-8cac-b7bf1c712582,堺プラットプラット店,5900985,大阪府,堺市堺区,戎島町3-22-1,,,,,,,
76e9fce0-4d57-4370-8f8b-dbc2b6a8a622,イオンモール堺北花田店,5918008,大阪府,堺市北区,東浅香山町4丁1-12,,,,,,,
9b7234e5-5219-455d-a6a5-d707a6d6f70f,イオンモール堺北花田ウェルカムコート店,5918008,大阪府,堺市北区,東浅香山町4-1-12,イオンモール堺北花田1階,,,,,,
8b4be9a6-2d6e-42b5-ba9e-65a46bf8a393,そよら新金岡店,5918021,大阪府,堺市北区,新金岡町4-1-11,そよら新金岡,,,,,,
92dc36ee-c67b-4ea3-a624-76a4768315fe,堺百舌鳥店,5918034,大阪府,堺市北区,百舌鳥陵南町2-633-1,,,,,,,
6964eace-43c7-47c0-b181-5be15bf867fa,アリオ鳳店,5938325,大阪府,堺市西区,鳳南町3-199-12,アリオ鳳,,,,,,
691199db-0b03-42f9-a70c-0f566c69bc2f,和泉府中店,5940071,大阪府,和泉市,府中町4-16-3,,,,,,,
ccedf8a7-9306-4716-aa16-94bd286fac37,ららぽーと和泉店,5941157,大阪府,和泉市,あゆみ野4-4-7,,,,,,,
6d6273f2-f49a-489a-be74-25ef876720e8,岸和田三田店,5960808,大阪府,岸和田市,三田町633-1,,,,,,,
50cec295-e783-40be-bb5f-a8e38ee762dd,岸和田小松里店,5960821,大阪府,岸和田市,小松里町2550,,,,,,,
e8aea06a-e95b-40ca-a8ec-e4289ee0630a,そよら東岸和田店,5960825,大阪府,岸和田市,土生町2-32-39,そよら東岸和田1階,,,,,,
80329213-83be-4742-b68c-bcf2af5d5102,りんくうプレミアム・アウトレット店,5980047,大阪府,泉佐野市,りんくう往来南3‐28,りんくうプレミアム・アウトレット 1F,,,,,,
f31a5f6b-5fed-428a-81f9-0a5b207e2945,りんくうプレミアム・アウトレット シーサイド店,5980047,大阪府,泉佐野市,りんくう往来南3-28,りんくうプレミアム・アウトレット Sea Side エリア1階,,,,,,
79c0a9eb-93bb-4f38-8da9-10870d0ac527,EKIZO 神戸三宮店,6500001,兵庫県,神戸市中央区,加納町4-2-1,神戸三宮阪急ビル,,,,,,
bb99c091-1d3d-4e1f-91c0-61673f8a2ed2,神戸北野異人館店,6500002,兵庫県,神戸市中央区,北野町3-1-31,北野物語館,,,,,,
99595d14-63cd-4a88-bbf5-5b33960d9084,三宮生田新道店,6500011,兵庫県,神戸市中央区,下山手通2-1-13,第１３シャルマンビル,,,,,,
7d7d1a39-8996-427e-9832-6cc97b53a40e,神戸BAL店,6500021,兵庫県,神戸市中央区,三宮町3-6-1,,,,,,,
b58a7342-5ee6-498a-b7d7-4019228ab78c,クレフィ三宮店,6500021,兵庫県,神戸市中央区,三宮町1-4-3,クレフィ三宮2階,,,,,,
16f65ed1-a74f-47e9-b228-c82a9688fec5,神戸旧居留地店,6500023,兵庫県,神戸市中央区,栄町通1-2-1,ＭＲＳＸビル,,,,,,
5399454a-79c3-4f96-8410-cc1d8d5a52b1,PLiCO神戸店,6500025,兵庫県,神戸市中央区,相生町3-1-1,PLiCO神戸1階,,,,,,
37ab2b29-9ded-4874-9f35-984bc73ed2e6,神戸メリケンパーク店,6500042,兵庫県,神戸市中央区,波止場町2-4,,,,,,,
1c9915bf-06b8-412c-9850-e1a96395738e,神戸ハーバーランドumie店,6500044,兵庫県,神戸市中央区,東川崎町1-7-2,A201,,,,,,
299d5478-5ba4-4f22-88be-46a0bfc44d77,神戸ハーバーランドumie MOSAIC店,6500044,兵庫県,神戸市中央区,東川崎町1-6-1,神戸ハーバーランドumie MOSAIC　2F,,,,,,
4e59d861-880f-47a8-9922-526ac4bd465d,三宮磯上通店,6510086,兵庫県,神戸市中央区,磯上通7-1-19,PROGRESS KOBE,,,,,,
447d2736-f596-4cc5-81c5-836a24452589,神戸国際会館ＳＯＬ店,6510087,兵庫県,神戸市中央区,御幸通8-1-6,神戸国際会館 B1F,,,,,,
19201b61-236c-4a34-8b80-dda91722a63f,三宮ダイエー店,6510096,兵庫県,神戸市中央区,雲井通6-1-15,三宮ダイエー,,,,,,
4202e166-ffcc-4cf3-a323-1ce9e50d8b78,ミント神戸店,6510096,兵庫県,神戸市中央区,雲井通7-1-1,ミント神戸,,,,,,
0c052621-cbe0-4b37-9227-f84147981495,神戸上津台店,6511515,兵庫県,神戸市北区,上津台9-2-13,,,,,,,
6090e688-c350-45d0-a837-eb14630a2300,神戸三田プレミアム・アウトレット店,6511515,兵庫県,神戸市北区,上津台7-3,神戸三田プレミアム・アウトレット(120区),,,,,,
cccb798d-07cc-46d1-af41-764129cf3216,イオンモール神戸北店,6511515,兵庫県,神戸市北区,上津台8-1-1,イオンモール神戸北,,,,,,
1a578ff9-8170-4e0a-ba20-7078246977b5,学園都市キャンパススクェア店,6512103,兵庫県,神戸市西区,学園西町1-4,キャンパススクェア,,,,,,
2bf56710-278a-4837-954f-b30be55ac9d4,プレンティ西神中央店,6512273,兵庫県,神戸市西区,糀台5-6-1,プレンティ 二番館2階,,,,,,
4d0a1310-b026-461f-bbd4-e531ce109654,須磨海浜公園店,6540055,兵庫県,神戸市須磨区,須磨浦通1-1-3,須磨海浜公園 松の社ヴィレッジA棟1階,,,,,,
bbb0244d-e4f2-4767-8e1c-92860cb1317e,須磨大丸店,6540154,兵庫県,神戸市須磨区,中落合2-2-4,大丸 須磨店,,,,,,
ef92ea5d-d42f-496d-b1b4-eaa465a60f66,PLiCO垂水店,6550027,兵庫県,神戸市垂水区,神田町1-17,プリコ垂水南館2階,,,,,,
4f0560ab-628f-476a-943c-b6accf2515e4,三井アウトレットパーク マリンピア神戸店,6550036,兵庫県,神戸市垂水区,海岸通12-2,三井アウトレットパーク マリンピア神戸,,,,,,
9b6ac477-3c22-42ea-b563-ad987d35d2b2,神戸西舞子店,6550048,兵庫県,神戸市垂水区,西舞子1-10-4,,,,,,,
cec50815-f929-4118-82b1-7743c81df1bd,神戸垂水桃山台店,6550861,兵庫県,神戸市垂水区,下畑町小川1400-12,,,,,,,
3f8aa9a8-ad06-43d3-9b1a-abca2f711648,淡路サービスエリア（下り線）店,6562401,兵庫県,淡路市,岩屋2568,淡路サービスエリア（下り線）,,,,,,
9070636d-8291-47ff-92fe-b5321c60e654,神戸大学店,6570013,兵庫県,神戸市灘区,六甲台町1-1,,,,,,,
ae268984-bb41-47ab-b240-3b3dc4680164,住吉リブ店,6580051,兵庫県,神戸市東灘区,住吉本町1-2-1,,,,,,,
bd0de5bd-dd76-4260-b6a1-d2ae12eedb41,阪神御影クラッセ店,6580054,兵庫県,神戸市東灘区,御影中町3-2-1,御影クラッセ,,,,,,
4e47c97a-2ae5-4696-9d7e-da53b79027ed,摂津本山岡本ビル店,6580072,兵庫県,神戸市東灘区,岡本1-2-17,摂津本山二楽園ビル,,,,,,
6c1574fd-5f95-4e29-893f-cf22e659e9d0,芦屋モンテメール店,6590093,兵庫県,芦屋市,船戸町1-31,モンテメール,,,,,,
8a522bb4-ebe3-41bb-8bd4-6805955ed736,尼崎つかしん店,6610001,兵庫県,尼崎市,塚口本町4-8-1,グンゼタウンセンターつかしん,,,,,,
a5c45618-ab4f-4a4d-8232-b469ec0f58fa,尼崎立花店,6610025,兵庫県,尼崎市,立花町3-12-6,,,,,,,
2a7616fb-853a-4f7f-9854-a959ab125bcb,あまがさきキューズモール店,6610976,兵庫県,尼崎市,潮江1-3-1,あまがさきキューズモール,,,,,,
c8477bc3-65e0-4d4c-a3bb-119f895506ac,ビエラ塚口店,6610979,兵庫県,尼崎市,上坂部1-1-1,ビエラ塚口,,,,,,
3067ee6a-1a39-4176-9fdb-09c662a4f536,西宮鞍掛店,6620926,兵庫県,西宮市,鞍掛町6-7,,,,,,,
866d42be-77e1-4fc9-b3d9-5f1f93cd6633,西宮建石店,6620943,兵庫県,西宮市,建石町2-33,,,,,,,
04e60a0c-71f1-47dc-b796-f111c21bb9df,エビスタ西宮店,6620973,兵庫県,西宮市,田中町1-6,エビスタ西宮,,,,,,
eaf7d1d6-5a09-4a24-a473-9df9f4e349ad,関西学院大学店,6620891,兵庫県,西宮市,上ヶ原一番町1-155,,,,,,,
dbb096b5-4ec7-4436-b384-138b1f764872,西宮大島店,6638017,兵庫県,西宮市,大島町6-16,,,,,,,
2e617cfb-a38c-4a08-9624-0549382c6027,アクタ西宮店,6638035,兵庫県,西宮市,北口町1-2,ACTA西宮 東館,,,,,,
7ee21a1a-0a9d-4df3-bf63-6bc59624cead,ビエラ甲子園口店,6638113,兵庫県,西宮市,甲子園口2-1-37,,,,,,,
5a23c756-5ecd-428a-a0d0-e506776b1621,阪神甲子園駅前店,6638166,兵庫県,西宮市,甲子園高潮町4-3,,,,,,,
7b309215-619f-48e8-9907-5a0cc906e573,ららぽーと甲子園店,6638178,兵庫県,西宮市,甲子園八番町1-100,ららぽーと甲子園,,,,,,
08538234-d3ea-434a-9a47-a42fc779d280,阪急西宮ガーデンズ3階店,6638204,兵庫県,西宮市,高松町14-2,阪急西宮ガーデンズ3階,,,,,,
5c9af141-1075-410f-9573-4affea8de985,阪急西宮ガーデンズ4階店,6638204,兵庫県,西宮市,高松町14-2,阪急西宮ガーデンズ4階,,,,,,
87192a57-98c4-49ee-bc83-a0bc4f4dcc30,イオンモール伊丹昆陽店,6640027,兵庫県,伊丹市,池尻4-1-1,イオンモール伊丹昆陽,,,,,,
f6b27bfd-8dca-4cf8-8cb5-4cbc073cac6e,イオンモール伊丹店,6640847,兵庫県,伊丹市,藤ノ木1-1-1,,,,,,,
009889ca-6243-4746-a384-09c4c1438c53,宝塚安倉店,6650825,兵庫県,宝塚市,安倉西4-610,,,,,,,
2cff87b6-d36c-4554-9ce6-1e1fa00b9325,中山寺店,6650874,兵庫県,宝塚市,中筋8-11-58,,,,,,,
56a32277-2ce1-4a1b-96cb-2f60b7e79622,川西加茂店,6660025,兵庫県,川西市,加茂6-2-22,,,,,,,
aba86919-7517-4621-b2ec-72052985f871,川西阪急スクエア店,6660033,兵庫県,川西市,栄町26-1,川西阪急スクエア2階,,,,,,
9be6d3c5-381f-4ce4-859c-1f1a00269e70,TSUTAYA BOOKSTORE AVIX豊岡店,6680031,兵庫県,豊岡市,大手町7-30,,,,,,,
17f1ede6-33a5-48bb-b8e3-7e9b92cd64e6,新三田桜のこみち公園店,6691313,兵庫県,三田市,福島1－1,,,,,,,
d40d6598-5581-4cc1-b01a-e3c020426bb9,三田キッピーモール店,6691528,兵庫県,三田市,駅前町2-1,キッピーモール 2階,,,,,,
76c2017f-4d91-41b6-89da-5b4301705764,姫路市川橋通店,6700825,兵庫県,姫路市,市川橋通1-20,,,,,,,
9382c433-50b9-478f-b322-03597852e41f,ピオレ姫路1階店,6700914,兵庫県,姫路市,豆腐町222,ピオレ姫路2,,,,,,
dc0b5730-f935-44d0-8186-367070a9c442,ピオレ姫路4階店,6700927,兵庫県,姫路市,駅前町188-1,ピオレ姫路1,,,,,,
c59c6956-b157-417f-8dcb-efeaf872d74f,イオンモール姫路大津店,6711146,兵庫県,姫路市,大津区大津町2-5,イオンモール姫路大津,,,,,,
b5773924-1fca-4531-a3eb-18546fd25631,姫路南店,6728048,兵庫県,姫路市,飾磨区三宅3-3,,,,,,,
40ee1fc2-8694-418f-b195-79aeda7f4051,姫路飾磨店,6728057,兵庫県,姫路市,飾磨区恵美酒236,,,,,,,
e3b4709f-a2fb-4e86-b1b5-1b972c53225d,イオンモール姫路リバーシティー店,6728064,兵庫県,姫路市,飾磨区細江2560,,,,,,,
aeb627a2-8357-48f4-9b9e-75631f443dd9,三木サービスエリア(下り線)店,6730402,兵庫県,三木市,加佐湯谷1142,三木サービスエリア(下り線),,,,,,
60bb6474-cb2c-4b87-9c18-ffeec40865fd,三木サービスエリア(上り線)店,6730404,兵庫県,三木市,大村大門1067-110,三木サービスエリア(上り線),,,,,,
04991d35-e3e8-4594-af21-53c431643072,ピオレ明石店,6730891,兵庫県,明石市,大明石町1-1-23,ピオレ明石,,,,,,
37f8fc23-7ea8-4c11-bdaa-753c25da1e21,明石ビブレ店,6740068,兵庫県,明石市,大久保町ゆりのき通り,1-3-2 明石ビブレ,,,,,,
88aacc0c-222f-43fa-8e94-1da5aea67db1,明石魚住店,6740074,兵庫県,明石市,魚住町清水463-3,,,,,,,
2fbb2ae9-ddc1-4ebb-878b-090e96b28b3d,TSUTAYA パークタウン加古川店,6750066,兵庫県,加古川市,加古川町寺家町269-1,ミーツテラス,,,,,,
c9342e08-e1ab-442e-8827-c07a7e251938,加古川別府店,6750123,兵庫県,加古川市,別府町朝日町11-1,,,,,,,
9b3b6ae1-c8c8-4002-809c-d61c45997b8c,兵庫播磨店,6750147,兵庫県,加古郡,播磨町南大中3-3-30,,,,,,,
bf54a77a-49d3-4f9d-9257-74cca5cb0bd3,イオンモール加西北条店,6752312,兵庫県,加西市,北条町北条308-1,,,,,,,
cbda225a-2c8e-4364-9a91-d9b7686ecd15,高砂小松原店,6760011,兵庫県,高砂市,荒井町小松原4-1005,,,,,,,
4f0b9828-5fdd-4aaa-8340-62858b89a26a,イオンモール奈良登美ヶ丘店,6300115,奈良県,生駒市,鹿畑町3027,イオンモール奈良登美ヶ丘,,,,,,
81fc63be-bbb4-4a54-976a-4951d52bfa54,北生駒ならやま大通り店,6300131,奈良県,生駒市,上町3420-1,,,,,,,
d85cddfa-7fc8-4774-b260-6181245ca393,奈良 蔦屋書店,6308013,奈良県,奈良市,三条大路1-691-1,,,,,,,
0d15129f-f4b5-4f9b-8036-306dfa840357,奈良鴻ノ池運動公園店,6308108,奈良県,奈良市,法蓮佐保山4-1703-1　,,,,,,,
fcc5c03b-c09e-4a20-a5f8-0346fc49355d,JR奈良駅旧駅舎店,6308122,奈良県,奈良市,三条本町1082,総合観光案内所,,,,,,
71f655a2-8d13-4693-bb65-12e6520125ea,奈良公園バスターミナル店,6308213,奈良県,奈良市,登大路町76,奈良公園バスターミナル2階,,,,,,
036ce786-75cf-48ef-a7fa-f5a6c188e46b,奈良猿沢池店,6308218,奈良県,奈良市,樽井町1,,,,,,,
cf19f08e-8144-42eb-879c-b6d90be16eca,奈良学園前駅店,6310034,奈良県,奈良市,学園南3-1-5,奈良西部会館 1F,,,,,,
a5613a23-64fa-4f5c-bd4b-4f5217860b97,奈良西大寺駅前店,6310821,奈良県,奈良市,西大寺東町2-1-63,サンワシティ西大寺,,,,,,
e8bd515d-42b9-47fb-b14e-bd1ded60e1cb,ならファミリー店,6310821,奈良県,奈良市,西大寺東町2-4-1,ならファミリー 2階,,,,,,
3632298b-54b9-4986-a04c-123ecc060967,橿原中和幹線常盤店,6340003,奈良県,橿原市,常盤町549-1,,,,,,,
89a9184f-c633-4425-bfed-59e019043143,橿原中和幹線葛本店,6340007,奈良県,橿原市,葛本町789-１,,,,,,,
24730d10-d48a-4a33-a624-6a7eb34133a0,イオンモール橿原 ウエスト・ビレッジ店,6340836,奈良県,橿原市,新堂町357-1,イオンモール橿原 ウェスト・ビレッジ,,,,,,
69e5a88f-2669-404b-8696-abd3fe48a02e,イオンモール橿原店,6340837,奈良県,橿原市,曲川町7-20-1-102,,,,,,,
bf7fe0d2-d857-43e3-8edb-d80507c0506f,大和高田店,6350026,奈良県,大和高田市,神楽281-4,,,,,,,
4b13ed3f-f54f-48d2-9862-3432131d8087,大和高田市役所通り店,6350095,奈良県,大和高田市,大中100-1,,,,,,,
a2ced307-661f-473e-8042-97b6bf74e6eb,奈良西大和ニュータウン店,6360082,奈良県,北葛城郡,河合町薬井476-4,,,,,,,
86b152ef-9de9-43df-8e4f-e0c926a1f785,奈良香芝店,6390251,奈良県,香芝市,逢坂7-130-1,,,,,,,
4779b0bf-c776-45e0-84d8-7e4f30bfd811,大和郡山アピタ店,6391028,奈良県,大和郡山市,田中町宮西517,アピタ大和郡山店,,,,,,
853df8bf-146d-410d-82c2-572718d5c309,イオンモール大和郡山店,6391101,奈良県,大和郡山市,下三橋町741,イオンモール大和郡山,,,,,,
f73c8181-1027-4ade-b590-76e94a61062b,イオンモール大和郡山 中央コート店,6391101,奈良県,大和郡山市,下三橋町741,イオンモール大和郡山,,,,,,
b2087d08-6427-4eca-9352-3b9e3cacdc84,奈良葛城店,6392111,奈良県,葛城市,柿本91-3,,,,,,,
44ddbfd5-5178-44d0-a2f1-80728e750dec,蔦屋書店 和歌山市民図書館店,6408202,和歌山県,和歌山市,屏風丁17,,,,,,,
ab84e68c-7b6a-4ee2-935c-a1397194db9c,和歌山昭和通り店,6408314,和歌山県,和歌山市,神前174-5,,,,,,,
1fc360d9-7b97-4f58-bce0-d451456814b0,ガーデンパーク和歌山店,6408421,和歌山県,和歌山市,松江向鵜ノ島1469-1,ガーデンパーク和歌山,,,,,,
77522c79-a586-4509-8d9d-59a0f179cbc2,イオンモール和歌山店,6408454,和歌山県,和歌山市,ふじと台23番地,イオンモール和歌山,,,,,,
1410e09a-e3d0-48bc-8c51-a9ebef90f340,和歌山パームシティ店,6408433,和歌山県,和歌山市,中野長差31-1,パームシティ和歌山,,,,,,
fc0cb742-bc78-44c9-858f-5bafbf371073,和歌山県立医科大学附属病院店,6410012,和歌山県,和歌山市,紀三井寺811-1,立医科大学附属病院,,,,,,
6df9b8d9-e230-47dd-82e9-8caf5346be61,和歌山大浦街道店,6410031,和歌山県,和歌山市,西小二里2-4-80,,,,,,,
d2564786-b5eb-44c7-be12-7087f84220b0,メッサオークワ 和歌山高松店,6410051,和歌山県,和歌山市,西高松1-7-88,メッサオークワ 高松店,,,,,,
8b581cfe-86e5-4f45-80f5-8d2a407bef48,海南nobinos店,6420002,和歌山県,海南市,日方1525-6,海南nobinos,,,,,,
46dcc300-2460-470a-b219-24072d1450f9,和歌山橋本店,6480016,和歌山県,橋本市,隅田町下兵庫615-1,,,,,,,
2a6698c1-9952-49e0-8cc2-0d15b3375b4b,和歌山岩出店,6496228,和歌山県,岩出市,大町9-3,,,,,,,
93734307-740c-42f3-90c1-7dbbdb176045,シャミネ鳥取店,6800835,鳥取県,鳥取市,東品治町112-13,,,,,,,
77c14a17-c527-46a4-b6c8-db841309b2fd,イオンモール鳥取北店,6800904,鳥取県,鳥取市,晩稲348,,,,,,,
a74a0195-fac5-458e-9e56-c2b023e3ec0f,米子中島店,6830005,鳥取県,米子市,中島2-3-8,,,,,,,
614f3366-a2d0-4f96-92ab-dd6a84f1f593,米子 TSUTAYA角盤町店,6830812,鳥取県,米子市,角盤町4-41,,,,,,,
3345526b-fa3e-4d9d-9204-f31c61a084a3,イオンモール日吉津店,6893553,鳥取県,西伯郡,日吉津村日吉津1160-1,イオンモール日吉津,,,,,,
5929371a-0afc-46e7-a91f-11907a197a78,シャミネ松江店,6900003,島根県,松江市,朝日町472-2,,,,,,,
183c531e-86ce-4409-993b-aa5683a9deac,出雲今市店,6930002,島根県,出雲市,今市町北本町4-1-16,,,,,,,
25a152b3-86bb-4abb-a7b9-a7e60291d1e3,ゆめタウン出雲店,6930063,島根県,出雲市,大塚町650-1,ゆめタウン出雲,,,,,,
bcc58a3a-a631-4541-9db1-3cfc127b66b9,松江玉湯店,6990203,島根県,松江市,玉湯町布志名637-1,,,,,,,
29b85cc0-072f-44a2-b178-dbaa5508aaa9,出雲大社店,6990711,島根県,出雲市,大社町杵築南841,,,,,,,
70e47620-db6c-48d1-9da0-1d01f112062d,岡山一番街店,7000024,岡山県,岡山市北区,駅元町一番街地下4号,,,,,,,
5d0d5b55-58b4-409f-ae60-795b4d8b74bf,さんすて岡山店,7000024,岡山県,岡山市北区,駅元町1-1,サンステーションテラス岡山,,,,,,
57f9e267-16a1-4dea-980f-2e48fc79c9fe,岡山大安寺店,7000066,岡山県,岡山市北区,野殿西町329-1,ハピーズ大安寺,,,,,,
a9b5b68b-6317-4c4c-8d1d-60312561bb24,イオンモール岡山5階店,7000907,岡山県,岡山市北区,下石井1-2-1,,,,,,,
2f563470-6e67-46c4-b73e-eab6e80282e2,イオンモール岡山1階店,7000907,岡山県,岡山市北区,下石井1-2-1,イオンモール岡山,,,,,,
bd894d35-28c5-4237-a6d2-fd2b0da995df,岡山青江店,7000941,岡山県,岡山市北区,青江1-1-5,,,,,,,
950c3079-450b-4d10-bc90-ee17b8812158,岡山中仙道店,7000964,岡山県,岡山市北区,中仙道1-4-13,,,,,,,
a70c2385-6006-4898-a3e5-451a6c0ab960,岡山大学病院店,7000914,岡山県,岡山市北区,鹿田町2-5-1,岡山大学病院　,,,,,,
f8d57c00-3e60-4700-9762-c6b91a4054b3,岡山天満屋店,7000821,岡山県,岡山市北区,中山下2-3-4,岡山天満屋 県庁通り館1F,,,,,,
6b7c690e-da15-4e76-8951-37e884920473,岡山シネマタウン岡南店,7028056,岡山県,岡山市南区,築港新町1-25-1,シネマタウン岡南,,,,,,
b70134f3-9190-4983-9305-04f0dbe0a6b2,岡山けやき通り店,7038258,岡山県,岡山市中区,西川原124-1,,,,,,,
2ad3d5b2-a8b7-40a3-9ff9-c4cc1733ea6e,岡山平井店,7038282,岡山県,岡山市中区,平井7-19-8,,,,,,,
073ff5b3-a44f-4135-8a5c-33edaba74840,岡山西大寺店,7048191,岡山県,岡山市東区,西大寺中野427-1,,,,,,,
95fc54a0-a39c-47d0-8a81-d7eb1463d8ec,津山ウエストランド店,7080013,岡山県,津山市,二宮71,ウエストランド,,,,,,
b371ba6e-b056-49a0-82c6-4c1b61a60e92,イオンモール津山店,7080842,岡山県,津山市,河辺1000-1,イオンモール津山,,,,,,
78946921-2b85-49ba-a73f-f6f85db13c8c,倉敷平田店,7100003,岡山県,倉敷市,平田283-1,,,,,,,
afb82443-de9b-4f1c-87bb-86914333be70,倉敷天満屋店,7100055,岡山県,倉敷市,阿知1-7-1,天満屋　倉敷店,,,,,,
b1c6b7f2-34e4-4d86-a9b0-6480b59b3214,イオンモール倉敷店,7100802,岡山県,倉敷市,水江1,イオンモール倉敷,,,,,,
daf2dc07-f6f9-47a2-a90d-201b587d0207,倉敷中島店,7100803,岡山県,倉敷市,中島2236-102,ハピーズ倉敷中島,,,,,,
083d063d-d556-41d6-9a29-2672976b9015,三井アウトレットパーク倉敷店,7100813,岡山県,倉敷市,寿町12-3,三井アウトレットパーク倉敷,,,,,,
ac84618f-e750-407d-a279-bbdba8fe3c58,倉敷安江店,7100825,岡山県,倉敷市,安江85－1,,,,,,,
e9a3b196-d5c7-4e3a-b55d-ebb870aa8fc4,倉敷笹沖店,7100834,岡山県,倉敷市,笹沖6-1,,,,,,,
28d34a1f-35e3-445e-80d5-a9f218d568a6,蔦屋書店 高梁市図書館店,7160039,岡山県,高梁市,旭町1306,,,,,,,
2629c171-8ba4-42f5-9726-cd8ee633cb76,JR福山駅店,7200066,広島県,福山市,三之丸町30-1,福山駅構内,,,,,,
7b37a8f9-23f7-48fc-8044-cf63a40b7fa2,福山多治米店,7200824,広島県,福山市,多治米町4-12-12,,,,,,,
7f9497de-a221-46f0-9c3d-22a2876bf108,福山サービスエリア（下り線）店,7200841,広島県,福山市,津之郷町津之郷333-2,山陽自動車道 福山サービスエリア(下り線),,,,,,
44e381cf-a8ce-4b5d-9ad7-60e0b370e316,TSUTAYA 駅家店,7201133,広島県,福山市,駅家町近田104,,,,,,,
dee2e191-04a6-402d-8d3b-2301d7bbc783,福山ポートプラザ天満屋店,7200801,広島県,福山市,入船町3-1-25,福山ポートプラザ,,,,,,
b5047ce8-57bb-4396-9aa0-cb614d7bc964,TSUTAYA 伊勢丘店,7210915,広島県,福山市,伊勢丘3-1-1,,,,,,,
fc9d74c2-8fec-4fc3-a9f7-d7ba085ef210,TSUTAYA 新涯店,7210955,広島県,福山市,新涯町3-21-11,,,,,,,
8d35fdd7-89eb-4bec-b435-c6e35a0064c3,福山蔵王店,7210973,広島県,福山市,南蔵王町6-2-14,,,,,,,
432970be-7ed3-42b1-ace0-cdcb60089a86,福山南蔵王182号店,7210973,広島県,福山市,南蔵王町2-26-46,,,,,,,
5240e900-08fb-4f02-bada-c897a5afbe57,三原店,7230052,広島県,三原市,皆実2-3-14,,,,,,,
172d6baa-a5bd-4a61-bbc6-67c7ba1e11a1,尾道高須店,7290141,広島県,尾道市,高須町4789-1,,,,,,,
2820c841-1df3-4cbc-9f41-d810ba282469,広島市中央公園店,7300011,広島県,広島市中区,基町5-25,SHIMINT HIROSHIMA F棟,,,,,,
7b63a147-1785-42a9-ad33-4ec99ca787dd,紙屋町シャレオ店,7300031,広島県,広島市中区,紙屋町,地下街シャレオ202,,,,,,
7796579c-d8be-4abe-9a81-e2a0ad36013c,広島パルコ店,7300034,広島県,広島市中区,新天地2-1,広島パルコ 新館5階,,,,,,
e5f5849d-731f-4c3e-a857-7ea3ef5c6891,広島本通り店,7300035,広島県,広島市中区,本通り9-1,,,,,,,
7be2f689-cf36-449f-ac00-a0535fb8b1c5,ＮＨＫ広島ビル店,7300051,広島県,広島市中区,大手町2-11-10,ＮＨＫ広島放送センター 2F,,,,,,
df690b27-0a39-4688-bab4-2b1c65160c1e,広島三越店,7300021,広島県,広島市中区,胡町5-1,広島三越,,,,,,
5c89bcf8-e21c-4e33-ac74-75f792b13ea6,広島赤十字・原爆病院店,7300052,広島県,広島市中区,千田町1-9-6,,,,,,,
444963f3-eae8-457f-92bf-86d98514f0e4,TSUTAYA BOOKSTORE ラクア緑井店,7310103,広島県,広島市安佐南区,緑井5-22-1,ラクア緑井,,,,,,
81df001d-a335-4785-b6cc-551615bb6370,イオンモール広島祇園店,7310138,広島県,広島市安佐南区,祇園3-2-1,イオンモール広島祇園,,,,,,
55c0845d-3dac-47a2-ab0d-dab05fd1375d,ジ アウトレット広島店,7315162,広島県,広島市佐伯区,石内東4-1-1,THE OUTLETS HIROSHIMA,,,,,,
84549e64-4945-4f7c-bf8c-926d880b1e59,広島段原店,7320818,広島県,広島市南区,段原日出2-3-1,,,,,,,
b616c113-1c79-4c71-b314-4f3fff05dd78,ミナモア広島2階店,7320822,広島県,広島市南区,松原町1-2,ミナモア広島2階,,,,,,
92b1dfaa-67de-46ad-be0f-b0e44363c594,広島 蔦屋家電店,7320822,広島県,広島市南区,松原町3-1-1,,,,,,,
330b646e-50fc-4b46-8c42-1088802f6f4d,ミナモア広島4階店,7320822,広島県,広島市南区,松原町2-37,ミナモア広島4階,,,,,,
a4f8bf6b-4662-448c-9995-868d9da45c33,広島大宮店,7330007,広島県,広島市西区,大宮1-26-4,,,,,,,
6c8a1689-401b-47a5-811f-8215eaa5e04c,広島 蔦屋書店,7330831,広島県,広島市西区,扇2-1-45,,,,,,,
531eca3d-dad1-463e-b03a-636f6390b58b,広島アルパーク店,7330834,広島県,広島市西区,草津新町2-26-1,アルパーク,,,,,,
ba16cf05-fa9a-4abc-a81b-7b3315414771,イオン宇品店,7340003,広島県,広島市南区,宇品東6-1-15,イオン宇品ショッピングセンター,,,,,,
a8d49fc0-b333-4d12-bf07-7ba15f66c138,ゆめタウン広島店,7340007,広島県,広島市南区,皆実町2-224-7,ゆめタウン広島,,,,,,
cc8ccc08-76da-4f68-915e-dc747afacfd3,広島大学病院店,7340037,広島県,広島市南区,霞1-2-3,広島大学病院・（財）緑風会内,,,,,,
dd7b8bc5-4a4c-44b9-99e7-ac546d8d59cf,イオンモール広島府中 1階店,7350021,広島県,安芸郡,府中町大須2-1-1,,,,,,,
43b8a375-4926-4cb3-8d20-8a628184c4e5,イオンモール広島府中 3階店,7350021,広島県,安芸郡,府中町大須2-1-1,イオンモール広島府中,,,,,,
3ef098d2-5056-47fa-83a9-325168e58ad8,ゆめタウン呉店,7370029,広島県,呉市,宝町5-10,ゆめタウン呉,,,,,,
7c955894-862d-426c-ba30-429bad33e803,ゆめタウン廿日市店,7380023,広島県,廿日市市,下平良2-2-1,,,,,,,
4a692a4c-3974-436f-8b69-3732793543e0,宮島サービスエリア(下り線)店,7380026,広島県,廿日市市,上平良293,宮島サービスエリア(下り線),,,,,,
ab55c76a-4d4c-4e6d-82f0-b39f91da0edd,ゆめモール西条店,7390021,広島県,東広島市,西条町助実原比1212-1,,,,,,,
683892b4-4c9d-457e-9aba-ff81e2b43eb2,厳島表参道店,7390588,広島県,廿日市市,宮島町459-2,,,,,,,
82e3bd95-f086-4468-aa4a-9ae8cce0bf5f,小谷サービスエリア(上り線)店,7392121,広島県,東広島市,高屋町小谷5661,小谷サービスエリア(上り線),,,,,,
aa1eba14-9af0-41ae-aa5c-57639b2ccb19,蔦屋書店 周南市立徳山駅前図書館店,7450034,山口県,周南市,御幸通2-28-2,,,,,,,
c126a79b-f69a-457e-b19f-2eaa21c878f8,防府店,7470054,山口県,防府市,開出西町23-3,,,,,,,
24719f0e-b8f7-43d4-ab35-6f589c92c443,下関あるかぽーと店,7500036,山口県,下関市,あるかぽーと2-28,,,,,,,
21c427d8-09d0-4e22-b534-1939c76a1df6,大丸下関店,7500025,山口県,下関市,竹崎町4-4-10,大丸下関,,,,,,
c9bf9dac-1627-42ff-a5db-a8c25ba67f99,下関一の宮町店,7510806,山口県,下関市,一の宮町2-17-8,,,,,,,
0d9e0483-a0c2-4394-8339-732edb2cc214,ゆめシティ新下関店,7510869,山口県,下関市,伊倉新町3-1-1,ゆめシティ,,,,,,
88233fbe-3e8e-4d84-92ab-9139ca58e799,山口市中央公園店,7530075,山口県,山口市,中園町7-10,,,,,,,
34ec4b6c-189e-42a0-a02c-572b586dc776,ゆめタウン山口店,7530251,山口県,山口市,大内千坊6-9-1,ゆめタウン山口,,,,,,
10427727-6e28-49cc-befe-1d57e966acc2,宇部琴芝店,7550034,山口県,宇部市,東琴芝1-4-53,,,,,,,
28b5f73e-2753-4cfc-a338-8d502b5c918c,おのだサンパーク店,7560806,山口県,山陽小野田市,中川6-4-1,おのだサンパーク,,,,,,
06ff552b-f6a1-4049-8e93-6c9156d3c444,徳島北田宮店,7700003,徳島県,徳島市,北田宮2-1-8,,,,,,,
f221b4bb-d3c1-4871-a27e-bd791cc2de45,徳島駅クレメントプラザ店,7700831,徳島県,徳島市,寺島本町西1-61,徳島駅クレメントプラザ,,,,,,
140b977f-4e04-40d4-9fc7-8a9a7484dd4d,イオンモール徳島店,7700865,徳島県,徳島市,南末広町4-1,,,,,,,
68479e7d-64ad-4a29-890e-b03b0ceb8e42,徳島万代店,7700941,徳島県,徳島市,万代町5-8-2-1,,,,,,,
ba880720-fc9d-4ef5-8965-7351168979bb,徳島沖浜店,7708052,徳島県,徳島市,沖浜2-5,,,,,,,
1af05595-8c80-4697-a07e-5d26576e8110,ゆめタウン徳島店,7711202,徳島県,板野郡,藍住町奥野東中須88-1,ゆめタウン徳島,,,,,,
98ba7226-e4b9-4ed7-8ddf-e01f314e7748,高松西宝町店,7600004,香川県,高松市,西宝町1-5-15,,,,,,,
4a735603-98a8-4cec-806b-d2cecdbddcd1,JR高松駅店,7600011,香川県,高松市,浜ノ町1-20,COM高松,,,,,,
c4b19eca-addd-4780-8f87-ab77671ca25d,高松丸亀町フェスタ店,7600029,香川県,高松市,丸亀町6-1,フェスタ河野１,,,,,,
f368c14c-e330-41f9-bc50-d76241ab9ee3,高松瓦町駅店,7600054,香川県,高松市,常磐町1-3-1,琴電瓦町ビル,,,,,,
7b651608-1e5d-4cfa-9c3e-8ef97499dbca,高松上福岡店,7600077,香川県,高松市,上福岡町2021-5,,,,,,,
d0c00926-163a-4735-9407-f6baf8694a7a,香川大学病院店,7610701,香川県,木田郡,三木町池戸1750-1,香川大学医学部付属病院,,,,,,
1900ec99-b826-4761-b066-6e843006b504,イオンモール綾川店,7612304,香川県,綾歌郡,綾川町萱原822-1,イオンモール綾川,,,,,,
55226038-d24e-4bf7-aa92-4fcecada9bb1,イオンモール高松店,7618012,香川県,高松市,香西本町1-1,イオンモール高松,,,,,,
b4308011-3f82-49f7-838d-aeb0b533bb9a,高松レインボーロード店,7618071,香川県,高松市,伏石町2084-5,ヤマダ電機テックランドNew高松,,,,,,
5a87128e-e3aa-4269-afb6-3beb7f4cbf4e,高松伏石店,7618071,香川県,高松市,伏石町2149-8,,,,,,,
f15b8f83-2ca4-4131-a295-7ee55a20416b,ゆめタウン高松 1階店,7618072,香川県,高松市,三条町中所608-1,ゆめタウン高松,,,,,,
5e6dc8cd-49c1-4750-a66c-5067bacecdc8,ゆめタウン高松 東館3階店,7618072,香川県,高松市,三条町608-1,ゆめタウン高松 東館3階,,,,,,
129c8f1e-960e-4553-89a0-d6a6d1df4cbc,高松サン・フラワー通り店,7618073,香川県,高松市,太田下町3010-3,,,,,,,
910eadb5-4d92-433f-8554-8f119a80002f,坂出久米店,7620003,香川県,坂出市,久米町１-26-1,,,,,,,
f89f8211-569e-4fab-af1c-fe64ea1cd996,丸亀マルタス店,7630034,香川県,丸亀市,大手町2-4-11,市民交流活動センター マルタス,,,,,,
788a52d5-5252-4199-aa64-21d88d772196,丸亀新田店,7630055,香川県,丸亀市,新田町179-3,,,,,,,
8ee75a3a-af69-490e-8412-da7489002ffb,TSUTAYA 宇多津店,7690203,香川県,綾歌郡,宇多津町浜3-21-2,,,,,,,
379794df-4fb6-47ff-85a7-0c63215fd1fb,松山いよてつ会館ビル店,7900004,愛媛県,松山市,大街道3-1-1,いよてつ会館ビル,,,,,,
307a8e5c-b9ff-4da7-9ae1-a0bb32c00c29,松山湊町店,7900012,愛媛県,松山市,湊町7-1-29,,,,,,,
96dff97f-913a-4a92-9db5-b3b31d57c146,松山市駅前店,7900012,愛媛県,松山市,湊町4-4-1,,,,,,,
3e4fe4fa-5b25-422d-b4fc-e733ee414b13,道後温泉駅舎店,7900843,愛媛県,松山市,道後町１-10-12,,,,,,,
3f2bda5f-572f-4cbb-b91e-3803f1b9065a,松山はなみずき通り店,7900942,愛媛県,松山市,古川北3-7-28,,,,,,,
704364ed-8a75-4068-a317-aa56232422ae,松山古川北店,7900942,愛媛県,松山市,古川北2-21-14,,,,,,,
6ccd08fd-0150-4efc-90d2-03de0737cece,TSUTAYA BOOK STORE 重信店,7910216,愛媛県,東温市,野田3-1-13,フジグラン重信,,,,,,
d93a1530-6587-4cfb-a57f-1e5693c23693,TSUTAYA BOOKSTORE エミフルMASAKI店,7913120,愛媛県,伊予郡,松前町筒井850,エミフルMASAKI エミモール2F,,,,,,
138fdcde-86b3-4304-a23a-d3b38c502093,松山平田店,7918001,愛媛県,松山市,平田町17-2,,,,,,,
e63f2186-fa6f-485f-9cd2-2f173ff015ac,松山中央店,7918015,愛媛県,松山市,中央1-4-12,,,,,,,
098a6e35-a1da-4ffd-9822-37264592e4b1,イオンモール新居浜店,7920007,愛媛県,新居浜市,前田町8-8,イオンモール新居浜,,,,,,
1b68c987-bdba-409e-b475-113af34a47ab,西条新田店,7930028,愛媛県,西条市,新田141-2,,,,,,,
1445198e-8fa6-40f9-ac9b-8f36164e0177,イオンモール今治新都市店,7940068,愛媛県,今治市,にぎわい広場1-1,,,,,,,
d4892b42-beb9-4b89-9f59-824983b6fefd,今治鳥生店,7940812,愛媛県,今治市,北高下町1-5-13,,,,,,,
adc6ba6d-6008-4b86-890b-29192f04a7a9,イオンタウン川之江店,7990113,愛媛県,四国中央市,妻鳥町1769,イオンタウン川之江,,,,,,
8406f740-329f-49fc-a39d-089c226a3bc2,イオンモール高知1階店,7800026,高知県,高知市,秦南町1-4-8,イオンモール高知 1階,,,,,,
8adbb304-e8ab-43ba-b494-fff088c35fb3,イオンモール高知2階店,7800026,高知県,高知市,秦南町1-4-8,イオンモール高知 2階,,,,,,
9ed33d21-23fd-4e74-b252-ae1b3d28a83d,高知 蔦屋書店,7810084,高知県,高知市,南御座90-1,,,,,,,
4f02b40d-14d1-4bea-b439-d89ef1260be2,高知帯屋町店,7800841,高知県,高知市,帯屋町2-2-14,岡村帯屋町ビル,,,,,,
9d62602c-e418-42fb-b4aa-465612cb9154,高知あぞの店,7810011,高知県,高知市,薊野北町1-9-39,,,,,,,
a398984b-7665-4533-8f10-d4bd47111f91,高知知寄店,7810801,高知県,高知市,小倉町1-40,,,,,,,
b923fbd0-a288-47dd-ae5b-837074287137,高知潮江店,7818008,高知県,高知市,潮新町2-13-28,,,,,,,
179b342c-15ef-4d10-a5c5-d4bc5d2beaca,サンリブシティ小倉店,8000255,福岡県,北九州市小倉南区,上葛原2-14-１,サンリブシティ小倉,,,,,,
3af27c1e-5517-4f37-ac90-f37b1ec69f39,門司港駅店,8010841,福岡県,北九州市門司区,西海岸1-5-31,,,,,,,
25d5c7cd-2e5c-426e-aa97-f5d8f824cd99,アミュプラザ小倉店,8020001,福岡県,北九州市小倉北区,浅野1-1-1,アミュプラザ小倉,,,,,,
46d81b4f-35d3-4e4f-803f-e56e53eb71aa,小倉京町店,8020002,福岡県,北九州市小倉北区,京町2-7-3,ユニバース京町ビル,,,,,,
e4415cc0-4c5c-44c8-8daf-d8399abc68a5,リバーウォーク北九州デコシティ店,8030812,福岡県,北九州市小倉北区,室町1-1-1,リバーウォーク北九州　デコシティ1F,,,,,,
218f3acc-2386-40ee-81a3-70183e89976d,到津の森公園店,8030845,福岡県,北九州市小倉北区,上到津4-1-13,到津の森公園,,,,,,
ac7278b0-e9ef-407f-bdb1-c6c588bcf368,八幡平野店,8050062,福岡県,北九州市八幡東区,平野3-2-60,皿倉テラス,,,,,,
7b57120e-1bbd-4390-b02a-c1381d3b2d4e,イオンモール八幡東店,8050071,福岡県,北九州市八幡東区,東田3-2-102,イオンモール八幡東,,,,,,
9c46f32b-04b7-4a64-b50c-7d2ffde82d59,ジ アウトレット北九州店,8050071,福岡県,北九州市八幡東区,東田4-1-1,ジ アウトレット北九州,,,,,,
13552c80-9e61-4504-b860-2c1beac83870,黒崎駅店,8060021,福岡県,北九州市八幡西区,黒崎3-15-1,,,,,,,
9282cac8-72bf-481f-86a6-cff605a2a2c2,折尾駅店,8070834,福岡県,北九州市八幡西区,北鷹見町13-17,えきマチ1丁目折尾1階,,,,,,
f87458cf-4cad-4eb7-8036-eab71d828ca3,八幡永犬丸店,8070851,福岡県,北九州市八幡西区,永犬丸4-6-27,,,,,,,
c536473d-efdf-4b05-bd8b-370022aaacd0,イオン若松店,8080103,福岡県,北九州市若松区,二島1-3-1,イオン若松ショッピングセンター,,,,,,
407681e4-fce6-4461-9b82-1b6cb10f115f,イオンなかま店,8090013,福岡県,中間市,上蓮花寺1-1-2,イオンなかま,,,,,,
d843d6c1-9ff2-41cc-a27d-b639ceec814c,天神地下街店,8100001,福岡県,福岡市中央区,天神2丁目地下０号,天神地下街,,,,,,
6f621e33-881f-4a5f-9261-84ff427f15af,天神VIORO店,8100001,福岡県,福岡市中央区,天神2-10-3,天神VIORO,,,,,,
34b86f0d-96be-47bc-b29d-81ec5e7216b1,福岡パルコ店,8100001,福岡県,福岡市中央区,天神2-11-1,福岡パルコ新館,,,,,,
0d509ae5-9b1a-405d-8b5b-44d3fc5afcd8,天神ソラリアステージ店,8100001,福岡県,福岡市中央区,天神2-11-3,ソラリアステージ,,,,,,
ea04c1a2-9913-4081-9e56-039327ea1731,西鉄天神高速バスターミナル店,8100001,福岡県,福岡市中央区,天神2-1-1,ソラリアターミナルビル　3階,,,,,,
b25be0a2-a87e-4309-a417-acc66a98367d,福岡天神 蔦屋書店,8100001,福岡県,福岡市中央区,天神1-11-1,ONE FUKUOKA BLDG. 4階,,,,,,
b09ebf04-a747-4ed7-9fde-5ea6a8af8e70,ミーナ天神店,8100001,福岡県,福岡市中央区,天神4-3-8,ミーナ天神,,,,,,
f9ada626-46b9-4b03-99d2-a8339ac6e3eb,天神駅店,8100001,福岡県,福岡市中央区,天神2丁目,福岡市地下鉄天神駅東改札前,,,,,,
286fe70c-62e7-4732-92e8-a729992171e1,天神南渡辺通り店,8100004,福岡県,福岡市中央区,渡辺通4-9-18,福酒ビル,,,,,,
6433c28a-fc54-45de-9970-9882f369df13,福岡赤坂門店,8100041,福岡県,福岡市中央区,大名2-4-22,新日本ビル 1F,,,,,,
b486ebab-77be-4fc1-b8b4-388f028236fe,天神西通り店,8100041,福岡県,福岡市中央区,大名1-13-25,,,,,,,
27834a36-5e9e-4ca3-9cc6-171d7daf8bbb,六本松 蔦屋書店,8100044,福岡県,福岡市中央区,六本松4-2-1,,,,,,,
75214588-0996-4c2e-a441-cb00b264499f,福岡大濠公園店,8100051,福岡県,福岡市中央区,大濠公園1-8,,,,,,,
358541ff-f032-4710-9203-7e327baa2f0f,マークイズ福岡ももち店,8100065,福岡県,福岡市中央区,地行浜2-2-1,マークイズ福岡ももち,,,,,,
558adec2-fb97-4a3b-b03a-6a84e366aed0,TSUTAYA マークイズ 福岡ももち店,8100065,福岡県,福岡市中央区,地行浜2-2-1,マークイズ福岡ももち,,,,,,
753d79f7-e029-4906-aefc-1f767cc29931,IWATAYA本店新館店,8100001,福岡県,福岡市中央区,天神2-5-35,岩田屋本店新館,,,,,,
8f8d5a37-1f2d-4f97-9b35-1685abae27a5,福岡新宮店,8110120,福岡県,糟屋郡,新宮町中央駅前2-5-15,,,,,,,
11e60da6-a1fd-4535-9577-902fe08c8fcc,ABURAYAMA FUKUOKA店,8111353,福岡県,福岡市南区,柏原710-2,ABURAYAMA FUKUOKA,,,,,,
44e50751-9296-433c-91bb-2c7635cd8831,イオンモール福岡店,8112303,福岡県,糟屋郡,粕屋町酒殿老ノ木192-1,,,,,,,
377c8aa0-01a2-4470-97d0-9ec8c79882cd,福岡古賀店,8113107,福岡県,古賀市,美明3-5-12,,,,,,,
7f735b3c-4dda-44cf-b321-baff351698fe,イオンモール福津店,8113209,福岡県,福津市,日蒔野6-16-1,イオンモール福津,,,,,,
ba5bbcb0-57b5-48eb-9fdb-65db16ae1f48,宗像店,8113424,福岡県,宗像市,原町古森141-1,,,,,,,
853521a0-83ba-4a41-ac20-0d6dae6b3a7b,福岡空港国内線ターミナル3階店,8120003,福岡県,福岡市博多区,下臼井767-1,福岡空港国内線ターミナルビル,,,,,,
f63da941-bc1c-4a93-9a3f-c0e0b80dadb9,福岡朝日ビル店,8120011,福岡県,福岡市博多区,博多駅前2-1-1,福岡朝日ビル 1F,,,,,,
4539b884-de80-44d0-90ec-e4cdfa1de172,博多駅前ビジネスセンター店,8120011,福岡県,福岡市博多区,博多駅前3-25-21,博多駅前ビジネスセンター,,,,,,
e764714e-a0e3-4b11-ab0f-96198428d936,ザ・ブラッサム博多プレミア店,8120011,福岡県,福岡市博多区,博多駅前2-8-12,THE BLOSSOM HAKATA Premier,,,,,,
49de6f9d-c4c7-4488-be5b-a82296b2ed6c,オリエンタルホテル福岡博多ステーション店,8120012,福岡県,福岡市博多区,博多駅中央街4-23,オリエンタルホテル福岡博多ステーション 1F,,,,,,
a4acef0a-a9cd-45f6-ae1b-e2a64e3fc8ab,アミュプラザ博多 3階店,8120012,福岡県,福岡市博多区,博多駅中央街1-1,アミュプラザ博多 3F,,,,,,
25ca28cf-1230-4b96-b3e7-5b8c025f1d8f,ＫＩＴＴＥ博多店,8120012,福岡県,福岡市博多区,博多駅中央街9-1,,,,,,,
a22c0d2d-df29-4164-ac84-cfa6a179f325,JRJP博多ビル店,8120012,福岡県,福岡市博多区,博多駅中央街8-1,,,,,,,
1601462d-46c6-405f-8bf4-3a7604ec6f4f,博多駅新幹線改札内店,8120012,福岡県,福岡市博多区,博多駅中央街1-1,JR博多駅新幹線構内2階,,,,,,
95902ac6-5b8c-4afb-ae26-62819ac1307e,博多デイトスアネックス店,8120012,福岡県,福岡市博多区,博多駅中央街1-1,博多デイトスアネックス2階,,,,,,
6cadca77-ec98-4782-a9ec-6968c626b2a1,アミュプラザ博多 2階店,8120012,福岡県,福岡市博多区,博多駅中央街1-1,アミュプラザ博多 2F,,,,,,
3dc4a704-a643-48b6-8c6a-1570619d5008,都ホテル 博多店,8120013,福岡県,福岡市博多区,博多駅東2-1-1,都ホテル 博多1階,,,,,,
37ee5487-6982-4564-8050-82053e16d3a7,キャナルシティ博多店,8120018,福岡県,福岡市博多区,住吉1-2-22,キャナルシティＯＰＡ B1F,,,,,,
a2e2386f-6bbc-497d-8dda-13bd191e405e,博多千代県庁口店,8120044,福岡県,福岡市博多区,千代1-21-42,,,,,,,
9599c32a-56d3-45f9-ac2e-b7d7d0889aaa,ボックスタウン箱崎店,8120053,福岡県,福岡市東区,箱崎4-6-20,ボックスタウン箱崎,,,,,,
52f87d56-fda8-4a79-a152-2cb9a8c9957b,ゆめタウン博多店,8120055,福岡県,福岡市東区,東浜1-1-1,ゆめタウン博多,,,,,,
dd54cbf1-f575-4d57-90fd-9623aaa0b3bf,福岡空港国際線ターミナル店,8120851,福岡県,福岡市博多区,青木739,,,,,,,
5cbe5f63-3c0c-4868-9ba6-4a6686af686f,博多の森店,8120853,福岡県,福岡市博多区,東平尾1-71-9,,,,,,,
236d28a8-4e3d-47cc-8538-74f744a66040,ららぽーと福岡店,8120893,福岡県,福岡市博多区,那珂6-23-1,ららぽーと福岡,,,,,,
8fdbf456-f9c1-40d0-919d-42ad1ba217a5,福岡香椎店,8130012,福岡県,福岡市東区,香椎駅東3-30-11,,,,,,,
bbd6d2ce-356c-40f2-9299-8fbcd05d6622,イオンモール香椎浜店,8130016,福岡県,福岡市東区,香椎浜3-12-1,イオンモール香椎浜,,,,,,
48e08431-3bc5-432b-8692-af5b505c6383,ガーデンズ千早東店,8130044,福岡県,福岡市東区,千早3-6-36,エディオン ガーデンズ千早東店1階,,,,,,
1060f289-9d99-4793-9bf7-766727d2853d,福岡大学病院店,8140133,福岡県,福岡市城南区,七隈7-45-1,福岡大学病院新館,,,,,,
1f17e95e-2993-4ec0-bc85-adeba690b4e9,福岡次郎丸店,8140165,福岡県,福岡市早良区,次郎丸2-10-10,,,,,,,
fdb004a0-c7d6-4afd-ba67-94b3f404aa32,西鉄大橋駅店,8150033,福岡県,福岡市南区,大橋1-5-1,,,,,,,
29c5dfc4-0706-409b-9a32-7bb55039c396,パセオ野間大池店,8150063,福岡県,福岡市南区,柳河内1-2-1,パセオ野間大池,,,,,,
9b4b9dd6-0b49-4ee2-95e8-eb30f9001cef,福岡春日店,8160814,福岡県,春日市,春日6-14,,,,,,,
f6e0086d-9171-492b-9143-e44e5b537ba1,福岡星見ヶ丘店,8160849,福岡県,春日市,星見ヶ丘5-250-2,,,,,,,
3c46459c-92b4-4c1d-a4af-536ceb0e7680,イオンモール筑紫野店,8180042,福岡県,筑紫野市,立明寺434-1,イオンモール筑紫野,,,,,,
ffd51063-e2c2-4edc-9db9-dc8194c28e75,太宰府天満宮表参道店,8180117,福岡県,太宰府市,宰府3-2-43,,,,,,,
7a9a706f-d7ce-4e1a-b513-63015c6c2c84,太宰府向佐野店,8180135,福岡県,太宰府市,向佐野1-10-20,,,,,,,
19d78ef3-9d92-4f39-a603-12ef734550fc,福岡小戸店,8190001,福岡県,福岡市西区,小戸3-25-25,,,,,,,
ba7584fc-1277-485d-90a5-3f7b3be1dd47,ウエストコート姪浜店,8190005,福岡県,福岡市西区,内浜1-7-7,,,,,,,
5d413ec3-44da-4934-9343-f1d692ec41e5,木の葉モール橋本店,8190031,福岡県,福岡市西区,橋本2-27-2,木の葉モール橋本,,,,,,
153f79f7-b4fb-414e-9940-775a8d1c149d,イオンモール福岡伊都店,8190379,福岡県,福岡市西区,北原1-2-1,イオンモール福岡伊都,,,,,,
fc39cb0a-f84c-4000-b258-8a3bb54a0c0f,福岡周船寺店,8190379,福岡県,福岡市西区,北原2-4-6,,,,,,,
2df6a41f-c379-4f7c-8b99-50f756ebd47f,九大伊都 蔦屋書店,8190388,福岡県,福岡市西区,九大新町5-1,いとLab＋,,,,,,
ef485633-21c3-4c1f-b92c-e2b6583d0a96,ゆめタウン飯塚店,8200017,福岡県,飯塚市,菰田西3-6-1,ゆめタウン飯塚1階,,,,,,
2670c69f-876b-452b-8507-5788b00519ea,直方店,8220007,福岡県,直方市,下境894-1,,,,,,,
317a37e0-17f0-4359-b15e-b04010de6fa2,イオンモール直方店,8220008,福岡県,直方市,湯野原2-1-1,,,,,,,
3b8f67a1-d5e9-4feb-82e4-3e31ce699d9c,ゆめタウン行橋店,8240031,福岡県,行橋市,西宮市3-8-1,ゆめタウン行橋,,,,,,
123f26ba-d8db-4c0b-99a4-c5cbf865bdb4,久留米東櫛原店,8300003,福岡県,久留米市,東櫛原町413-1,,,,,,,
076a7e99-b482-4027-b4a5-2b375b00bc96,西鉄久留米駅店,8300032,福岡県,久留米市,東町上天神田316-2,エマックス・クルメ,,,,,,
f4ff4b10-abbd-4535-a0be-94a1d25dddac,久留米上津バイパス店,8300058,福岡県,久留米市,野伏間1-7-25,,,,,,,
30c8d7f8-af3f-4314-8d31-eaaa5dd51b98,筑後店,8330002,福岡県,筑後市,前津31-1,,,,,,,
d429b87d-08d1-41b4-ab07-e0cdd3325851,イオンモール大牟田店,8360037,福岡県,大牟田市,岬町3-4,イオンモール大牟田,,,,,,
54426ff7-e6a3-4110-9dc0-173656836572,ゆめタウン大牟田店,8360807,福岡県,大牟田市,旭町2-28,ゆめタウン大牟田,,,,,,
be6c2b90-2df6-49e1-818d-c2ef66212d22,久留米合川店,8390861,福岡県,久留米市,合川町309-1,,,,,,,
12138bd3-4ff8-448e-9300-05ce4ee81609,ゆめタウン久留米店,8390865,福岡県,久留米市,新合川1-2-1,ゆめタウン久留米,,,,,,
83446b28-8377-465d-96f8-f432e6218f38,佐賀南バイパス店,8400023,佐賀県,佐賀市,本庄町袋306-6,,,,,,,
945fc343-e991-4ab8-9842-a393131815e0,佐賀大学通り店,8400047,佐賀県,佐賀市,与賀町70-1,TSUTAYA積文館書店 佐大通り店,,,,,,
ca561581-003d-44d3-b4b6-a2bcd36f19f2,鳥栖プレミアム・アウトレット店,8410005,佐賀県,鳥栖市,弥生が丘8-1,鳥栖プレミアム・アウトレット,,,,,,
1caf82c5-a5b5-4d1b-a177-6e64a46be448,TSUTAYA 鳥栖店,8410026,佐賀県,鳥栖市,本鳥栖町537-1,,,,,,,
b2bec1e8-88cf-49da-876d-d2b61f525906,鳥栖蔵上町店,8410054,佐賀県,鳥栖市,蔵上町662-5,,,,,,,
003db11f-14bf-49c9-a69d-a86e57f33d35,基山パーキングエリア（上り線）店,8410201,佐賀県,三養基郡,基山町小倉2097-1,基山パーキングエリア（上り線）,,,,,,
1d734a7b-79a3-4b46-8831-20efb05d4260,蔦屋書店 武雄市図書館店,8430022,佐賀県,武雄市,武雄町武雄5304-1,,,,,,,
36b99ee6-678d-45e3-b51b-925c11c3888b,佐賀武雄店,8430023,佐賀県,武雄市,武雄町昭和277,,,,,,,
945c24d4-ea4a-4807-a8a5-332445e58cc2,唐津店,8470084,佐賀県,唐津市,和多田西山1-46-1,,,,,,,
07ec0d7b-e470-4eda-b1ee-fce54b672e76,金立サービスエリア（下り線）店,8490906,佐賀県,佐賀市,金立町金立1197-57,金立サービスエリア（下り線）,,,,,,
61bf0052-afc1-4747-81de-b3dedc32897a,佐賀兵庫店,8490915,佐賀県,佐賀市,兵庫町藤木1192-1,,,,,,,
f1657587-de9b-425d-8dc2-613e5582086c,ゆめタウン佐賀店,8490919,佐賀県,佐賀市,兵庫北5-14-1,ゆめタウン佐賀,,,,,,
28a04245-75c9-47b1-9221-d2326e06c2a1,長崎ゆめタウン夢彩都店,8500035,長崎県,長崎市,元船町10－1,ゆめタウン夢彩都,,,,,,
72cfd86c-405f-4796-aec1-2eac58c88c4a,長崎スタジアムシティ店,8500046,長崎県,長崎市,幸町7-1,STADIUM CITY SOUTH 2階,,,,,,
1d369b3e-e501-4cd2-a0a1-3f4cb38f63d5,アミュプラザ長崎 新館店,8500058,長崎県,長崎市,尾上町1-1,アミュプラザ長崎 新館 5階,,,,,,
f31e316e-a409-489a-8ebb-b8ad1ea7c3b7,アミュプラザ長崎 本館1階店,8500058,長崎県,長崎市,尾上町1-1,アミュプラザ長崎 本館1階,,,,,,
a6223ecf-7c71-42ca-ad42-487f9484920d,長崎時津店,8512105,長崎県,西彼杵郡,時津町浦郷542-2,,,,,,,
9ffa073f-d9ec-4b0d-a5c1-6ba22077732a,みらい長崎ココウォーク店,8528104,長崎県,長崎市,茂里町1-55,みらい長崎ココウオーク,,,,,,
64dbbfc8-238f-437a-a83b-f497a9ef546a,諫早駅店,8540072,長崎県,諫早市,永昌町1-2,,,,,,,
53bf8d9c-41ff-4e7f-bf4b-b9930d399073,TSUTAYA BOOKSTORE 島原店,8550036,長崎県,島原市,城内3-1600-1,,,,,,,
56c80cbf-4036-4540-911f-ac9a08e7741b,新大村駅前店,8560027,長崎県,大村市,植松3-160-9・160-10・160-11の各一部,仮換地12街区1-1画地の一部,,,,,,
c4773db5-3e36-4288-85ca-59203b530633,長崎空港店,8560816,長崎県,大村市,箕島町593,長崎空港ビルディング,,,,,,
2ab60dee-373c-4a52-8fcc-b7126cecb475,長崎大村店,8560836,長崎県,大村市,幸町25-32,,,,,,,
f35589d3-8506-47ea-b6cf-177ab8afd495,佐世保四ヶ町店,8570806,長崎県,佐世保市,島瀬町7-14,柏田ビル,,,,,,
1189c160-eab3-4985-b387-17fb93ac21d8,させぼ五番街店,8570855,長崎県,佐世保市,新港町4-10,させぼ五番街,,,,,,
e64faef5-5501-4fe6-ac13-962366428991,諫早多良見店,8590403,長崎県,諫早市,多良見町市布1546-4,,,,,,,
03fbcd7e-741c-4b7e-80e9-074ebe9ee817,熊本駅店,8600047,熊本県,熊本市西区,春日3-15-30,,,,,,,
06ee6d75-7da8-4c0d-be07-23d2c0b13e9d,アミュプラザくまもと店,8600047,熊本県,熊本市西区,春日3-15-26,アミュプラザくまもと,,,,,,
91219fff-9b6f-4183-a037-3532db8a6207,熊本清水店,8600085,熊本県,熊本市北区,高平2-25-39,,,,,,,
a4e8c70e-7c9c-44a2-88bd-9b50e365d77e,蔦屋書店 熊本三年坂店,8600801,熊本県,熊本市中央区,安政町1-2,カリーノ下通 1F,,,,,,
95ade439-f86b-429d-8c10-49acb1e9e6ce,サクラマチ 熊本店,8600805,熊本県,熊本市中央区,桜町3-10,SAKURA MACHI Kumamoto,,,,,,
f82c6792-eae6-496c-a5ee-50ed50990685,熊本シャワー通り店,8600807,熊本県,熊本市中央区,下通2-3-1,エスキュービック,,,,,,
439fee8d-427a-4075-836c-3d3f7a79e4df,熊本Ｎｅｗ－Ｓ店,8600845,熊本県,熊本市中央区,上通町2-2,Ｎｅｗ－Ｓ,,,,,,
514a4895-4937-4efa-a644-873b2160ca0f,イオンモール熊本店,8613106,熊本県,上益城郡,嘉島町上島長池2232,,,,,,,
01fa4de0-7225-4c64-851a-1ed2006e65a1,北熊本サービスエリア（上り線）店,8615501,熊本県,熊本市北区,改寄町1199,九州自動車道 北熊本サービスエリア（上り線）内,,,,,,
fbb27033-0788-4a37-885a-fd5681de4c7f,熊本インターチェンジ店,8618044,熊本県,熊本市東区,神園1-1-6,,,,,,,
9c60561a-8a2d-43fb-a969-bb995c0d7b0d,熊本益城インターチェンジ店,8620916,熊本県,熊本市東区,佐土原2-4-160,,,,,,,
187c2933-fb6e-4f6b-8289-c191c274fa3f,熊本帯山店,8620924,熊本県,熊本市中央区,帯山9-2-5,,,,,,,
58ea773d-98b8-48c6-a69e-b5f8034c4971,ゆめタウンはません店,8620965,熊本県,熊本市南区,田井島1-2-1,ゆめタウンはません,,,,,,
d81cdf8c-1fc2-40df-bc69-32e3bbcbe4b2,熊本大江店,8620971,熊本県,熊本市中央区,大江3-2-33,,,,,,,
f3dc16f6-603a-4f3f-b309-fc20d08eeaaf,ゆめタウン八代店,8660045,熊本県,八代市,建馬町3-1,ゆめタウン八代,,,,,,
46150216-0efc-46e0-9a34-1c5aec703cde,八代北の丸店,8660865,熊本県,八代市,北の丸町1-19,,,,,,,
5ec5d612-7d13-4763-914e-fe48727692ee,不知火美術館・図書館店,8690552,熊本県,宇城市,不知火町高良2352,不知火美術館・図書館,,,,,,
1552d328-e4b4-4828-b9a1-893f389d0c49,熊本ゆめタウン光の森店,8691108,熊本県,菊池郡,菊陽町光の森7-39-1,ゆめタウン光の森,,,,,,
b7050ccf-7342-48ca-af3d-c28471026f6b,熊本菊陽店,8691101,熊本県,菊池郡,菊陽町津久礼2541-1,,,,,,,
f92c58ac-6d3c-4c41-afff-ce7ee183189e,TSUTAYA BOOKSTORE 菊陽店,8691101,熊本県,菊池郡,菊陽町津久礼2746,,,,,,,
e8bcf881-fb18-4f70-a374-654247956fb0,熊本光の森ロードサイド店,8691108,熊本県,菊池郡,菊陽町光の森3-22-2,,,,,,,
0a2f805c-7f54-41b7-a132-65013858aca7,大分中春日店,8700039,大分県,大分市,中春日町12－24,,,,,,,
3580dc0d-67a5-4cf5-a739-8a0517f17d47,大分森町店,8700127,大分県,大分市,森町593-1,,,,,,,
1969668a-7a65-4499-b626-00075778c323,パークプレイス大分店,8700174,大分県,大分市,公園通り西2-1,パークプレイス大分,,,,,,
f9a03882-fbcb-4ca6-a938-89f521393140,アミュプラザおおいた 1階店,8700831,大分県,大分市,要町1-14,アミュプラザおおいた1階,,,,,,
257cb161-5424-4d9a-87d2-ecca949b679f,アミュプラザおおいた 2階店,8700831,大分県,大分市,要町1-14,アミュプラザおおいた2階,,,,,,
c9c6823f-3a9b-4e49-847e-5e9e162765b5,大分大道バイパス店,8700887,大分県,大分市,二又町3-2-6,,,,,,,
62813329-2bbe-445a-bcc2-79d8e2c860bc,大分高城店,8700918,大分県,大分市,日吉町19-18,,,,,,,
489c7193-08e2-4b0a-ab95-22beda45ec34,大分下郡店,8700952,大分県,大分市,下郡北3-25-16,,,,,,,
5fbbc6db-3dab-47d6-9db7-cfec0be12325,大分わさだトキハ店,8701155,大分県,大分市,玉沢楠本755-1,トキハわさだタウン 1F,,,,,,
e2b58098-623f-4d23-9090-6e037b2e1b4b,大分トキハ本店,8700021,大分県,大分市,府内町2-1-4,トキハ本店,,,,,,
0ca50d80-edbd-44cc-80a5-20396e4f0138,中津店,8710032,大分県,中津市,東本町5-6,,,,,,,
9fbb0cb4-1aab-4693-9a32-05eb584662f6,イオンモール三光店,8710111,大分県,中津市,三光佐知1032,イオンモール三光1階,,,,,,
46260f39-8a7a-46a8-8fae-f5e9e2fd6492,別府上人ケ浜店,8740023,大分県,別府市,上人ヶ浜町2-51,,,,,,,
6da1f883-9576-416a-8a34-4d771e3767f2,別府公園店,8740931,大分県,別府市,西野口町2780-28,別府公園東駐車場,,,,,,
36816c07-b13e-4bba-93cb-889beae1ea5f,別府トキハ店,8740920,大分県,別府市,北浜2-9-1,トキハ別府店,,,,,,
0e413e79-f07d-4a6b-8d4c-80b4163a8448,日田店,8748558,大分県,日田市,庄手648-6,,,,,,,
e0ff887e-462b-4f8f-bba7-e7974e97b4c2,大分大学医学部附属病院店,8795503,大分県,由布市,挾間町医大ヶ丘1-1,大分大学医学部附属病院,,,,,,
16e88d6e-adb0-48b8-8be4-09b55471b0ec,宮崎神宮東店,8800056,宮崎県,宮崎市,神宮東1-4-25,,,,,,,
33aedaac-0057-4a3c-b0f4-ce6e85e6267d,アミュプラザみやざき店,8800801,宮崎県,宮崎市,老松2-2-22,アミュプラザみやざき うみ館,,,,,,
76aa2a8c-bdee-448b-b2f8-8c1e9fcfc04b,イオンモール宮崎 North Mall 2階店,8800834,宮崎県,宮崎市,新別府町江口862-1,イオンモール宮崎 North Mall 2階,,,,,,
c0b50523-20f6-4940-b5be-f0df80fd4013,宮崎新別府店,8800834,宮崎県,宮崎市,新別府町江口881-1,,,,,,,
54d8e940-6546-4a11-9217-a38300d58045,イオンモール宮崎 South Mall 1階店,8800834,宮崎県,宮崎市,新別府町江口862-1,イオンモール宮崎 South Mall 1階,,,,,,
76a1028f-139e-464a-b4e2-abcd45020de1,宮崎青葉町店,8800842,宮崎県,宮崎市,青葉町121-6,,,,,,,
657f1fe3-d68a-4862-b3be-4994bf38ee54,TSUTAYA BOOKSTORE 宮交シティ店,8800902,宮崎県,宮崎市,大淀4-7-30,宮交シティ,,,,,,
a8aac4d0-bd7f-4d2d-b84f-8386cbafb065,宮崎赤江店,8800916,宮崎県,宮崎市,恒久今井出916,,,,,,,
0a4ec3d6-1b27-44d5-ae18-c4e3339754fa,宮崎恒久店,8808602,宮崎県,宮崎市,恒久942-１,,,,,,,
8c72f189-fb30-4302-ac5b-d78e9dd687a5,宮崎山形屋店,8800805,宮崎県,宮崎市,橘通東3-4-12,宮崎山形屋,,,,,,
444aa4e7-09c4-4830-ab84-5eff87ba13a2,延岡昭和町店,8820034,宮崎県,延岡市,昭和町2-2291-2,,,,,,,
be0280d1-b047-4540-b8db-c344368ba2b4,蔦屋書店 延岡エンクロス店,8820053,宮崎県,延岡市,幸町3-4266-5,NOBEOKA ENCROSS,,,,,,
48f373ee-7135-46ad-80cd-1fd0d33990d6,日向店,8830052,宮崎県,日向市,鶴町2-11-9,,,,,,,
d117bdf7-a1d8-43e2-b763-b476bdb6b0ba,イオンモール都城駅前店,8850023,宮崎県,都城市,栄町4672－5,イオンモール都城駅前,,,,,,
a64677e5-3231-4807-9a81-7a575c3efdaf,アミュプラザ鹿児島 プレミアム館1階店,8900053,鹿児島県,鹿児島市,中央町1-1,アミュプラザ鹿児島,,,,,,
232a58e6-b44c-4551-80a8-b98bdec10452,アミュプラザ鹿児島 本館2階店,8900053,鹿児島県,鹿児島市,中央町1-1,アミュプラザ鹿児島,,,,,,
dbbad477-82b9-4552-86c1-b3643796ec42,鹿児島与次郎店,8900062,鹿児島県,鹿児島市,与次郎1-8-30,,,,,,,
08a590fd-46bc-404a-bca5-5cdc9cb777ad,鹿児島OPSIAミスミ店,8900073,鹿児島県,鹿児島市,宇宿2-3-5,OPSIA Misumi,,,,,,
25c389fd-1b5d-4ea2-8494-8745c2cb6f43,イオンモール鹿児島店,8910115,鹿児島県,鹿児島市,東開町7,イオンモール鹿児島,,,,,,
e262ca36-27ed-4f8e-962e-03412fabdc2b,鹿児島東開町店,8910115,鹿児島県,鹿児島市,東開町4-113,,,,,,,
c7d84617-226d-4d01-bec7-76f015215d20,鹿児島谷山駅前店,8910141,鹿児島県,鹿児島市,谷山中央1-4127-17,,,,,,,
b71b4066-efbf-4633-9562-cb50a61688fd,鹿児島マルヤガーデンズ店,8920826,鹿児島県,鹿児島市,呉服町6-5,マルヤガーデンズ,,,,,,
bc6c5e10-af20-4019-b3eb-46910ac44ad0,鹿児島天文館店,8920842,鹿児島県,鹿児島市,東千石町16-18,STYLISHビル,,,,,,
e8f77d58-0d90-4e6b-bf1d-ffb1174ccf12,鹿児島仙巌園店,8920871,鹿児島県,鹿児島市,吉野町9688-1,,,,,,,
d1ff4aa8-44a8-4a2a-a438-aec39f4c4dd0,薩摩川内 センノオト店,8950054,鹿児島県,薩摩川内市,若松町3-33,センノオト1階,,,,,,
478ce75b-77f9-4cc6-a725-4ecb3c72a121,TSUTAYA BOOKSTORE 霧島店,8994341,鹿児島県,霧島市,国分野口東8-40,,,,,,,
57f75ae2-e8ea-4d47-8bc1-8bd2699355d7,イオンタウン姶良店,8995431,鹿児島県,姶良市,西餅田264-1,イオンタウン姶良,,,,,,
0e987925-760f-498b-8579-670c45b6c6a5,那覇メインプレイス店,9000006,沖縄県,那覇市,おもろまち4-4-9,サンエー那覇メインプレイス,,,,,,
0ef1add6-7081-4e92-ae76-7c52a29db5ea,那覇国際通り牧志店,9000013,沖縄県,那覇市,牧志2-1-1,プランタビル,,,,,,
ae57a1d6-4ee7-4bfc-9556-4df6641044f5,那覇オーパ店,9000021,沖縄県,那覇市,泉崎1-20-1,那覇OPA 2階,,,,,,
64858974-2723-43f5-82c6-5356b6b79b96,那覇空港国内線ゲート内店,9010142,沖縄県,那覇市,鏡水150,那覇空港旅客ターミナルビル,,,,,,
bc4f63b0-6771-4783-a711-1e0689d64f2e,イオン那覇ショッピングセンター店,9010155,沖縄県,那覇市,金城5-10-2,イオン那覇ショッピングセンター,,,,,,
eb95f8c7-caf1-40a2-8775-d0807d7316b6,沖縄アウトレットモールあしびなー店,9010225,沖縄県,豊見城市,豊崎1-1192,沖縄アウトレットモールあしびなー,,,,,,
4c2949bb-6242-445f-8cc8-f24d65b81c9b,イーアス沖縄豊崎店,9010225,沖縄県,豊見城市,豊崎3-35,イーアス沖縄豊崎,,,,,,
e9800975-7b99-48e9-9c96-afcec6918bd7,沖縄八重瀬店,9010401,沖縄県,島尻郡,八重瀬町東風平1201-1,,,,,,,
1be83a23-8557-4f63-8ed3-92588ccc8741,イオン南風原店,9011104,沖縄県,島尻郡,南風原町宮平264,イオン南風原ショッピングセンター,,,,,,
66cc9451-d432-4107-be7a-c08d31ace55d,沖縄津嘉山店,9011117,沖縄県,島尻郡,南風原町津嘉山1321-1,,,,,,,
8b8acd2d-e4e6-44a5-8ca9-2e56fbd5810b,浦添バークレーズコート店,9012104,沖縄県,浦添市,当山2-2-9,バークレーズコート,,,,,,
121f1ae6-d052-4124-bbaf-d2eb2ee1b09e,経塚シティ店,9012111,沖縄県,浦添市,経塚652,サンエー経塚シティ,,,,,,
841c795f-7cd3-4781-b1a1-fcdcde7b3ad3,浦添西海岸パルコシティ店,9012123,沖縄県,浦添市,西洲3-1-1,サンエー浦添西海岸 PARCO CITY,,,,,,
b9dc38f7-6144-485b-87b6-9530afa65068,沖縄宜野湾店,9012227,沖縄県,宜野湾市,宇地泊1-1-2,,,,,,,
452f0881-1fe4-4e46-87ea-b7846a5b0cf5,イオンモール沖縄ライカム店,9012306,沖縄県,中頭郡,北中城村ライカム1,,,,,,,
119134b7-677c-4c34-8ff9-bc224a6a5c19,沖縄真嘉比店,9020069,沖縄県,那覇市,松島1-14-13,,,,,,,
26b1e86a-b704-409e-af11-f327cdd49aa2,沖縄西原シティ店,9030102,沖縄県,中頭郡,西原町嘉手苅130,サンエー西原シティ,,,,,,
571cf21c-45f9-46ae-8db2-c2fad8f75cb0,沖縄国体道路店,9040101,沖縄県,中頭郡,北谷町上勢頭813－1,,,,,,,
fa9d09a5-e535-47ac-9c31-3ea91d4ed50c,美浜アメリカンビレッジ店,9040115,沖縄県,中頭郡,北谷町美浜16-2,美浜メディアステーション,,,,,,
c29fb9cd-0f1d-49b7-86ea-0161819f03d9,イオン北谷店,9040115,沖縄県,中頭郡,北谷町美浜8-3,イオン北谷店,,,,,,
cfb6ad12-615d-43a8-8d2a-3ef24ac19d14,北谷国道58号店,9040115,沖縄県,中頭郡,北谷町美浜1-5-11,,,,,,,
33f48f69-c1c1-4425-bd96-f9e606654def,北谷北前店,9040117,沖縄県,中頭郡,北谷町北前1-6-1,,,,,,,
33cf71e2-f485-493b-aec9-914c86d87a9b,沖縄読谷店,9040314,沖縄県,中頭郡,読谷村古堅639-1,イオンタウン読谷ショッピングセンター,,,,,,
322b83fc-1c93-4220-8c1e-07e4d6c176a1,沖縄登川店,9042142,沖縄県,沖縄市,登川1-8-6,,,,,,,
684df170-872f-472e-8c29-b93876ae19d9,沖縄あわせモール店,9042161,沖縄県,沖縄市,古謝2-17-6,,,,,,,
3aeb7f98-6758-40ed-843a-86eb3cf47f82,沖縄うるま安慶名店,9042214,沖縄県,うるま市,安慶名1-2-28,,,,,,,
9ca3e349-26aa-4bca-ba76-163ef0ab66af,沖縄アブロうるま店,9042233,沖縄県,うるま市,豊原393-1,ABLOうるま,,,,,,
25d2b3c0-ab44-463b-90d7-4f438257cd75,具志川メインシティ店,9042244,沖縄県,うるま市,江洲450-1,サンエー具志川メインシティ,,,,,,
fc5edc78-ec64-4fda-9e0e-b72eb7f1b271,沖縄うるま江洲店,9042244,沖縄県,うるま市,江洲598-5,,,,,,,
b8afb8fc-136e-4a34-9e6c-5d84b842cebb,イオン名護店,9050012,沖縄県,名護市,名護見取川原4472,イオン名護,,,,,,
149367d5-f4c8-44a0-b8ce-77ce5f0c16d1,沖縄本部町店,9050205,沖縄県,国頭郡,本部町山川1421-4,,,,,,,
dd1280cf-6834-44d7-8b86-8a5212f836a4,石垣空港店,9070242,沖縄県,石垣市,白保1960-104-1,,,,,,,
